{
  "type": "FeatureCollection",
  "meta": {
    "subject": "Reach-network river centerlines (NHDPlus via USGS NLDI)",
    "source": "USGS NLDI navigation over the NHDPlus flowline network; stitched + cut per reach by watermark.hydrology.reach_geometry. Geometry verbatim (WGS84).",
    "crs": "WGS84 (EPSG:4326)",
    "caveats": [
      "Centerline geometry is real NHDPlus, display-only — no reprojection/simplification.",
      "Mainstem/tributary reach boundaries are a proportional cut by reaches.yaml lengths.",
      "Tier-0 screening geometry for the FlowLayer viz; not a calibrated hydraulic network."
    ]
  },
  "features": [
    {
      "type": "Feature",
      "properties": {
        "node_id": "ottawa-head",
        "name": "Ottawa River upstream of Lima",
        "receiving_water": "Ottawa River",
        "downstream": "lima-abstraction",
        "length_km": 22.742
      },
      "geometry": {
        "type": "LineString",
        "coordinates": [
          [
            -83.9102486,
            40.787951596
          ],
          [
            -83.910609804,
            40.788202994
          ],
          [
            -83.911271602,
            40.788294196
          ],
          [
            -83.911933504,
            40.788339794
          ],
          [
            -83.912504904,
            40.788110897
          ],
          [
            -83.912805602,
            40.787882194
          ],
          [
            -83.912925802,
            40.787653394
          ],
          [
            -83.912775405,
            40.787561998
          ],
          [
            -83.912684903,
            40.787333496
          ],
          [
            -83.912865303,
            40.787150495
          ],
          [
            -83.913376607,
            40.786898799
          ],
          [
            -83.913827702,
            40.786601193
          ],
          [
            -83.914278805,
            40.786440998
          ],
          [
            -83.914549701,
            40.786578096
          ],
          [
            -83.915993802,
            40.7869206
          ],
          [
            -83.916234702,
            40.787126295
          ],
          [
            -83.916415401,
            40.787400596
          ],
          [
            -83.916686207,
            40.7875605
          ],
          [
            -83.9171376,
            40.787651896
          ],
          [
            -83.9181903,
            40.787468493
          ],
          [
            -83.919092804,
            40.787468195
          ],
          [
            -83.919453703,
            40.787262194
          ],
          [
            -83.919754207,
            40.786919095
          ],
          [
            -83.919934601,
            40.786736093
          ],
          [
            -83.920415901,
            40.786667399
          ],
          [
            -83.9220405,
            40.786986798
          ],
          [
            -83.922672406,
            40.787032299
          ],
          [
            -83.925379701,
            40.786962397
          ],
          [
            -83.926492907,
            40.787053294
          ],
          [
            -83.927184902,
            40.7870759
          ],
          [
            -83.927726202,
            40.786961295
          ],
          [
            -83.928117104,
            40.786686793
          ],
          [
            -83.9284776,
            40.786183596
          ],
          [
            -83.928477302,
            40.785817698
          ],
          [
            -83.9282666,
            40.785589099
          ],
          [
            -83.928266302,
            40.785223193
          ],
          [
            -83.928506501,
            40.784880199
          ],
          [
            -83.928566501,
            40.784582898
          ],
          [
            -83.928446107,
            40.784468696
          ],
          [
            -83.928475805,
            40.784056999
          ],
          [
            -83.928836703,
            40.783942595
          ],
          [
            -83.9293181,
            40.784125298
          ],
          [
            -83.929558806,
            40.784148
          ],
          [
            -83.930341102,
            40.784376197
          ],
          [
            -83.931033,
            40.784421697
          ],
          [
            -83.931243405,
            40.784192897
          ],
          [
            -83.9316044,
            40.784146897
          ],
          [
            -83.931935504,
            40.784306899
          ],
          [
            -83.932236306,
            40.784283794
          ],
          [
            -83.932386607,
            40.784192294
          ],
          [
            -83.932747103,
            40.783734798
          ],
          [
            -83.932957605,
            40.783551797
          ],
          [
            -83.933408007,
            40.782751299
          ],
          [
            -83.933407404,
            40.782110997
          ],
          [
            -83.932925701,
            40.781585395
          ],
          [
            -83.931481101,
            40.780831598
          ],
          [
            -83.930969402,
            40.780465998
          ],
          [
            -83.930367202,
            40.779643193
          ],
          [
            -83.930306606,
            40.779231697
          ],
          [
            -83.930516906,
            40.778979994
          ],
          [
            -83.930697307,
            40.778865598
          ],
          [
            -83.9324717,
            40.778453194
          ],
          [
            -83.932622001,
            40.778315894
          ],
          [
            -83.933313705,
            40.7782012
          ],
          [
            -83.933614306,
            40.778018095
          ],
          [
            -83.933674403,
            40.7778809
          ],
          [
            -83.933854803,
            40.777812198
          ],
          [
            -83.933974907,
            40.777606398
          ],
          [
            -83.934004307,
            40.776851699
          ],
          [
            -83.934515201,
            40.776462793
          ],
          [
            -83.934966207,
            40.776348196
          ],
          [
            -83.9354176,
            40.776462294
          ],
          [
            -83.935898803,
            40.776461996
          ],
          [
            -83.936710306,
            40.775935695
          ],
          [
            -83.936770506,
            40.775867097
          ],
          [
            -83.936980903,
            40.775752597
          ],
          [
            -83.937551707,
            40.775157899
          ],
          [
            -83.938002706,
            40.7748603
          ],
          [
            -83.938333005,
            40.774425693
          ],
          [
            -83.9385131,
            40.774014093
          ],
          [
            -83.938723207,
            40.773488
          ],
          [
            -83.9390238,
            40.773281999
          ],
          [
            -83.940647602,
            40.772983894
          ],
          [
            -83.941309005,
            40.772640496
          ],
          [
            -83.942571603,
            40.772159599
          ],
          [
            -83.943593301,
            40.771312997
          ],
          [
            -83.944555201,
            40.770855099
          ],
          [
            -83.945697702,
            40.770579994
          ],
          [
            -83.946870603,
            40.770373397
          ],
          [
            -83.949036404,
            40.770806395
          ],
          [
            -83.949578002,
            40.771080494
          ],
          [
            -83.950149506,
            40.771125793
          ],
          [
            -83.950569704,
            40.770325296
          ],
          [
            -83.950870506,
            40.770393699
          ],
          [
            -83.951201506,
            40.770530596
          ],
          [
            -83.951322101,
            40.770782098
          ],
          [
            -83.951442502,
            40.770896398
          ],
          [
            -83.952104107,
            40.770918794
          ],
          [
            -83.952254601,
            40.771010093
          ],
          [
            -83.953186907,
            40.771009497
          ],
          [
            -83.953968704,
            40.770894594
          ],
          [
            -83.955713205,
            40.770893298
          ],
          [
            -83.955833606,
            40.770961799
          ],
          [
            -83.956736006,
            40.771098398
          ],
          [
            -83.9575186,
            40.771577999
          ],
          [
            -83.958241202,
            40.772194795
          ],
          [
            -83.9586327,
            40.772674695
          ],
          [
            -83.958753601,
            40.7731319
          ],
          [
            -83.958964705,
            40.773520395
          ],
          [
            -83.959025405,
            40.774000496
          ],
          [
            -83.959115803,
            40.774137698
          ],
          [
            -83.959116504,
            40.774663597
          ],
          [
            -83.959237002,
            40.774823599
          ],
          [
            -83.959598303,
            40.775120497
          ],
          [
            -83.959748901,
            40.775348999
          ],
          [
            -83.959870204,
            40.776057698
          ],
          [
            -83.960231505,
            40.776400499
          ],
          [
            -83.960261904,
            40.776560396
          ],
          [
            -83.960352205,
            40.776606098
          ],
          [
            -83.960352607,
            40.776994899
          ],
          [
            -83.960202806,
            40.777360797
          ],
          [
            -83.959962301,
            40.777543798
          ],
          [
            -83.959782004,
            40.777612597
          ],
          [
            -83.9591804,
            40.777590193
          ],
          [
            -83.958307706,
            40.777247794
          ],
          [
            -83.957947001,
            40.777385294
          ],
          [
            -83.957826801,
            40.777476899
          ],
          [
            -83.957827203,
            40.777774096
          ],
          [
            -83.958308801,
            40.7780938
          ],
          [
            -83.958700202,
            40.778390795
          ],
          [
            -83.958790801,
            40.778665096
          ],
          [
            -83.958640702,
            40.778871
          ],
          [
            -83.958249904,
            40.779008493
          ],
          [
            -83.957227305,
            40.779054999
          ],
          [
            -83.956746407,
            40.779398397
          ],
          [
            -83.956506103,
            40.7797186
          ],
          [
            -83.956356205,
            40.780084595
          ],
          [
            -83.956417404,
            40.7809534
          ],
          [
            -83.956477903,
            40.781227693
          ],
          [
            -83.956839703,
            40.781844698
          ],
          [
            -83.9571108,
            40.782164596
          ],
          [
            -83.957141101,
            40.782279
          ],
          [
            -83.957351804,
            40.782415994
          ],
          [
            -83.957562402,
            40.782415897
          ],
          [
            -83.958313905,
            40.782095194
          ],
          [
            -83.958735004,
            40.782072
          ],
          [
            -83.959246606,
            40.7823231
          ],
          [
            -83.959367305,
            40.782528795
          ],
          [
            -83.959248006,
            40.783397794
          ],
          [
            -83.959458902,
            40.7836034
          ],
          [
            -83.959970206,
            40.783580095
          ],
          [
            -83.960601807,
            40.783511095
          ],
          [
            -83.961143106,
            40.783327699
          ],
          [
            -83.961383305,
            40.783121698
          ],
          [
            -83.9615025,
            40.782252893
          ],
          [
            -83.961622506,
            40.782046899
          ],
          [
            -83.961983405,
            40.781932399
          ],
          [
            -83.962404005,
            40.781588994
          ],
          [
            -83.9629144,
            40.7808799
          ],
          [
            -83.963365301,
            40.780490793
          ],
          [
            -83.963695906,
            40.780353397
          ],
          [
            -83.964327507,
            40.780329898
          ],
          [
            -83.964809105,
            40.780603997
          ],
          [
            -83.965170406,
            40.780763797
          ],
          [
            -83.965771906,
            40.780786194
          ],
          [
            -83.966102406,
            40.780511394
          ],
          [
            -83.966372207,
            40.779802397
          ],
          [
            -83.966522202,
            40.779573597
          ],
          [
            -83.966882601,
            40.779184699
          ],
          [
            -83.968385704,
            40.778611794
          ],
          [
            -83.9691374,
            40.778496899
          ],
          [
            -83.9695886,
            40.7784051
          ],
          [
            -83.970189504,
            40.778015897
          ],
          [
            -83.970550604,
            40.778015599
          ],
          [
            -83.970731504,
            40.778312698
          ],
          [
            -83.970852003,
            40.778472595
          ],
          [
            -83.971785106,
            40.778929099
          ],
          [
            -83.972236305,
            40.778951496
          ],
          [
            -83.972687401,
            40.778882593
          ],
          [
            -83.974069603,
            40.778012499
          ],
          [
            -83.974670902,
            40.777806096
          ],
          [
            -83.976024404,
            40.777804993
          ],
          [
            -83.976325102,
            40.777736098
          ],
          [
            -83.976655707,
            40.777644299
          ],
          [
            -83.977197006,
            40.777529493
          ],
          [
            -83.977949306,
            40.777826093
          ],
          [
            -83.978822105,
            40.778099693
          ],
          [
            -83.979935303,
            40.778304495
          ],
          [
            -83.980416507,
            40.778258197
          ],
          [
            -83.980987102,
            40.777754694
          ],
          [
            -83.981377907,
            40.777617097
          ],
          [
            -83.982129902,
            40.777616397
          ],
          [
            -83.982280202,
            40.777524799
          ],
          [
            -83.982520103,
            40.7771817
          ],
          [
            -83.982790306,
            40.776838399
          ],
          [
            -83.983481102,
            40.776266195
          ],
          [
            -83.984562807,
            40.775579095
          ],
          [
            -83.9850436,
            40.775395796
          ],
          [
            -83.985705301,
            40.775326498
          ],
          [
            -83.986999102,
            40.775622495
          ],
          [
            -83.987450302,
            40.775644898
          ],
          [
            -83.987931006,
            40.775370099
          ],
          [
            -83.988833003,
            40.775140494
          ],
          [
            -83.9905155,
            40.774201393
          ],
          [
            -83.991958506,
            40.773811199
          ],
          [
            -83.992709905,
            40.773558997
          ],
          [
            -83.993160404,
            40.773101099
          ],
          [
            -83.993580304,
            40.772460498
          ],
          [
            -83.994120806,
            40.772048399
          ],
          [
            -83.994511604,
            40.771933697
          ],
          [
            -83.996496506,
            40.771885797
          ],
          [
            -83.997037403,
            40.7717252
          ],
          [
            -83.997457907,
            40.771404594
          ],
          [
            -83.997637704,
            40.771107197
          ],
          [
            -83.997697301,
            40.770764194
          ],
          [
            -83.997817107,
            40.770466894
          ],
          [
            -83.998207405,
            40.770169199
          ],
          [
            -83.999109603,
            40.770122498
          ],
          [
            -83.999944806,
            40.770212993
          ],
          [
            -84.001711801,
            40.770260595
          ],
          [
            -84.002674401,
            40.770147294
          ],
          [
            -84.003697701,
            40.769691095
          ],
          [
            -84.005625203,
            40.7681612
          ],
          [
            -84.0060165,
            40.767910197
          ],
          [
            -84.010560006,
            40.766542897
          ],
          [
            -84.011011504,
            40.766268998
          ],
          [
            -84.011523202,
            40.7659951
          ],
          [
            -84.0131476,
            40.765699498
          ],
          [
            -84.014380701,
            40.765609197
          ],
          [
            -84.014982,
            40.765701294
          ],
          [
            -84.016063601,
            40.766228199
          ],
          [
            -84.016454503,
            40.766274296
          ],
          [
            -84.0169359,
            40.766091898
          ],
          [
            -84.017447703,
            40.765749194
          ],
          [
            -84.017629102,
            40.765200697
          ],
          [
            -84.018050402,
            40.765018195
          ],
          [
            -84.018802203,
            40.764973097
          ],
          [
            -84.019283704,
            40.764813498
          ],
          [
            -84.019915201,
            40.764791295
          ],
          [
            -84.021087505,
            40.765066698
          ],
          [
            -84.023162402,
            40.765137196
          ],
          [
            -84.025538802,
            40.764636196
          ],
          [
            -84.026381604,
            40.764133997
          ],
          [
            -84.026622504,
            40.763882697
          ],
          [
            -84.027495302,
            40.763380297
          ],
          [
            -84.028518304,
            40.762992494
          ],
          [
            -84.0306857,
            40.761348099
          ],
          [
            -84.031047001,
            40.760982499
          ],
          [
            -84.031921104,
            40.759634197
          ],
          [
            -84.032645404,
            40.7577141
          ],
          [
            -84.033096902,
            40.757302999
          ],
          [
            -84.0338488,
            40.757234894
          ],
          [
            -84.034870706,
            40.757533096
          ],
          [
            -84.0357728,
            40.757533699
          ],
          [
            -84.036344104,
            40.757465594
          ],
          [
            -84.0372466,
            40.757168896
          ],
          [
            -84.038661301,
            40.756003894
          ],
          [
            -84.040736303,
            40.7557083
          ],
          [
            -84.049189307,
            40.7523987
          ],
          [
            -84.050573401,
            40.751507796
          ],
          [
            -84.052351601,
            40.750050396
          ],
          [
            -84.052772701,
            40.7498907
          ],
          [
            -84.053614706,
            40.749776997
          ],
          [
            -84.060349405,
            40.749781698
          ],
          [
            -84.060589902,
            40.749713399
          ],
          [
            -84.061913006,
            40.749599896
          ],
          [
            -84.065551907,
            40.748710595
          ],
          [
            -84.0675973,
            40.747728594
          ],
          [
            -84.068379305,
            40.747546196
          ],
          [
            -84.069221005,
            40.747546695
          ],
          [
            -84.070152901,
            40.747638695
          ],
          [
            -84.071114607,
            40.748050794
          ],
          [
            -84.0724665,
            40.749057695
          ],
          [
            -84.072977304,
            40.749286793
          ],
          [
            -84.0738791,
            40.749447294
          ],
          [
            -84.077036202,
            40.749334693
          ],
          [
            -84.0808248,
            40.748879299
          ],
          [
            -84.0835912,
            40.748377696
          ],
          [
            -84.085756406,
            40.747669794
          ],
          [
            -84.086508103,
            40.747670099
          ],
          [
            -84.0868688,
            40.7477846
          ],
          [
            -84.087409601,
            40.7481279
          ],
          [
            -84.0876799,
            40.7485395
          ],
          [
            -84.088100806,
            40.748654097
          ],
          [
            -84.088762201,
            40.748585798
          ],
          [
            -84.089243501,
            40.748403095
          ],
          [
            -84.0897846,
            40.748403296
          ],
          [
            -84.090415806,
            40.748609297
          ],
          [
            -84.092068903,
            40.749433197
          ],
          [
            -84.093571804,
            40.749868296
          ],
          [
            -84.093962707,
            40.749959797
          ],
          [
            -84.094383501,
            40.749914296
          ],
          [
            -84.094654202,
            40.749777198
          ],
          [
            -84.0947145,
            40.749479994
          ],
          [
            -84.093603201,
            40.748039
          ],
          [
            -84.093302906,
            40.747375898
          ],
          [
            -84.093183301,
            40.746506795
          ],
          [
            -84.093273602,
            40.746300995
          ],
          [
            -84.093303904,
            40.745866694
          ],
          [
            -84.093485907,
            40.743671693
          ],
          [
            -84.093305707,
            40.743259996
          ],
          [
            -84.092705004,
            40.742573798
          ],
          [
            -84.092705101,
            40.742436498
          ],
          [
            -84.092615001,
            40.742390797
          ],
          [
            -84.0927056,
            40.741659194
          ],
          [
            -84.093006507,
            40.741201997
          ],
          [
            -84.093547903,
            40.740836397
          ],
          [
            -84.095231801,
            40.740150899
          ],
          [
            -84.09532414744506,
            40.740083027341676
          ]
        ]
      }
    },
    {
      "type": "Feature",
      "properties": {
        "node_id": "lima-abstraction",
        "name": "Lima supply abstraction reach (cooling draw — unbuffered bound)",
        "receiving_water": "Ottawa River",
        "downstream": "lima-reach",
        "length_km": 3.328
      },
      "geometry": {
        "type": "LineString",
        "coordinates": [
          [
            -84.09532414744506,
            40.740083027341676
          ],
          [
            -84.097066306,
            40.738802597
          ],
          [
            -84.100193702,
            40.7370658
          ],
          [
            -84.101276204,
            40.736631796
          ],
          [
            -84.10311,
            40.736197896
          ],
          [
            -84.105184205,
            40.7359927
          ],
          [
            -84.106356703,
            40.735787198
          ],
          [
            -84.109633707,
            40.734576195
          ],
          [
            -84.111527801,
            40.733776294
          ],
          [
            -84.112339504,
            40.733570695
          ],
          [
            -84.115676105,
            40.733114094
          ],
          [
            -84.117600001,
            40.732771493
          ],
          [
            -84.120846607,
            40.731514394
          ],
          [
            -84.121718407,
            40.731102899
          ],
          [
            -84.123852804,
            40.729685396
          ],
          [
            -84.124965303,
            40.728542395
          ],
          [
            -84.125716805,
            40.7275135
          ],
          [
            -84.125957303,
            40.726667397
          ],
          [
            -84.126228102,
            40.725043997
          ],
          [
            -84.126378506,
            40.724700995
          ]
        ]
      }
    },
    {
      "type": "Feature",
      "properties": {
        "node_id": "lima-reach",
        "name": "Ottawa River at Lima (assimilative reach / USGS 04187100)",
        "receiving_water": "Ottawa River",
        "downstream": "outlet",
        "length_km": 38.702
      },
      "geometry": {
        "type": "LineString",
        "coordinates": [
          [
            -84.126378506,
            40.724700995
          ],
          [
            -84.127220206,
            40.723992296
          ],
          [
            -84.128482506,
            40.723374896
          ],
          [
            -84.130195603,
            40.723077796
          ],
          [
            -84.133832306,
            40.7228036
          ],
          [
            -84.135635607,
            40.7223235
          ],
          [
            -84.136176504,
            40.722071797
          ],
          [
            -84.136747502,
            40.721385896
          ],
          [
            -84.137078106,
            40.720539898
          ],
          [
            -84.137529001,
            40.7184361
          ],
          [
            -84.138009705,
            40.715211995
          ],
          [
            -84.138490506,
            40.712696694
          ],
          [
            -84.138971202,
            40.711599097
          ],
          [
            -84.139572203,
            40.710707396
          ],
          [
            -84.140563704,
            40.709563896
          ],
          [
            -84.141314901,
            40.708900794
          ],
          [
            -84.142426707,
            40.7084205
          ],
          [
            -84.143147804,
            40.708168998
          ],
          [
            -84.143868901,
            40.708077498
          ],
          [
            -84.144259602,
            40.708237499
          ],
          [
            -84.144530006,
            40.708488993
          ],
          [
            -84.145040907,
            40.709335096
          ],
          [
            -84.145431601,
            40.709495097
          ],
          [
            -84.145672001,
            40.709495097
          ],
          [
            -84.146002501,
            40.709289297
          ],
          [
            -84.146303006,
            40.708831899
          ],
          [
            -84.146603301,
            40.707734294
          ],
          [
            -84.147053801,
            40.707254
          ],
          [
            -84.147805005,
            40.707002498
          ],
          [
            -84.148435906,
            40.706613697
          ],
          [
            -84.148886502,
            40.706567898
          ],
          [
            -84.149878107,
            40.706842095
          ],
          [
            -84.150268704,
            40.706819296
          ],
          [
            -84.152251802,
            40.706384599
          ],
          [
            -84.153573804,
            40.7062243
          ],
          [
            -84.154024504,
            40.706315696
          ],
          [
            -84.1542053,
            40.7076419
          ],
          [
            -84.154776402,
            40.708304897
          ],
          [
            -84.154896602,
            40.708396398
          ],
          [
            -84.154806502,
            40.7087394
          ],
          [
            -84.154626407,
            40.708922394
          ],
          [
            -84.153965302,
            40.709242597
          ],
          [
            -84.153544702,
            40.709539898
          ],
          [
            -84.153364606,
            40.709951498
          ],
          [
            -84.153244406,
            40.710340299
          ],
          [
            -84.153394803,
            40.710797593
          ],
          [
            -84.153755501,
            40.711140595
          ],
          [
            -84.155558504,
            40.711597599
          ],
          [
            -84.156400107,
            40.7121462
          ],
          [
            -84.156730801,
            40.712717794
          ],
          [
            -84.157091506,
            40.713083595
          ],
          [
            -84.157151602,
            40.713243797
          ],
          [
            -84.157963306,
            40.714112498
          ],
          [
            -84.159285903,
            40.715095498
          ],
          [
            -84.1595264,
            40.715346999
          ],
          [
            -84.159526706,
            40.716055796
          ],
          [
            -84.159406707,
            40.7164675
          ],
          [
            -84.159346603,
            40.716810398
          ],
          [
            -84.160037905,
            40.717221998
          ],
          [
            -84.161510602,
            40.717496097
          ],
          [
            -84.163914807,
            40.717678398
          ],
          [
            -84.165026806,
            40.717540897
          ],
          [
            -84.165807903,
            40.7172435
          ],
          [
            -84.166168407,
            40.716854699
          ],
          [
            -84.166769102,
            40.716031395
          ],
          [
            -84.167219803,
            40.715779699
          ],
          [
            -84.1677607,
            40.715802498
          ],
          [
            -84.168061301,
            40.715939499
          ],
          [
            -84.169083506,
            40.716739595
          ],
          [
            -84.171127401,
            40.717539296
          ],
          [
            -84.172750302,
            40.717813298
          ],
          [
            -84.174884103,
            40.717629693
          ],
          [
            -84.175785601,
            40.717652194
          ],
          [
            -84.177408703,
            40.718017496
          ],
          [
            -84.178430803,
            40.718451597
          ],
          [
            -84.179212503,
            40.7190459
          ],
          [
            -84.179483205,
            40.719411597
          ],
          [
            -84.179393306,
            40.719914697
          ],
          [
            -84.179123104,
            40.720372096
          ],
          [
            -84.178342007,
            40.720806994
          ],
          [
            -84.175096706,
            40.721699797
          ],
          [
            -84.174375601,
            40.7219745
          ],
          [
            -84.174015202,
            40.722386196
          ],
          [
            -84.173895203,
            40.722660594
          ],
          [
            -84.173896201,
            40.724672899
          ],
          [
            -84.173566304,
            40.725907698
          ],
          [
            -84.173536405,
            40.726227894
          ],
          [
            -84.173927106,
            40.726410694
          ],
          [
            -84.175279506,
            40.725975797
          ],
          [
            -84.175940804,
            40.726044193
          ],
          [
            -84.176181301,
            40.7261585
          ],
          [
            -84.176421903,
            40.726455696
          ],
          [
            -84.176603004,
            40.7278734
          ],
          [
            -84.177024201,
            40.728581995
          ],
          [
            -84.178467907,
            40.729839198
          ],
          [
            -84.178588301,
            40.730113596
          ],
          [
            -84.178528503,
            40.730593793
          ],
          [
            -84.178017706,
            40.7309599
          ],
          [
            -84.176575102,
            40.731463395
          ],
          [
            -84.175733805,
            40.731966794
          ],
          [
            -84.175132804,
            40.732195593
          ],
          [
            -84.174742103,
            40.732584395
          ],
          [
            -84.174652301,
            40.733201794
          ],
          [
            -84.174683005,
            40.734299496
          ],
          [
            -84.1750139,
            40.7346652
          ],
          [
            -84.175585307,
            40.735145196
          ],
          [
            -84.175946005,
            40.735305198
          ],
          [
            -84.176457405,
            40.735693797
          ],
          [
            -84.179854602,
            40.736492999
          ],
          [
            -84.180636503,
            40.736812696
          ],
          [
            -84.183644101,
            40.738892496
          ],
          [
            -84.1845164,
            40.739669695
          ],
          [
            -84.184727207,
            40.740012594
          ],
          [
            -84.184758,
            40.741087295
          ],
          [
            -84.184548005,
            40.741727598
          ],
          [
            -84.184037201,
            40.742253795
          ],
          [
            -84.183105506,
            40.742688596
          ],
          [
            -84.181873001,
            40.742826298
          ],
          [
            -84.181211703,
            40.743100896
          ],
          [
            -84.181001402,
            40.743352495
          ],
          [
            -84.180941604,
            40.743809894
          ],
          [
            -84.181152403,
            40.744472899
          ],
          [
            -84.181543805,
            40.745135896
          ],
          [
            -84.182175703,
            40.745936096
          ],
          [
            -84.182807304,
            40.746301599
          ],
          [
            -84.184070401,
            40.7467127
          ],
          [
            -84.184822403,
            40.747146897
          ],
          [
            -84.185303606,
            40.747535497
          ],
          [
            -84.185785502,
            40.748564199
          ],
          [
            -84.185936801,
            40.7500505
          ],
          [
            -84.185994707,
            40.750623293
          ],
          [
            -84.186084904,
            40.750668995
          ],
          [
            -84.186326005,
            40.751309097
          ],
          [
            -84.187018201,
            40.752040394
          ],
          [
            -84.188853905,
            40.7535486
          ],
          [
            -84.189485706,
            40.7539142
          ],
          [
            -84.189966902,
            40.754051097
          ],
          [
            -84.190598406,
            40.753982097
          ],
          [
            -84.191229403,
            40.753661595
          ],
          [
            -84.191710204,
            40.753272593
          ],
          [
            -84.191980101,
            40.752517894
          ],
          [
            -84.192340702,
            40.752334699
          ],
          [
            -84.192821801,
            40.752403095
          ],
          [
            -84.193182804,
            40.752585799
          ],
          [
            -84.194536902,
            40.753476694
          ],
          [
            -84.194777705,
            40.753705196
          ],
          [
            -84.1946887,
            40.755054399
          ],
          [
            -84.195742905,
            40.756631598
          ],
          [
            -84.197578907,
            40.758322597
          ],
          [
            -84.1977899,
            40.758711196
          ],
          [
            -84.198271804,
            40.759442598
          ],
          [
            -84.198603004,
            40.7597396
          ],
          [
            -84.199114904,
            40.760448195
          ],
          [
            -84.1999579,
            40.761248
          ],
          [
            -84.200288802,
            40.761384897
          ],
          [
            -84.201011002,
            40.761841796
          ],
          [
            -84.201041505,
            40.762070395
          ],
          [
            -84.200951405,
            40.762299195
          ],
          [
            -84.200230107,
            40.762756996
          ],
          [
            -84.200200707,
            40.763420098
          ],
          [
            -84.200682603,
            40.763968699
          ],
          [
            -84.202517301,
            40.764196098
          ],
          [
            -84.204262204,
            40.764720798
          ],
          [
            -84.204954304,
            40.765017599
          ],
          [
            -84.206098005,
            40.765702896
          ],
          [
            -84.207091302,
            40.766433895
          ],
          [
            -84.207362607,
            40.766982399
          ],
          [
            -84.207453601,
            40.767576896
          ],
          [
            -84.207543902,
            40.767645493
          ],
          [
            -84.207544602,
            40.768125698
          ],
          [
            -84.2078766,
            40.769085698
          ],
          [
            -84.208087504,
            40.769497298
          ],
          [
            -84.208478905,
            40.769839995
          ],
          [
            -84.208870001,
            40.7699541
          ],
          [
            -84.209471501,
            40.769885093
          ],
          [
            -84.2101629,
            40.769632995
          ],
          [
            -84.2107343,
            40.769632496
          ],
          [
            -84.210975401,
            40.769929595
          ],
          [
            -84.210976303,
            40.770684294
          ],
          [
            -84.210856207,
            40.7708444
          ],
          [
            -84.210887,
            40.771438897
          ],
          [
            -84.211218506,
            40.771873094
          ],
          [
            -84.2126939,
            40.773152597
          ],
          [
            -84.212844506,
            40.773358293
          ],
          [
            -84.212786905,
            40.775278993
          ],
          [
            -84.212696806,
            40.775439195
          ],
          [
            -84.212125607,
            40.775668398
          ],
          [
            -84.211193301,
            40.775806196
          ],
          [
            -84.2110129,
            40.775874995
          ],
          [
            -84.210953005,
            40.776080795
          ],
          [
            -84.211103603,
            40.7763322
          ],
          [
            -84.212187201,
            40.776880197
          ],
          [
            -84.212729305,
            40.77736
          ],
          [
            -84.213000603,
            40.777748495
          ],
          [
            -84.212880701,
            40.778068796
          ],
          [
            -84.212550305,
            40.778457798
          ],
          [
            -84.211077802,
            40.779624999
          ],
          [
            -84.210987903,
            40.779876597
          ],
          [
            -84.210988402,
            40.780288294
          ],
          [
            -84.211199403,
            40.780676797
          ],
          [
            -84.212464601,
            40.782070696
          ],
          [
            -84.212465405,
            40.782710999
          ],
          [
            -84.211564802,
            40.784289494
          ],
          [
            -84.211505301,
            40.784769699
          ],
          [
            -84.212078601,
            40.786141299
          ],
          [
            -84.212470703,
            40.7868957
          ],
          [
            -84.213947907,
            40.789272599
          ],
          [
            -84.214641407,
            40.790483996
          ],
          [
            -84.214882404,
            40.790712595
          ],
          [
            -84.215183802,
            40.791192494
          ],
          [
            -84.215274803,
            40.791672595
          ],
          [
            -84.215396903,
            40.792998798
          ],
          [
            -84.215668105,
            40.793295793
          ],
          [
            -84.216029406,
            40.793478496
          ],
          [
            -84.216300406,
            40.7937527
          ],
          [
            -84.216331102,
            40.794187099
          ],
          [
            -84.215970606,
            40.794576198
          ],
          [
            -84.215369202,
            40.794850998
          ],
          [
            -84.214286104,
            40.794943199
          ],
          [
            -84.213503703,
            40.794783793
          ],
          [
            -84.212961704,
            40.794509798
          ],
          [
            -84.2116981,
            40.794510797
          ],
          [
            -84.211487502,
            40.794602394
          ],
          [
            -84.211217403,
            40.795174293
          ],
          [
            -84.210586205,
            40.795677796
          ],
          [
            -84.209834501,
            40.796112798
          ],
          [
            -84.209533803,
            40.796341695
          ],
          [
            -84.209053904,
            40.797530994
          ],
          [
            -84.208904207,
            40.798194297
          ],
          [
            -84.208423302,
            40.798560597
          ],
          [
            -84.207340606,
            40.799041495
          ],
          [
            -84.2064391,
            40.800002493
          ],
          [
            -84.205988005,
            40.800185695
          ],
          [
            -84.205205701,
            40.800323494
          ],
          [
            -84.204604305,
            40.800643995
          ],
          [
            -84.204394005,
            40.801009893
          ],
          [
            -84.204394907,
            40.801695898
          ],
          [
            -84.204485402,
            40.8019474
          ],
          [
            -84.205087803,
            40.802404493
          ],
          [
            -84.205780305,
            40.802746996
          ],
          [
            -84.205991201,
            40.8030212
          ],
          [
            -84.206022203,
            40.8038444
          ],
          [
            -84.205662005,
            40.804644898
          ],
          [
            -84.205662504,
            40.805056497
          ],
          [
            -84.205843501,
            40.805445194
          ],
          [
            -84.206416301,
            40.806290798
          ],
          [
            -84.206446506,
            40.806473695
          ],
          [
            -84.207140006,
            40.807524994
          ],
          [
            -84.207230903,
            40.808050998
          ],
          [
            -84.207262605,
            40.809423
          ],
          [
            -84.207413703,
            40.810131699
          ],
          [
            -84.207505703,
            40.811480694
          ],
          [
            -84.207837805,
            40.812372297
          ],
          [
            -84.208229803,
            40.8129666
          ],
          [
            -84.208410405,
            40.813080899
          ],
          [
            -84.208742201,
            40.813675098
          ],
          [
            -84.208742604,
            40.814040996
          ],
          [
            -84.2083821,
            40.814521499
          ],
          [
            -84.207841001,
            40.815093398
          ],
          [
            -84.207811706,
            40.815779395
          ],
          [
            -84.208143301,
            40.816305198
          ],
          [
            -84.208625406,
            40.816716395
          ],
          [
            -84.208836101,
            40.816739194
          ],
          [
            -84.208866403,
            40.8169678
          ],
          [
            -84.210041404,
            40.817881599
          ],
          [
            -84.210523702,
            40.818452999
          ],
          [
            -84.210885607,
            40.819092996
          ],
          [
            -84.211369604,
            40.821013398
          ],
          [
            -84.211310402,
            40.821882397
          ],
          [
            -84.210979901,
            40.822431393
          ],
          [
            -84.210107706,
            40.823003598
          ],
          [
            -84.208362706,
            40.823759496
          ],
          [
            -84.206197202,
            40.825270094
          ],
          [
            -84.205475703,
            40.826070897
          ],
          [
            -84.205024704,
            40.826620094
          ],
          [
            -84.204454504,
            40.828083895
          ],
          [
            -84.204485402,
            40.828838393
          ],
          [
            -84.204757102,
            40.829455696
          ],
          [
            -84.204757906,
            40.8301645
          ],
          [
            -84.204547405,
            40.8304848
          ],
          [
            -84.203975804,
            40.830896795
          ],
          [
            -84.201899506,
            40.831721298
          ],
          [
            -84.201267704,
            40.8320418
          ],
          [
            -84.200816803,
            40.832636595
          ],
          [
            -84.200216904,
            40.8347179
          ],
          [
            -84.1999164,
            40.835243896
          ],
          [
            -84.199525401,
            40.835587293
          ],
          [
            -84.199284501,
            40.835610196
          ],
          [
            -84.199194402,
            40.8358161
          ],
          [
            -84.197871506,
            40.8374632
          ],
          [
            -84.197871506,
            40.837577499
          ],
          [
            -84.197660901,
            40.837669097
          ],
          [
            -84.197360404,
            40.838149495
          ],
          [
            -84.197150201,
            40.838721298
          ],
          [
            -84.197150506,
            40.8392701
          ],
          [
            -84.197451904,
            40.839567199
          ],
          [
            -84.198295206,
            40.839863896
          ],
          [
            -84.199319206,
            40.840114899
          ],
          [
            -84.1998014,
            40.840503298
          ],
          [
            -84.200073004,
            40.841189094
          ],
          [
            -84.199772701,
            40.841852397
          ],
          [
            -84.199471802,
            40.842058398
          ],
          [
            -84.198869705,
            40.842150196
          ],
          [
            -84.196701907,
            40.842219993
          ],
          [
            -84.195949301,
            40.842357695
          ],
          [
            -84.1952269,
            40.842632495
          ],
          [
            -84.194324501,
            40.843456298
          ],
          [
            -84.194144502,
            40.844279595
          ],
          [
            -84.1947174,
            40.845079497
          ],
          [
            -84.195079006,
            40.845330797
          ],
          [
            -84.195229702,
            40.845536597
          ],
          [
            -84.195230402,
            40.8461539
          ],
          [
            -84.1946292,
            40.847411893
          ],
          [
            -84.194630004,
            40.848166496
          ],
          [
            -84.194871403,
            40.848715194
          ],
          [
            -84.195353903,
            40.849377997
          ],
          [
            -84.196077406,
            40.8501551
          ],
          [
            -84.196228005,
            40.850314997
          ],
          [
            -84.196198203,
            40.850589395
          ],
          [
            -84.194753505,
            40.851413399
          ],
          [
            -84.194814205,
            40.851824999
          ],
          [
            -84.195206106,
            40.852259196
          ],
          [
            -84.195808806,
            40.852716297
          ],
          [
            -84.196863905,
            40.853996195
          ],
          [
            -84.197376907,
            40.8550248
          ],
          [
            -84.197588205,
            40.855596393
          ],
          [
            -84.197589003,
            40.856282398
          ],
          [
            -84.197318606,
            40.856876999
          ],
          [
            -84.196446002,
            40.857723497
          ],
          [
            -84.195904307,
            40.858181193
          ],
          [
            -84.194007903,
            40.859119795
          ],
          [
            -84.193526402,
            40.859508798
          ],
          [
            -84.193285801,
            40.859874696
          ],
          [
            -84.193286501,
            40.860652193
          ],
          [
            -84.193558,
            40.861109398
          ],
          [
            -84.194040202,
            40.861497894
          ],
          [
            -84.194823503,
            40.861794598
          ],
          [
            -84.195456304,
            40.862228699
          ],
          [
            -84.195426702,
            40.862777598
          ],
          [
            -84.195065804,
            40.863303699
          ],
          [
            -84.193320103,
            40.864585198
          ],
          [
            -84.192266904,
            40.8655461
          ],
          [
            -84.191996306,
            40.866049193
          ],
          [
            -84.1920873,
            40.866872497
          ],
          [
            -84.192328602,
            40.867169596
          ],
          [
            -84.193051703,
            40.867374994
          ],
          [
            -84.193654105,
            40.8674661
          ],
          [
            -84.195672005,
            40.867259294
          ],
          [
            -84.196545601,
            40.8673044
          ],
          [
            -84.197690301,
            40.867601
          ],
          [
            -84.198293105,
            40.867943697
          ],
          [
            -84.1994991,
            40.868994899
          ],
          [
            -84.200795807,
            40.870480396
          ],
          [
            -84.201308206,
            40.870800197
          ],
          [
            -84.203296505,
            40.871027693
          ],
          [
            -84.204170302,
            40.871370099
          ],
          [
            -84.204893902,
            40.871918499
          ],
          [
            -84.205074802,
            40.872146897
          ],
          [
            -84.205045007,
            40.872421399
          ],
          [
            -84.204744004,
            40.872604497
          ],
          [
            -84.203720205,
            40.872970998
          ],
          [
            -84.203600101,
            40.873313993
          ],
          [
            -84.203751303,
            40.873839796
          ],
          [
            -84.2039323,
            40.874091297
          ],
          [
            -84.204384506,
            40.874433994
          ],
          [
            -84.205137804,
            40.874570698
          ],
          [
            -84.206674106,
            40.8746612
          ],
          [
            -84.207337402,
            40.875049494
          ],
          [
            -84.207548507,
            40.875300899
          ],
          [
            -84.207670607,
            40.876787193
          ],
          [
            -84.208275206,
            40.878730394
          ],
          [
            -84.208637506,
            40.879393198
          ],
          [
            -84.2092712,
            40.880238794
          ],
          [
            -84.210085303,
            40.880809896
          ],
          [
            -84.211351305,
            40.8814722
          ],
          [
            -84.212648205,
            40.882683299
          ],
          [
            -84.213101305,
            40.883620396
          ],
          [
            -84.213554703,
            40.884854898
          ],
          [
            -84.213886201,
            40.884991899
          ],
          [
            -84.215001404,
            40.885242596
          ],
          [
            -84.2155139,
            40.885539494
          ],
          [
            -84.215845905,
            40.8860652
          ],
          [
            -84.215756305,
            40.886728399
          ],
          [
            -84.215786703,
            40.8868884
          ],
          [
            -84.217384607,
            40.887733296
          ],
          [
            -84.218591303,
            40.888852894
          ],
          [
            -84.218802601,
            40.889149994
          ],
          [
            -84.218713,
            40.8898132
          ],
          [
            -84.218352206,
            40.890430897
          ],
          [
            -84.218322605,
            40.890819594
          ],
          [
            -84.218503602,
            40.891025297
          ],
          [
            -84.220162705,
            40.892510295
          ],
          [
            -84.220283307,
            40.892510198
          ],
          [
            -84.220283702,
            40.892830297
          ],
          [
            -84.220464706,
            40.893035993
          ],
          [
            -84.220405005,
            40.893424697
          ],
          [
            -84.219833106,
            40.893859699
          ],
          [
            -84.218929507,
            40.894249097
          ],
          [
            -84.217906103,
            40.8950959
          ],
          [
            -84.2178763,
            40.8953932
          ],
          [
            -84.218087904,
            40.8958961
          ],
          [
            -84.218480304,
            40.896467499
          ],
          [
            -84.218603306,
            40.898388095
          ],
          [
            -84.2184228,
            40.898685597
          ],
          [
            -84.216947705,
            40.899829894
          ],
          [
            -84.216345906,
            40.9005621
          ],
          [
            -84.216015503,
            40.901545599
          ],
          [
            -84.216017507,
            40.903123394
          ],
          [
            -84.215776704,
            40.903375097
          ],
          [
            -84.215355106,
            40.903604098
          ],
          [
            -84.213908702,
            40.903742194
          ],
          [
            -84.212884001,
            40.903742895
          ],
          [
            -84.211949602,
            40.903652094
          ],
          [
            -84.211165801,
            40.903469697
          ],
          [
            -84.210533202,
            40.903584495
          ],
          [
            -84.2102319,
            40.903744794
          ],
          [
            -84.210081607,
            40.904042095
          ],
          [
            -84.210263304,
            40.904796496
          ],
          [
            -84.210233703,
            40.905276798
          ],
          [
            -84.210083202,
            40.905482598
          ],
          [
            -84.210113704,
            40.905734196
          ],
          [
            -84.209873505,
            40.906580493
          ],
          [
            -84.210054502,
            40.906763293
          ],
          [
            -84.2108685,
            40.907014295
          ],
          [
            -84.212043904,
            40.906921998
          ],
          [
            -84.212526001,
            40.906830199
          ],
          [
            -84.213008106,
            40.906829894
          ],
          [
            -84.213219106,
            40.906921193
          ],
          [
            -84.21328,
            40.907378495
          ],
          [
            -84.212858602,
            40.907858893
          ],
          [
            -84.212286502,
            40.908316597
          ],
          [
            -84.210237905,
            40.909026794
          ],
          [
            -84.209303707,
            40.909164697
          ],
          [
            -84.208550304,
            40.909165196
          ],
          [
            -84.207947403,
            40.909051195
          ],
          [
            -84.207495004,
            40.908799894
          ],
          [
            -84.206862301,
            40.908983298
          ],
          [
            -84.206892803,
            40.909303397
          ],
          [
            -84.2076471,
            40.910148993
          ],
          [
            -84.207858503,
            40.910537593
          ],
          [
            -84.208130002,
            40.910720393
          ],
          [
            -84.208824404,
            40.911817499
          ],
          [
            -84.208795004,
            40.912503399
          ],
          [
            -84.2081929,
            40.913098298
          ],
          [
            -84.208072603,
            40.913304195
          ],
          [
            -84.2081635,
            40.913784295
          ],
          [
            -84.208375104,
            40.914332993
          ],
          [
            -84.2088883,
            40.915041596
          ],
          [
            -84.208979703,
            40.915956199
          ],
          [
            -84.208739102,
            40.916482195
          ],
          [
            -84.208197206,
            40.917054296
          ],
          [
            -84.207866006,
            40.917351693
          ],
          [
            -84.207112402,
            40.917443596
          ],
          [
            -84.206600003,
            40.917443894
          ],
          [
            -84.205966905,
            40.917284295
          ],
          [
            -84.2050924,
            40.916918993
          ],
          [
            -84.204157107,
            40.916142099
          ],
          [
            -84.204036504,
            40.9161193
          ],
          [
            -84.204036407,
            40.916004993
          ]
        ]
      }
    },
    {
      "type": "Feature",
      "properties": {
        "node_id": "dug-run-head",
        "name": "Dug Run (headwater)",
        "receiving_water": "Dug Run",
        "downstream": "dug-run-confluence",
        "length_km": 9.144
      },
      "geometry": {
        "type": "LineString",
        "coordinates": [
          [
            -84.194777705,
            40.753705196
          ],
          [
            -84.1946887,
            40.755054399
          ],
          [
            -84.195742905,
            40.756631598
          ],
          [
            -84.197578907,
            40.758322597
          ],
          [
            -84.1977899,
            40.758711196
          ],
          [
            -84.198271804,
            40.759442598
          ],
          [
            -84.198603004,
            40.7597396
          ],
          [
            -84.199114904,
            40.760448195
          ],
          [
            -84.1999579,
            40.761248
          ],
          [
            -84.200288802,
            40.761384897
          ],
          [
            -84.201011002,
            40.761841796
          ],
          [
            -84.201041505,
            40.762070395
          ],
          [
            -84.200951405,
            40.762299195
          ],
          [
            -84.200230107,
            40.762756996
          ],
          [
            -84.200200707,
            40.763420098
          ],
          [
            -84.200682603,
            40.763968699
          ],
          [
            -84.202517301,
            40.764196098
          ],
          [
            -84.204262204,
            40.764720798
          ],
          [
            -84.204954304,
            40.765017599
          ],
          [
            -84.206098005,
            40.765702896
          ],
          [
            -84.207091302,
            40.766433895
          ],
          [
            -84.207362607,
            40.766982399
          ],
          [
            -84.207453601,
            40.767576896
          ],
          [
            -84.207543902,
            40.767645493
          ],
          [
            -84.207544602,
            40.768125698
          ],
          [
            -84.2078766,
            40.769085698
          ],
          [
            -84.208087504,
            40.769497298
          ],
          [
            -84.208478905,
            40.769839995
          ],
          [
            -84.208870001,
            40.7699541
          ],
          [
            -84.209471501,
            40.769885093
          ],
          [
            -84.2101629,
            40.769632995
          ],
          [
            -84.2107343,
            40.769632496
          ],
          [
            -84.210975401,
            40.769929595
          ],
          [
            -84.210976303,
            40.770684294
          ],
          [
            -84.210856207,
            40.7708444
          ],
          [
            -84.210887,
            40.771438897
          ],
          [
            -84.211218506,
            40.771873094
          ],
          [
            -84.2126939,
            40.773152597
          ],
          [
            -84.212844506,
            40.773358293
          ],
          [
            -84.212786905,
            40.775278993
          ],
          [
            -84.212696806,
            40.775439195
          ],
          [
            -84.212125607,
            40.775668398
          ],
          [
            -84.211193301,
            40.775806196
          ],
          [
            -84.2110129,
            40.775874995
          ],
          [
            -84.210953005,
            40.776080795
          ],
          [
            -84.211103603,
            40.7763322
          ],
          [
            -84.212187201,
            40.776880197
          ],
          [
            -84.212729305,
            40.77736
          ],
          [
            -84.213000603,
            40.777748495
          ],
          [
            -84.212880701,
            40.778068796
          ],
          [
            -84.212550305,
            40.778457798
          ],
          [
            -84.211077802,
            40.779624999
          ],
          [
            -84.210987903,
            40.779876597
          ],
          [
            -84.210988402,
            40.780288294
          ],
          [
            -84.211199403,
            40.780676797
          ],
          [
            -84.212464601,
            40.782070696
          ],
          [
            -84.212465405,
            40.782710999
          ],
          [
            -84.211564802,
            40.784289494
          ],
          [
            -84.211505301,
            40.784769699
          ],
          [
            -84.212078601,
            40.786141299
          ],
          [
            -84.212470703,
            40.7868957
          ],
          [
            -84.213947907,
            40.789272599
          ],
          [
            -84.214641407,
            40.790483996
          ],
          [
            -84.214882404,
            40.790712595
          ],
          [
            -84.215183802,
            40.791192494
          ],
          [
            -84.215274803,
            40.791672595
          ],
          [
            -84.215396903,
            40.792998798
          ],
          [
            -84.215668105,
            40.793295793
          ],
          [
            -84.216029406,
            40.793478496
          ],
          [
            -84.216300406,
            40.7937527
          ],
          [
            -84.216331102,
            40.794187099
          ],
          [
            -84.215970606,
            40.794576198
          ],
          [
            -84.215369202,
            40.794850998
          ],
          [
            -84.214286104,
            40.794943199
          ],
          [
            -84.213503703,
            40.794783793
          ],
          [
            -84.212961704,
            40.794509798
          ],
          [
            -84.2116981,
            40.794510797
          ],
          [
            -84.211487502,
            40.794602394
          ],
          [
            -84.211217403,
            40.795174293
          ],
          [
            -84.210586205,
            40.795677796
          ],
          [
            -84.209834501,
            40.796112798
          ],
          [
            -84.209533803,
            40.796341695
          ],
          [
            -84.209053904,
            40.797530994
          ],
          [
            -84.208904207,
            40.798194297
          ],
          [
            -84.208423302,
            40.798560597
          ],
          [
            -84.207340606,
            40.799041495
          ],
          [
            -84.2064391,
            40.800002493
          ],
          [
            -84.205988005,
            40.800185695
          ],
          [
            -84.205205701,
            40.800323494
          ],
          [
            -84.204604305,
            40.800643995
          ],
          [
            -84.204394005,
            40.801009893
          ],
          [
            -84.204394907,
            40.801695898
          ],
          [
            -84.204485402,
            40.8019474
          ],
          [
            -84.205087803,
            40.802404493
          ],
          [
            -84.205780305,
            40.802746996
          ],
          [
            -84.205991201,
            40.8030212
          ],
          [
            -84.206022203,
            40.8038444
          ],
          [
            -84.205662005,
            40.804644898
          ],
          [
            -84.205662504,
            40.805056497
          ],
          [
            -84.205843501,
            40.805445194
          ],
          [
            -84.206416301,
            40.806290798
          ],
          [
            -84.206446506,
            40.806473695
          ],
          [
            -84.207140006,
            40.807524994
          ],
          [
            -84.207230903,
            40.808050998
          ],
          [
            -84.207262605,
            40.809423
          ],
          [
            -84.207413703,
            40.810131699
          ],
          [
            -84.207505703,
            40.811480694
          ],
          [
            -84.207837805,
            40.812372297
          ],
          [
            -84.208229803,
            40.8129666
          ],
          [
            -84.208410405,
            40.813080899
          ],
          [
            -84.208742201,
            40.813675098
          ],
          [
            -84.208742604,
            40.814040996
          ],
          [
            -84.2083821,
            40.814521499
          ],
          [
            -84.207841001,
            40.815093398
          ],
          [
            -84.207811706,
            40.815779395
          ],
          [
            -84.208143301,
            40.816305198
          ],
          [
            -84.208625406,
            40.816716395
          ],
          [
            -84.208836101,
            40.816739194
          ],
          [
            -84.20883912900631,
            40.81676203805021
          ]
        ]
      }
    },
    {
      "type": "Feature",
      "properties": {
        "node_id": "dug-run-confluence",
        "name": "Dug Run -> Ottawa River",
        "receiving_water": "Ottawa River",
        "downstream": "lima-reach",
        "length_km": 2.613
      },
      "geometry": {
        "type": "LineString",
        "coordinates": [
          [
            -84.20883912900631,
            40.81676203805021
          ],
          [
            -84.208866403,
            40.8169678
          ],
          [
            -84.210041404,
            40.817881599
          ],
          [
            -84.210523702,
            40.818452999
          ],
          [
            -84.210885607,
            40.819092996
          ],
          [
            -84.211369604,
            40.821013398
          ],
          [
            -84.211310402,
            40.821882397
          ],
          [
            -84.210979901,
            40.822431393
          ],
          [
            -84.210107706,
            40.823003598
          ],
          [
            -84.208362706,
            40.823759496
          ],
          [
            -84.206197202,
            40.825270094
          ],
          [
            -84.205475703,
            40.826070897
          ],
          [
            -84.205024704,
            40.826620094
          ],
          [
            -84.204454504,
            40.828083895
          ],
          [
            -84.204485402,
            40.828838393
          ],
          [
            -84.204757102,
            40.829455696
          ],
          [
            -84.204757906,
            40.8301645
          ],
          [
            -84.204547405,
            40.8304848
          ],
          [
            -84.203975804,
            40.830896795
          ],
          [
            -84.201899506,
            40.831721298
          ],
          [
            -84.201267704,
            40.8320418
          ],
          [
            -84.200816803,
            40.832636595
          ],
          [
            -84.200216904,
            40.8347179
          ],
          [
            -84.1999164,
            40.835243896
          ],
          [
            -84.199525401,
            40.835587293
          ],
          [
            -84.199284501,
            40.835610196
          ]
        ]
      }
    },
    {
      "type": "Feature",
      "properties": {
        "node_id": "pike-run-head",
        "name": "Pike Run (headwater)",
        "receiving_water": "Pike Run",
        "downstream": "pike-run-confluence",
        "length_km": 14.553
      },
      "geometry": {
        "type": "LineString",
        "coordinates": [
          [
            -84.100358903,
            40.763076097
          ],
          [
            -84.101321504,
            40.762618996
          ],
          [
            -84.102374204,
            40.761910297
          ],
          [
            -84.102855407,
            40.761841796
          ],
          [
            -84.104419,
            40.761819199
          ],
          [
            -84.105321102,
            40.761979498
          ],
          [
            -84.107125305,
            40.762665696
          ],
          [
            -84.109019704,
            40.763008997
          ],
          [
            -84.110132404,
            40.763123497
          ],
          [
            -84.110583305,
            40.763306394
          ],
          [
            -84.1109742,
            40.763649493
          ],
          [
            -84.111365005,
            40.764198296
          ],
          [
            -84.111846,
            40.764472798
          ],
          [
            -84.112236902,
            40.764769994
          ],
          [
            -84.112597704,
            40.765387498
          ],
          [
            -84.1127178,
            40.765776299
          ],
          [
            -84.113650002,
            40.767010994
          ],
          [
            -84.114101,
            40.767719895
          ],
          [
            -84.114431702,
            40.768017195
          ],
          [
            -84.1147926,
            40.768108696
          ],
          [
            -84.117379002,
            40.768428996
          ],
          [
            -84.118130803,
            40.768726297
          ],
          [
            -84.118491605,
            40.769023694
          ],
          [
            -84.118762106,
            40.770761393
          ],
          [
            -84.118972607,
            40.771218695
          ],
          [
            -84.119213201,
            40.771447293
          ],
          [
            -84.119995102,
            40.771950498
          ],
          [
            -84.120235704,
            40.772247799
          ],
          [
            -84.120656706,
            40.772476494
          ],
          [
            -84.1223711,
            40.772293597
          ],
          [
            -84.124957606,
            40.772316493
          ],
          [
            -84.125408806,
            40.772384994
          ],
          [
            -84.125499003,
            40.7726366
          ],
          [
            -84.1256494,
            40.774100095
          ],
          [
            -84.126100503,
            40.775311999
          ],
          [
            -84.126190901,
            40.775357597
          ],
          [
            -84.126401201,
            40.776043594
          ],
          [
            -84.126762204,
            40.776546597
          ],
          [
            -84.127123207,
            40.777644195
          ],
          [
            -84.127243504,
            40.7786045
          ],
          [
            -84.126912601,
            40.779382095
          ],
          [
            -84.126401201,
            40.779953696
          ],
          [
            -84.125468701,
            40.780548096
          ],
          [
            -84.124957405,
            40.781074099
          ],
          [
            -84.124506101,
            40.781599894
          ],
          [
            -84.123633705,
            40.782240197
          ],
          [
            -84.122941807,
            40.783520699
          ],
          [
            -84.122641005,
            40.783749394
          ],
          [
            -84.122280002,
            40.784252293
          ],
          [
            -84.122099407,
            40.784823999
          ],
          [
            -84.1221295,
            40.785121195
          ],
          [
            -84.122249901,
            40.785441399
          ],
          [
            -84.122430205,
            40.785852894
          ],
          [
            -84.122881502,
            40.786241598
          ],
          [
            -84.1246562,
            40.786836199
          ],
          [
            -84.124957107,
            40.786813393
          ],
          [
            -84.127183206,
            40.786584698
          ],
          [
            -84.128085703,
            40.7866304
          ],
          [
            -84.128416605,
            40.786836199
          ],
          [
            -84.128536902,
            40.787019096
          ],
          [
            -84.128928103,
            40.788162395
          ],
          [
            -84.128928006,
            40.788573995
          ],
          [
            -84.129319206,
            40.789557293
          ],
          [
            -84.129319206,
            40.789854497
          ],
          [
            -84.129590005,
            40.790380396
          ],
          [
            -84.130913705,
            40.791615099
          ],
          [
            -84.131455407,
            40.792232499
          ],
          [
            -84.132087201,
            40.7928726
          ],
          [
            -84.133711904,
            40.793558493
          ],
          [
            -84.135637507,
            40.7946788
          ],
          [
            -84.1360889,
            40.794793099
          ],
          [
            -84.140210703,
            40.794884197
          ],
          [
            -84.141354002,
            40.795249894
          ],
          [
            -84.144423604,
            40.798130497
          ],
          [
            -84.145176001,
            40.798724897
          ],
          [
            -84.146710701,
            40.799296297
          ],
          [
            -84.147613503,
            40.799867898
          ],
          [
            -84.148366004,
            40.800736599
          ],
          [
            -84.149479702,
            40.801742494
          ],
          [
            -84.149780706,
            40.802131198
          ],
          [
            -84.149780802,
            40.802291296
          ],
          [
            -84.149961405,
            40.802451298
          ],
          [
            -84.150383003,
            40.803914599
          ],
          [
            -84.150383301,
            40.804943599
          ],
          [
            -84.1501128,
            40.805995494
          ],
          [
            -84.150113605,
            40.808099099
          ],
          [
            -84.149782702,
            40.808785096
          ],
          [
            -84.149181105,
            40.809676997
          ],
          [
            -84.148489706,
            40.812055193
          ],
          [
            -84.148068406,
            40.812626898
          ],
          [
            -84.147978306,
            40.812924199
          ],
          [
            -84.148310505,
            40.817039996
          ],
          [
            -84.148340702,
            40.817245699
          ],
          [
            -84.148491204,
            40.817451596
          ],
          [
            -84.1489731,
            40.818526097
          ],
          [
            -84.149183907,
            40.818869099
          ],
          [
            -84.150990203,
            40.820652299
          ],
          [
            -84.151803002,
            40.821086697
          ],
          [
            -84.152284704,
            40.821452297
          ],
          [
            -84.152706303,
            40.822138295
          ],
          [
            -84.154452704,
            40.823692799
          ],
          [
            -84.154603302,
            40.823921397
          ],
          [
            -84.154723905,
            40.824424297
          ],
          [
            -84.154453203,
            40.825041793
          ],
          [
            -84.154423401,
            40.8255677
          ],
          [
            -84.154694505,
            40.826413795
          ],
          [
            -84.155176505,
            40.827351093
          ],
          [
            -84.156802706,
            40.8292486
          ],
          [
            -84.157013603,
            40.829660095
          ],
          [
            -84.157375306,
            40.830711894
          ],
          [
            -84.157616407,
            40.831489198
          ],
          [
            -84.157586604,
            40.832060896
          ],
          [
            -84.156984903,
            40.833135694
          ],
          [
            -84.156895407,
            40.834942199
          ],
          [
            -84.156624503,
            40.835399494
          ],
          [
            -84.156143107,
            40.835925497
          ],
          [
            -84.155992806,
            40.836360097
          ],
          [
            -84.155992903,
            40.837091796
          ],
          [
            -84.156324707,
            40.838509396
          ],
          [
            -84.156806603,
            40.839263797
          ],
          [
            -84.157439105,
            40.839743793
          ],
          [
            -84.158282205,
            40.840109497
          ],
          [
            -84.159426503,
            40.840292193
          ],
          [
            -84.164845802,
            40.8402678
          ],
          [
            -84.167977102,
            40.840381093
          ],
          [
            -84.170145005,
            40.840746194
          ],
          [
            -84.171168603,
            40.840745799
          ],
          [
            -84.172071703,
            40.8405625
          ],
          [
            -84.173546702,
            40.8399904
          ],
          [
            -84.174118705,
            40.839990094
          ],
          [
            -84.1748114,
            40.840218596
          ],
          [
            -84.177070506,
            40.841658197
          ],
          [
            -84.178094506,
            40.842206493
          ],
          [
            -84.178606801,
            40.842594996
          ],
          [
            -84.179089002,
            40.843349494
          ],
          [
            -84.179450907,
            40.844126798
          ],
          [
            -84.180475503,
            40.845498294
          ],
          [
            -84.18101356141898,
            40.8459573449581
          ]
        ]
      }
    },
    {
      "type": "Feature",
      "properties": {
        "node_id": "pike-run-confluence",
        "name": "Pike Run -> Ottawa River",
        "receiving_water": "Ottawa River",
        "downstream": "lima-reach",
        "length_km": 1.532
      },
      "geometry": {
        "type": "LineString",
        "coordinates": [
          [
            -84.18101356141898,
            40.8459573449581
          ],
          [
            -84.181198701,
            40.846115299
          ],
          [
            -84.182584301,
            40.846800596
          ],
          [
            -84.183517903,
            40.846960299
          ],
          [
            -84.185324401,
            40.846822299
          ],
          [
            -84.187100604,
            40.846386895
          ],
          [
            -84.188425601,
            40.8465463
          ],
          [
            -84.188817501,
            40.8469349
          ],
          [
            -84.189089,
            40.847529195
          ],
          [
            -84.189480901,
            40.8479864
          ],
          [
            -84.189572006,
            40.849038094
          ],
          [
            -84.1897531,
            40.849518299
          ],
          [
            -84.190114804,
            40.850021094
          ],
          [
            -84.190808006,
            40.8506153
          ],
          [
            -84.191470601,
            40.850774996
          ],
          [
            -84.1930364,
            40.8507284
          ],
          [
            -84.193909906,
            40.850933693
          ],
          [
            -84.194542706,
            40.851344898
          ],
          [
            -84.194753505,
            40.851413399
          ]
        ]
      }
    }
  ]
}
