{
  "type": "FeatureCollection",
  "meta": {
    "subject": "Reach-network river centerlines (NHDPlus via USGS NLDI)",
    "source": "USGS NLDI navigation over the NHDPlus flowline network; stitched + cut per reach by watermark.hydrology.reach_geometry. Geometry verbatim (WGS84).",
    "crs": "WGS84 (EPSG:4326)",
    "caveats": [
      "Centerline geometry is real NHDPlus, display-only — no reprojection/simplification.",
      "Mainstem/tributary reach boundaries are a proportional cut by reaches.yaml lengths.",
      "Tier-0 screening geometry for the FlowLayer viz; not a calibrated hydraulic network."
    ]
  },
  "features": [
    {
      "type": "Feature",
      "properties": {
        "node_id": "great-miami-head",
        "name": "Great Miami River above the Sidney gage",
        "receiving_water": "Great Miami River",
        "downstream": "great-miami-sidney",
        "length_km": 8.502
      },
      "geometry": {
        "type": "LineString",
        "coordinates": [
          [
            -84.085898004,
            40.330770895
          ],
          [
            -84.085987903,
            40.330404997
          ],
          [
            -84.086048201,
            40.329398893
          ],
          [
            -84.086257607,
            40.329170398
          ],
          [
            -84.087243907,
            40.328553297
          ],
          [
            -84.088259801,
            40.328164898
          ],
          [
            -84.088947102,
            40.328050897
          ],
          [
            -84.0909191,
            40.327982895
          ],
          [
            -84.092174105,
            40.327777594
          ],
          [
            -84.093459003,
            40.3273663
          ],
          [
            -84.095461205,
            40.3264293
          ],
          [
            -84.096716501,
            40.325652294
          ],
          [
            -84.100571804,
            40.322886296
          ],
          [
            -84.101707302,
            40.321971998
          ],
          [
            -84.103828907,
            40.320737697
          ],
          [
            -84.105203301,
            40.320189096
          ],
          [
            -84.107055902,
            40.319023199
          ],
          [
            -84.108519904,
            40.318291798
          ],
          [
            -84.109894201,
            40.317697398
          ],
          [
            -84.111477703,
            40.3171947
          ],
          [
            -84.112045303,
            40.317057498
          ],
          [
            -84.112911806,
            40.316623196
          ],
          [
            -84.114017107,
            40.315800093
          ],
          [
            -84.114644505,
            40.315045498
          ],
          [
            -84.115690604,
            40.312301695
          ],
          [
            -84.116616905,
            40.310746796
          ],
          [
            -84.117005304,
            40.309900694
          ],
          [
            -84.117602803,
            40.309168994
          ],
          [
            -84.119215906,
            40.308117196
          ],
          [
            -84.121247105,
            40.3072256
          ],
          [
            -84.122770503,
            40.306814
          ],
          [
            -84.124950901,
            40.3064024
          ],
          [
            -84.1260859,
            40.306402497
          ],
          [
            -84.130924605,
            40.307179898
          ],
          [
            -84.131492205,
            40.307179995
          ],
          [
            -84.133642703,
            40.307385497
          ],
          [
            -84.134031005,
            40.307362594
          ],
          [
            -84.135464706,
            40.306996696
          ],
          [
            -84.136151701,
            40.306928098
          ],
          [
            -84.138153002,
            40.307339594
          ],
          [
            -84.139049105,
            40.307339497
          ],
          [
            -84.139616504,
            40.307156496
          ],
          [
            -84.140661806,
            40.306470394
          ],
          [
            -84.141916104,
            40.305349596
          ],
          [
            -84.142363906,
            40.304137595
          ],
          [
            -84.142512806,
            40.302719794
          ],
          [
            -84.143288806,
            40.300364397
          ],
          [
            -84.143318102,
            40.298169099
          ],
          [
            -84.143228404,
            40.297757499
          ],
          [
            -84.143197902,
            40.294990495
          ],
          [
            -84.143197604,
            40.294190198
          ],
          [
            -84.143496104,
            40.293206796
          ],
          [
            -84.143675201,
            40.2929096
          ],
          [
            -84.144033507,
            40.292657994
          ],
          [
            -84.144690402,
            40.292612098
          ],
          [
            -84.145108603,
            40.292726398
          ],
          [
            -84.145466901,
            40.292749196
          ],
          [
            -84.146213405,
            40.292588994
          ],
          [
            -84.1468703,
            40.292245895
          ],
          [
            -84.146989703,
            40.292039998
          ],
          [
            -84.147348002,
            40.291994199
          ],
          [
            -84.149826005,
            40.290301599
          ],
          [
            -84.150303505,
            40.2894096
          ],
          [
            -84.150452703,
            40.289089493
          ],
          [
            -84.150422506,
            40.288174897
          ],
          [
            -84.150183402,
            40.2876717
          ],
          [
            -84.150004007,
            40.287077196
          ]
        ]
      }
    },
    {
      "type": "Feature",
      "properties": {
        "node_id": "great-miami-sidney",
        "name": "Great Miami River, Sidney gage to the Loramie Creek confluence",
        "receiving_water": "Great Miami River",
        "downstream": "great-miami-outlet",
        "length_km": 16.21
      },
      "geometry": {
        "type": "LineString",
        "coordinates": [
          [
            -84.150004007,
            40.287077196
          ],
          [
            -84.149406403,
            40.285659596
          ],
          [
            -84.149346501,
            40.284927897
          ],
          [
            -84.1494359,
            40.284401797
          ],
          [
            -84.1502413,
            40.282777995
          ],
          [
            -84.151017301,
            40.281817496
          ],
          [
            -84.151554503,
            40.280902699
          ],
          [
            -84.1515541,
            40.279896595
          ],
          [
            -84.1511655,
            40.278638899
          ],
          [
            -84.150239602,
            40.277678698
          ],
          [
            -84.150120206,
            40.277655795
          ],
          [
            -84.149940901,
            40.277289994
          ],
          [
            -84.149940602,
            40.276695393
          ],
          [
            -84.150030106,
            40.276443899
          ],
          [
            -84.150328606,
            40.276146494
          ],
          [
            -84.1507762,
            40.275894798
          ],
          [
            -84.152895801,
            40.275436997
          ],
          [
            -84.153194301,
            40.275208294
          ],
          [
            -84.153492704,
            40.274773695
          ],
          [
            -84.1536716,
            40.274270594
          ],
          [
            -84.153761007,
            40.273721695
          ],
          [
            -84.153879903,
            40.272578396
          ],
          [
            -84.153790206,
            40.272235394
          ],
          [
            -84.153461501,
            40.271663696
          ],
          [
            -84.152953602,
            40.270634897
          ],
          [
            -84.152953401,
            40.2699489
          ],
          [
            -84.153192006,
            40.2695143
          ],
          [
            -84.1543556,
            40.268027596
          ],
          [
            -84.154683605,
            40.267341398
          ],
          [
            -84.154802606,
            40.266426697
          ],
          [
            -84.155071102,
            40.265877798
          ],
          [
            -84.155459002,
            40.265580498
          ],
          [
            -84.156294703,
            40.265351593
          ],
          [
            -84.157638103,
            40.265282594
          ],
          [
            -84.1587127,
            40.265419394
          ],
          [
            -84.160026304,
            40.265784897
          ],
          [
            -84.161131106,
            40.2663562
          ],
          [
            -84.1629823,
            40.266904496
          ],
          [
            -84.164116606,
            40.266812697
          ],
          [
            -84.165101506,
            40.266629398
          ],
          [
            -84.167758003,
            40.265965194
          ],
          [
            -84.170056306,
            40.265689895
          ],
          [
            -84.171339706,
            40.265300699
          ],
          [
            -84.172473602,
            40.264797196
          ],
          [
            -84.173249401,
            40.264270797
          ],
          [
            -84.173935205,
            40.263310097
          ],
          [
            -84.174829602,
            40.261686094
          ],
          [
            -84.176946603,
            40.258803695
          ],
          [
            -84.177572303,
            40.257339999
          ],
          [
            -84.177839503,
            40.255510397
          ],
          [
            -84.178166606,
            40.2539782
          ],
          [
            -84.178195201,
            40.252537496
          ],
          [
            -84.178673401,
            40.250038899
          ],
          [
            -84.178792603,
            40.249581493
          ],
          [
            -84.178791806,
            40.248300999
          ],
          [
            -84.178970501,
            40.247729197
          ],
          [
            -84.179268703,
            40.247248895
          ],
          [
            -84.1799547,
            40.2465626
          ],
          [
            -84.182251401,
            40.244800895
          ],
          [
            -84.1835934,
            40.243519895
          ],
          [
            -84.184339106,
            40.242947899
          ],
          [
            -84.185770907,
            40.242055498
          ],
          [
            -84.185830407,
            40.2418954
          ],
          [
            -84.186009504,
            40.241872497
          ],
          [
            -84.186934203,
            40.241414599
          ],
          [
            -84.187828802,
            40.240636699
          ],
          [
            -84.189110503,
            40.238577999
          ],
          [
            -84.190153405,
            40.236473694
          ],
          [
            -84.1909879,
            40.235352799
          ],
          [
            -84.193015106,
            40.233133696
          ],
          [
            -84.194476403,
            40.232035398
          ],
          [
            -84.195967004,
            40.230662599
          ],
          [
            -84.197189607,
            40.229838699
          ],
          [
            -84.197875507,
            40.229495198
          ],
          [
            -84.199217401,
            40.228671297
          ],
          [
            -84.200708002,
            40.227504194
          ],
          [
            -84.201811001,
            40.226497494
          ],
          [
            -84.202884302,
            40.225673594
          ],
          [
            -84.204881907,
            40.224368997
          ],
          [
            -84.2052994,
            40.224185795
          ],
          [
            -84.206551403,
            40.223224498
          ],
          [
            -84.207654305,
            40.2222405
          ],
          [
            -84.208131306,
            40.221965797
          ],
          [
            -84.208637603,
            40.221073598
          ],
          [
            -84.209114306,
            40.220593199
          ],
          [
            -84.210396104,
            40.219609
          ],
          [
            -84.210813604,
            40.219471499
          ],
          [
            -84.210873105,
            40.219311498
          ],
          [
            -84.211678006,
            40.218784899
          ],
          [
            -84.212125003,
            40.218350194
          ],
          [
            -84.212720804,
            40.217595093
          ],
          [
            -84.212988801,
            40.217114694
          ],
          [
            -84.213583402,
            40.215399198
          ],
          [
            -84.213672101,
            40.214690194
          ],
          [
            -84.213791102,
            40.214392893
          ],
          [
            -84.213909507,
            40.213592395
          ],
          [
            -84.214771904,
            40.211327896
          ],
          [
            -84.214846201,
            40.211172096
          ],
          [
            -84.215000406,
            40.211054698
          ],
          [
            -84.215154506,
            40.210937195
          ],
          [
            -84.215308703,
            40.210819796
          ],
          [
            -84.215462804,
            40.210702397
          ],
          [
            -84.215617001,
            40.210584998
          ],
          [
            -84.215771101,
            40.210467495
          ],
          [
            -84.215925202,
            40.210350096
          ],
          [
            -84.216079406,
            40.210232697
          ],
          [
            -84.216233507,
            40.210115194
          ],
          [
            -84.216274105,
            40.209953196
          ],
          [
            -84.216314703,
            40.209790997
          ],
          [
            -84.216355406,
            40.209628694
          ],
          [
            -84.216396004,
            40.209466398
          ],
          [
            -84.216436706,
            40.209304199
          ],
          [
            -84.216477305,
            40.209141895
          ],
          [
            -84.216517903,
            40.208979599
          ],
          [
            -84.216558605,
            40.2088174
          ],
          [
            -84.216599204,
            40.208655097
          ],
          [
            -84.216639802,
            40.208492793
          ],
          [
            -84.216680504,
            40.208330594
          ],
          [
            -84.216721103,
            40.208168298
          ],
          [
            -84.216761701,
            40.208005995
          ],
          [
            -84.216741405,
            40.2079475
          ],
          [
            -84.216685705,
            40.207787797
          ],
          [
            -84.216630101,
            40.207628094
          ],
          [
            -84.216574505,
            40.207468294
          ],
          [
            -84.216518901,
            40.207308598
          ],
          [
            -84.216526203,
            40.207264297
          ],
          [
            -84.216553301,
            40.207100496
          ],
          [
            -84.216580406,
            40.206936598
          ],
          [
            -84.216607504,
            40.206772797
          ],
          [
            -84.216634601,
            40.206608899
          ],
          [
            -84.216661803,
            40.206444994
          ],
          [
            -84.216688901,
            40.2062812
          ],
          [
            -84.216716006,
            40.206117295
          ],
          [
            -84.216743104,
            40.205953494
          ],
          [
            -84.216770202,
            40.205789596
          ],
          [
            -84.216797307,
            40.205625698
          ],
          [
            -84.216824405,
            40.205461897
          ],
          [
            -84.216851607,
            40.205297999
          ],
          [
            -84.216878705,
            40.205134198
          ],
          [
            -84.216905802,
            40.2049703
          ],
          [
            -84.2169329,
            40.204806395
          ],
          [
            -84.216960005,
            40.204642594
          ],
          [
            -84.216987103,
            40.204478696
          ],
          [
            -84.217014201,
            40.204314895
          ],
          [
            -84.217041403,
            40.204150997
          ],
          [
            -84.217068501,
            40.203987099
          ],
          [
            -84.217095405,
            40.203912795
          ],
          [
            -84.217153005,
            40.203753494
          ],
          [
            -84.217210606,
            40.203594096
          ],
          [
            -84.217268206,
            40.203434795
          ],
          [
            -84.217325807,
            40.203275494
          ],
          [
            -84.217383407,
            40.203116193
          ],
          [
            -84.217441,
            40.202956796
          ],
          [
            -84.2174986,
            40.202797495
          ],
          [
            -84.217556201,
            40.202638194
          ],
          [
            -84.217613801,
            40.202478893
          ],
          [
            -84.217671402,
            40.202319495
          ],
          [
            -84.217729002,
            40.202160195
          ],
          [
            -84.217778005,
            40.202088095
          ],
          [
            -84.217877805,
            40.201941095
          ],
          [
            -84.217977606,
            40.201794095
          ],
          [
            -84.218077406,
            40.201647095
          ],
          [
            -84.218177304,
            40.201500095
          ],
          [
            -84.218277104,
            40.201353095
          ],
          [
            -84.218376905,
            40.201205999
          ],
          [
            -84.218476705,
            40.201058999
          ],
          [
            -84.218576603,
            40.200911999
          ],
          [
            -84.218676403,
            40.200764999
          ],
          [
            -84.218689606,
            40.2006853
          ],
          [
            -84.218716703,
            40.200521395
          ],
          [
            -84.218743801,
            40.200357594
          ],
          [
            -84.218770906,
            40.200193696
          ],
          [
            -84.218798004,
            40.200029798
          ],
          [
            -84.218825102,
            40.199865997
          ],
          [
            -84.218852207,
            40.199702099
          ],
          [
            -84.218812704,
            40.1996639
          ],
          [
            -84.218678102,
            40.199533597
          ],
          [
            -84.218543403,
            40.199403293
          ],
          [
            -84.218596704,
            40.199319296
          ],
          [
            -84.2186912,
            40.199170299
          ],
          [
            -84.218785703,
            40.199021295
          ],
          [
            -84.218786001,
            40.199019499
          ],
          [
            -84.218807206,
            40.198855095
          ],
          [
            -84.218828402,
            40.198690794
          ],
          [
            -84.218849607,
            40.198526397
          ],
          [
            -84.218870804,
            40.198362097
          ],
          [
            -84.218892105,
            40.1981977
          ],
          [
            -84.218913302,
            40.1980334
          ],
          [
            -84.218934506,
            40.197868995
          ],
          [
            -84.218955703,
            40.197704695
          ],
          [
            -84.2189769,
            40.197540298
          ],
          [
            -84.218998201,
            40.197375998
          ],
          [
            -84.219019406,
            40.197211593
          ],
          [
            -84.219040602,
            40.197047293
          ],
          [
            -84.219061807,
            40.196882896
          ],
          [
            -84.219083004,
            40.196718596
          ],
          [
            -84.219104305,
            40.196554199
          ],
          [
            -84.219125502,
            40.196389899
          ],
          [
            -84.219146706,
            40.196225494
          ],
          [
            -84.219167903,
            40.196061097
          ],
          [
            -84.2191891,
            40.195896797
          ],
          [
            -84.219210401,
            40.1957324
          ],
          [
            -84.219231606,
            40.1955681
          ],
          [
            -84.219252802,
            40.195403695
          ],
          [
            -84.219274007,
            40.195239395
          ],
          [
            -84.219295204,
            40.195074998
          ],
          [
            -84.219316401,
            40.194910698
          ],
          [
            -84.219337702,
            40.194746293
          ],
          [
            -84.219358906,
            40.194581993
          ],
          [
            -84.219380103,
            40.194417596
          ],
          [
            -84.2194013,
            40.194253296
          ],
          [
            -84.219422504,
            40.194088899
          ],
          [
            -84.219424807,
            40.194084398
          ],
          [
            -84.219503902,
            40.193930395
          ],
          [
            -84.2195829,
            40.193776399
          ],
          [
            -84.219662003,
            40.193622395
          ],
          [
            -84.219741106,
            40.193468399
          ],
          [
            -84.219820105,
            40.193314396
          ],
          [
            -84.2198992,
            40.193160295
          ],
          [
            -84.219978206,
            40.193006299
          ],
          [
            -84.220057301,
            40.192852296
          ],
          [
            -84.220136307,
            40.1926983
          ],
          [
            -84.220215403,
            40.192544296
          ],
          [
            -84.220219806,
            40.192517698
          ],
          [
            -84.220246904,
            40.192353897
          ],
          [
            -84.220274001,
            40.192189999
          ],
          [
            -84.220301107,
            40.192026094
          ],
          [
            -84.220328204,
            40.1918623
          ],
          [
            -84.220355302,
            40.191698395
          ],
          [
            -84.2203824,
            40.191534594
          ],
          [
            -84.220409505,
            40.191370696
          ],
          [
            -84.220436603,
            40.191206798
          ],
          [
            -84.220463701,
            40.191042997
          ],
          [
            -84.220490806,
            40.190879099
          ],
          [
            -84.220517904,
            40.190715298
          ],
          [
            -84.220545001,
            40.1905514
          ],
          [
            -84.220572107,
            40.190498598
          ],
          [
            -84.220651105,
            40.190344594
          ],
          [
            -84.2207302,
            40.190190494
          ],
          [
            -84.220809206,
            40.190036498
          ],
          [
            -84.220910706,
            40.189976998
          ],
          [
            -84.221083701,
            40.189875595
          ],
          [
            -84.221256606,
            40.189774193
          ],
          [
            -84.221429601,
            40.189672694
          ],
          [
            -84.221602604,
            40.189571299
          ],
          [
            -84.221629806,
            40.189532898
          ],
          [
            -84.221733205,
            40.189387299
          ],
          [
            -84.221836604,
            40.189241596
          ],
          [
            -84.221939906,
            40.189095996
          ],
          [
            -84.222111404,
            40.188957393
          ],
          [
            -84.222260103,
            40.1887514
          ],
          [
            -84.223034605,
            40.188087694
          ],
          [
            -84.224465005,
            40.187354699
          ],
          [
            -84.226133905,
            40.186690293
          ],
          [
            -84.227326103,
            40.186369099
          ],
          [
            -84.228011802,
            40.186299898
          ],
          [
            -84.2297711,
            40.1863214
          ],
          [
            -84.230636105,
            40.186480798
          ],
          [
            -84.231799707,
            40.186982997
          ],
          [
            -84.232844502,
            40.187805198
          ],
          [
            -84.233352304,
            40.188490897
          ],
          [
            -84.233979307,
            40.189061999
          ],
          [
            -84.234009303,
            40.189199194
          ],
          [
            -84.234277904,
            40.189290494
          ],
          [
            -84.235471904,
            40.190089896
          ],
          [
            -84.2360989,
            40.1907297
          ],
          [
            -84.236546606,
            40.190980799
          ],
          [
            -84.237351604,
            40.190888695
          ],
          [
            -84.239050806,
            40.190544099
          ],
          [
            -84.239557303,
            40.190314896
          ],
          [
            -84.239884704,
            40.1898572
          ],
          [
            -84.240539804,
            40.189284898
          ],
          [
            -84.241225004,
            40.188872695
          ],
          [
            -84.241463102,
            40.188575096
          ]
        ]
      }
    },
    {
      "type": "Feature",
      "properties": {
        "node_id": "mill-branch-head",
        "name": "Mill Branch at the campus (NHDPlus catchment 3983192)",
        "receiving_water": "Mill Branch",
        "downstream": "mill-branch-confluence",
        "length_km": 1.03
      },
      "geometry": {
        "type": "LineString",
        "coordinates": [
          [
            -84.186987504,
            40.271559097
          ],
          [
            -84.187793203,
            40.271238595
          ],
          [
            -84.188419804,
            40.270803697
          ],
          [
            -84.188718006,
            40.270460494
          ],
          [
            -84.188895606,
            40.269042693
          ],
          [
            -84.189104103,
            40.268447898
          ],
          [
            -84.189222507,
            40.267441697
          ],
          [
            -84.189579703,
            40.266343899
          ],
          [
            -84.190325305,
            40.2654972
          ],
          [
            -84.19217305706643,
            40.26366802542693
          ]
        ]
      }
    },
    {
      "type": "Feature",
      "properties": {
        "node_id": "mill-branch-confluence",
        "name": "Mill Branch to the Great Miami River",
        "receiving_water": "Mill Branch",
        "downstream": "great-miami-sidney",
        "length_km": 6.295
      },
      "geometry": {
        "type": "LineString",
        "coordinates": [
          [
            -84.19217305706643,
            40.26366802542693
          ],
          [
            -84.192174301,
            40.263666794
          ],
          [
            -84.1923832,
            40.263529398
          ],
          [
            -84.193038702,
            40.262499996
          ],
          [
            -84.194619901,
            40.261652894
          ],
          [
            -84.194918104,
            40.2613554
          ],
          [
            -84.195484206,
            40.260348894
          ],
          [
            -84.197572105,
            40.258883998
          ],
          [
            -84.197929807,
            40.258426398
          ],
          [
            -84.198197901,
            40.257854499
          ],
          [
            -84.198286705,
            40.257236995
          ],
          [
            -84.1978686,
            40.256962799
          ],
          [
            -84.196943104,
            40.256734796
          ],
          [
            -84.195271604,
            40.256804496
          ],
          [
            -84.195062503,
            40.256690197
          ],
          [
            -84.195091806,
            40.256278597
          ],
          [
            -84.195747003,
            40.254814595
          ],
          [
            -84.195776202,
            40.254128493
          ],
          [
            -84.195686504,
            40.254037097
          ],
          [
            -84.195536703,
            40.253511198
          ],
          [
            -84.195207901,
            40.253099799
          ],
          [
            -84.194402106,
            40.253077395
          ],
          [
            -84.193268105,
            40.253284
          ],
          [
            -84.192969605,
            40.253169797
          ],
          [
            -84.192521602,
            40.252827093
          ],
          [
            -84.192491405,
            40.2525298
          ],
          [
            -84.192640103,
            40.252072297
          ],
          [
            -84.193236403,
            40.251363099
          ],
          [
            -84.195324801,
            40.250607096
          ],
          [
            -84.196043104,
            40.250054494
          ],
          [
            -84.1964304,
            40.249368198
          ],
          [
            -84.196519203,
            40.248499297
          ],
          [
            -84.196698107,
            40.248178996
          ],
          [
            -84.197085701,
            40.247950099
          ],
          [
            -84.197712407,
            40.247926898
          ],
          [
            -84.198339507,
            40.248200998
          ],
          [
            -84.199145906,
            40.248955198
          ],
          [
            -84.199742906,
            40.249137796
          ],
          [
            -84.200130902,
            40.249000393
          ],
          [
            -84.200279906,
            40.248794496
          ],
          [
            -84.200547203,
            40.247513793
          ],
          [
            -84.200844705,
            40.246507399
          ],
          [
            -84.201947302,
            40.244700298
          ],
          [
            -84.202782303,
            40.244150996
          ],
          [
            -84.203796804,
            40.243967496
          ],
          [
            -84.2043337,
            40.243784294
          ],
          [
            -84.204482801,
            40.2435783
          ],
          [
            -84.204542004,
            40.243075199
          ],
          [
            -84.204332702,
            40.242709398
          ],
          [
            -84.204302706,
            40.242389299
          ],
          [
            -84.204392001,
            40.242206298
          ],
          [
            -84.204421304,
            40.241634496
          ],
          [
            -84.204659507,
            40.241085596
          ],
          [
            -84.204927705,
            40.240788199
          ],
          [
            -84.205613807,
            40.240581997
          ],
          [
            -84.206658103,
            40.240375496
          ],
          [
            -84.208418004,
            40.239688396
          ],
          [
            -84.208567001,
            40.239436798
          ],
          [
            -84.208626203,
            40.239002295
          ],
          [
            -84.208118305,
            40.238476597
          ],
          [
            -84.207909502,
            40.238430999
          ],
          [
            -84.2075212,
            40.238088295
          ],
          [
            -84.207401603,
            40.237859696
          ],
          [
            -84.207221806,
            40.237196594
          ],
          [
            -84.206982903,
            40.236853696
          ],
          [
            -84.206893004,
            40.236556396
          ],
          [
            -84.206832305,
            40.235550299
          ],
          [
            -84.207189605,
            40.234726794
          ],
          [
            -84.208084106,
            40.234131694
          ],
          [
            -84.208203204,
            40.233902894
          ],
          [
            -84.208262004,
            40.233011097
          ],
          [
            -84.208500303,
            40.232599296
          ],
          [
            -84.208648905,
            40.232050397
          ],
          [
            -84.208230503,
            40.231341697
          ],
          [
            -84.206767507,
            40.230404995
          ],
          [
            -84.206588201,
            40.230107799
          ],
          [
            -84.206587806,
            40.229673296
          ],
          [
            -84.207391702,
            40.228049196
          ],
          [
            -84.207451105,
            40.227729
          ],
          [
            -84.2073614,
            40.227568999
          ],
          [
            -84.206943505,
            40.227432095
          ],
          [
            -84.206167005,
            40.226654895
          ],
          [
            -84.206077106,
            40.226266295
          ],
          [
            -84.205957606,
            40.226106293
          ],
          [
            -84.205778204,
            40.225626193
          ],
          [
            -84.205777407,
            40.224825799
          ],
          [
            -84.2052994,
            40.224185795
          ]
        ]
      }
    },
    {
      "type": "Feature",
      "properties": {
        "node_id": "mill-creek-head",
        "name": "The unnamed Mill Creek headwater at the campus (NHDPlus catchment 3983206)",
        "receiving_water": "Mill Creek",
        "downstream": "mill-creek-confluence",
        "length_km": 3.713
      },
      "geometry": {
        "type": "LineString",
        "coordinates": [
          [
            -84.200938702,
            40.279920496
          ],
          [
            -84.2025498,
            40.278798893
          ],
          [
            -84.203951202,
            40.277265795
          ],
          [
            -84.204040207,
            40.276785597
          ],
          [
            -84.203920506,
            40.276488394
          ],
          [
            -84.2031435,
            40.275871396
          ],
          [
            -84.203143001,
            40.275391199
          ],
          [
            -84.204335704,
            40.274109796
          ],
          [
            -84.2043944,
            40.273263693
          ],
          [
            -84.204602905,
            40.272737496
          ],
          [
            -84.204572506,
            40.2722115
          ],
          [
            -84.204422705,
            40.2718229
          ],
          [
            -84.2044219,
            40.271159694
          ],
          [
            -84.204570204,
            40.270473495
          ],
          [
            -84.204838403,
            40.269970194
          ],
          [
            -84.205703102,
            40.269123495
          ],
          [
            -84.207880706,
            40.267749898
          ],
          [
            -84.208775803,
            40.267360494
          ],
          [
            -84.209372506,
            40.266971193
          ],
          [
            -84.209640503,
            40.266490795
          ],
          [
            -84.209879205,
            40.266353495
          ],
          [
            -84.211162806,
            40.266329698
          ],
          [
            -84.211431406,
            40.266237997
          ],
          [
            -84.211908504,
            40.265848897
          ],
          [
            -84.212236002,
            40.265162595
          ],
          [
            -84.212533906,
            40.264727794
          ],
          [
            -84.213368602,
            40.263949595
          ],
          [
            -84.215517007,
            40.2631476
          ],
          [
            -84.217844605,
            40.262619793
          ],
          [
            -84.218112901,
            40.262345098
          ],
          [
            -84.218291402,
            40.2619562
          ],
          [
            -84.218828,
            40.261429794
          ],
          [
            -84.219604,
            40.261360593
          ],
          [
            -84.220231302,
            40.261657394
          ],
          [
            -84.220619403,
            40.261725597
          ],
          [
            -84.221097,
            40.261725299
          ],
          [
            -84.221962005,
            40.261198595
          ],
          [
            -84.222528905,
            40.261060894
          ],
          [
            -84.224111304,
            40.261333995
          ],
          [
            -84.224618606,
            40.261218995
          ],
          [
            -84.225274801,
            40.260852598
          ],
          [
            -84.225961007,
            40.260623299
          ],
          [
            -84.227125101,
            40.2605308
          ],
          [
            -84.227811806,
            40.260621697
          ],
          [
            -84.22793019806319,
            40.26068962158921
          ]
        ]
      }
    },
    {
      "type": "Feature",
      "properties": {
        "node_id": "mill-creek-confluence",
        "name": "Mill Creek to Loramie Creek",
        "receiving_water": "Mill Creek",
        "downstream": "loramie-head",
        "length_km": 6.044
      },
      "geometry": {
        "type": "LineString",
        "coordinates": [
          [
            -84.22793019806319,
            40.26068962158921
          ],
          [
            -84.227931201,
            40.260690197
          ],
          [
            -84.228050403,
            40.260598697
          ],
          [
            -84.228169307,
            40.260232694
          ],
          [
            -84.228108704,
            40.259592399
          ],
          [
            -84.227330804,
            40.258403897
          ],
          [
            -84.227001302,
            40.257626697
          ],
          [
            -84.227029905,
            40.256826296
          ],
          [
            -84.228549905,
            40.255429894
          ],
          [
            -84.2298913,
            40.2542395
          ],
          [
            -84.230903603,
            40.252614893
          ],
          [
            -84.231498502,
            40.251379393
          ],
          [
            -84.231885903,
            40.250944495
          ],
          [
            -84.232631005,
            40.250395
          ],
          [
            -84.233379103,
            40.250052698
          ],
          [
            -84.233677104,
            40.249686599
          ],
          [
            -84.233676203,
            40.2490234
          ],
          [
            -84.233586401,
            40.248909198
          ],
          [
            -84.233585805,
            40.248451695
          ],
          [
            -84.233704902,
            40.2482915
          ],
          [
            -84.234182306,
            40.248108193
          ],
          [
            -84.234600402,
            40.248313695
          ],
          [
            -84.2347496,
            40.248267896
          ],
          [
            -84.2347489,
            40.247879095
          ],
          [
            -84.2342996,
            40.246621698
          ],
          [
            -84.234537706,
            40.246164098
          ],
          [
            -84.234865703,
            40.246003799
          ],
          [
            -84.235790804,
            40.245911494
          ],
          [
            -84.235939905,
            40.245819993
          ],
          [
            -84.235968605,
            40.245110996
          ],
          [
            -84.235580005,
            40.244654
          ],
          [
            -84.235548906,
            40.243716396
          ],
          [
            -84.235667802,
            40.243418999
          ],
          [
            -84.236532502,
            40.242915198
          ],
          [
            -84.237308204,
            40.242754497
          ],
          [
            -84.237964407,
            40.242525093
          ],
          [
            -84.238441505,
            40.242204495
          ],
          [
            -84.238679603,
            40.241838396
          ],
          [
            -84.238768503,
            40.241358094
          ],
          [
            -84.238618605,
            40.240877993
          ],
          [
            -84.237961106,
            40.240215398
          ],
          [
            -84.237990007,
            40.239597894
          ],
          [
            -84.2381384,
            40.239094697
          ],
          [
            -84.238466106,
            40.238682799
          ],
          [
            -84.238734305,
            40.238453798
          ],
          [
            -84.239330202,
            40.237744398
          ],
          [
            -84.240134902,
            40.237103395
          ],
          [
            -84.240343407,
            40.2368517
          ],
          [
            -84.240610406,
            40.235868096
          ],
          [
            -84.241295703,
            40.2351356
          ],
          [
            -84.241205402,
            40.234701298
          ],
          [
            -84.240129501,
            40.233535893
          ],
          [
            -84.240009904,
            40.233284399
          ],
          [
            -84.240008906,
            40.232689895
          ],
          [
            -84.240485206,
            40.231911898
          ],
          [
            -84.240633503,
            40.231362894
          ],
          [
            -84.240662307,
            40.230653994
          ],
          [
            -84.240900107,
            40.230036296
          ],
          [
            -84.241823904,
            40.229326598
          ],
          [
            -84.243015505,
            40.228067793
          ],
          [
            -84.243253604,
            40.227701597
          ],
          [
            -84.243252702,
            40.227175593
          ],
          [
            -84.2429239,
            40.2267415
          ],
          [
            -84.242892802,
            40.225986898
          ],
          [
            -84.242534503,
            40.225712694
          ],
          [
            -84.241847806,
            40.225393198
          ],
          [
            -84.241877101,
            40.225095794
          ],
          [
            -84.242562406,
            40.224500693
          ],
          [
            -84.243367203,
            40.224019699
          ],
          [
            -84.244052507,
            40.223447397
          ],
          [
            -84.2446777,
            40.222600594
          ],
          [
            -84.245482206,
            40.221982494
          ],
          [
            -84.245809704,
            40.221547693
          ],
          [
            -84.247120507,
            40.220425896
          ],
          [
            -84.2473289,
            40.220151193
          ],
          [
            -84.247357801,
            40.219533697
          ],
          [
            -84.247177601,
            40.218824998
          ],
          [
            -84.246878602,
            40.218436494
          ],
          [
            -84.246728204,
            40.217613399
          ],
          [
            -84.2471743,
            40.2167897
          ],
          [
            -84.247172706,
            40.215760596
          ]
        ]
      }
    },
    {
      "type": "Feature",
      "properties": {
        "node_id": "loramie-head",
        "name": "Loramie Creek above the Lockington gage",
        "receiving_water": "Loramie Creek",
        "downstream": "loramie-confluence",
        "length_km": 22.74
      },
      "geometry": {
        "type": "LineString",
        "coordinates": [
          [
            -84.3850234,
            40.304470897
          ],
          [
            -84.385083206,
            40.304150797
          ],
          [
            -84.385202505,
            40.303007297
          ],
          [
            -84.384963505,
            40.302344099
          ],
          [
            -84.383410104,
            40.300560296
          ],
          [
            -84.3832606,
            40.299851298
          ],
          [
            -84.383350305,
            40.299759798
          ],
          [
            -84.3833801,
            40.299462497
          ],
          [
            -84.383230701,
            40.299256794
          ],
          [
            -84.382633306,
            40.298959494
          ],
          [
            -84.382215105,
            40.2983649
          ],
          [
            -84.381498203,
            40.297884695
          ],
          [
            -84.380632006,
            40.297747396
          ],
          [
            -84.3796762,
            40.297633097
          ],
          [
            -84.379078902,
            40.297358595
          ],
          [
            -84.378302306,
            40.297061294
          ],
          [
            -84.377197102,
            40.296969898
          ],
          [
            -84.376301102,
            40.296649694
          ],
          [
            -84.375584304,
            40.296626799
          ],
          [
            -84.374957003,
            40.296695493
          ],
          [
            -84.373254605,
            40.296946898
          ],
          [
            -84.373015702,
            40.296878397
          ],
          [
            -84.372597501,
            40.296558097
          ],
          [
            -84.372328803,
            40.296146497
          ],
          [
            -84.3719704,
            40.2952317
          ],
          [
            -84.3722094,
            40.294659898
          ],
          [
            -84.373762406,
            40.294614196
          ],
          [
            -84.374359906,
            40.294499896
          ],
          [
            -84.374389701,
            40.293882295
          ],
          [
            -84.373672903,
            40.292990394
          ],
          [
            -84.373075604,
            40.292761698
          ],
          [
            -84.372717202,
            40.2927159
          ],
          [
            -84.370955005,
            40.293104693
          ],
          [
            -84.370537005,
            40.293081798
          ],
          [
            -84.369909801,
            40.293058895
          ],
          [
            -84.367430903,
            40.292395599
          ],
          [
            -84.366923206,
            40.292052396
          ],
          [
            -84.366803803,
            40.2918237
          ],
          [
            -84.366714306,
            40.291114599
          ],
          [
            -84.367162406,
            40.290359996
          ],
          [
            -84.367610507,
            40.289765395
          ],
          [
            -84.367909104,
            40.2895367
          ],
          [
            -84.368596002,
            40.289468199
          ],
          [
            -84.368924603,
            40.289628297
          ],
          [
            -84.369551703,
            40.2897655
          ],
          [
            -84.370298304,
            40.289765596
          ],
          [
            -84.371104702,
            40.2895827
          ],
          [
            -84.371522807,
            40.2892626
          ],
          [
            -84.371731907,
            40.288805194
          ],
          [
            -84.371761702,
            40.288187698
          ],
          [
            -84.371164501,
            40.287432998
          ],
          [
            -84.371164605,
            40.286906898
          ],
          [
            -84.3714035,
            40.286495298
          ],
          [
            -84.371343903,
            40.285877697
          ],
          [
            -84.3705974,
            40.285260193
          ],
          [
            -84.370000102,
            40.285260096
          ],
          [
            -84.368626401,
            40.285031393
          ],
          [
            -84.368268102,
            40.284802698
          ],
          [
            -84.367312707,
            40.283956394
          ],
          [
            -84.366476603,
            40.282972895
          ],
          [
            -84.366178103,
            40.282103799
          ],
          [
            -84.366178207,
            40.281189099
          ],
          [
            -84.366029002,
            40.2806402
          ],
          [
            -84.365700603,
            40.2802056
          ],
          [
            -84.363700002,
            40.279404998
          ],
          [
            -84.362535603,
            40.279404797
          ],
          [
            -84.361520305,
            40.279519096
          ],
          [
            -84.360415407,
            40.279770494
          ],
          [
            -84.359519504,
            40.280159093
          ],
          [
            -84.359400004,
            40.280342095
          ],
          [
            -84.358085901,
            40.281188093
          ],
          [
            -84.357428804,
            40.2815082
          ],
          [
            -84.356622607,
            40.281668097
          ],
          [
            -84.355816305,
            40.281622298
          ],
          [
            -84.355129607,
            40.281416394
          ],
          [
            -84.354084805,
            40.280409895
          ],
          [
            -84.353607103,
            40.280112393
          ],
          [
            -84.352621906,
            40.279814996
          ],
          [
            -84.350591302,
            40.279883094
          ],
          [
            -84.349815004,
            40.279768594
          ],
          [
            -84.348829806,
            40.279493995
          ],
          [
            -84.348053604,
            40.279105
          ],
          [
            -84.347128205,
            40.278395794
          ],
          [
            -84.346262701,
            40.277389295
          ],
          [
            -84.346083604,
            40.277320594
          ],
          [
            -84.346053906,
            40.277114794
          ],
          [
            -84.345307805,
            40.2761769
          ],
          [
            -84.344113901,
            40.275238998
          ],
          [
            -84.343367606,
            40.274941497
          ],
          [
            -84.341636501,
            40.273614496
          ],
          [
            -84.340980001,
            40.272859596
          ],
          [
            -84.340114504,
            40.272081695
          ],
          [
            -84.340114705,
            40.271692999
          ],
          [
            -84.340473205,
            40.271304198
          ],
          [
            -84.341249704,
            40.270892896
          ],
          [
            -84.341428906,
            40.270709999
          ],
          [
            -84.341578402,
            40.270161197
          ],
          [
            -84.340981707,
            40.269520596
          ],
          [
            -84.339667805,
            40.269863196
          ],
          [
            -84.339339502,
            40.269794494
          ],
          [
            -84.338981301,
            40.269565694
          ],
          [
            -84.338922106,
            40.268627994
          ],
          [
            -84.338265605,
            40.268101797
          ],
          [
            -84.337668903,
            40.2674613
          ],
          [
            -84.337460101,
            40.266958095
          ],
          [
            -84.337192006,
            40.266111895
          ],
          [
            -84.337281704,
            40.265814595
          ],
          [
            -84.337401107,
            40.265723094
          ],
          [
            -84.3372823,
            40.264693893
          ],
          [
            -84.337163001,
            40.264602393
          ],
          [
            -84.337014005,
            40.264099196
          ],
          [
            -84.337133802,
            40.2632531
          ],
          [
            -84.337343,
            40.262841493
          ],
          [
            -84.337343201,
            40.262566999
          ],
          [
            -84.337014906,
            40.262292497
          ],
          [
            -84.336686507,
            40.262269497
          ],
          [
            -84.335074306,
            40.262680598
          ],
          [
            -84.333850205,
            40.262885995
          ],
          [
            -84.333223403,
            40.262702897
          ],
          [
            -84.331193507,
            40.2627021
          ],
          [
            -84.330805503,
            40.262587599
          ],
          [
            -84.330089405,
            40.262015693
          ],
          [
            -84.329582304,
            40.261374995
          ],
          [
            -84.329433307,
            40.261054799
          ],
          [
            -84.329433806,
            40.260437295
          ],
          [
            -84.329643101,
            40.259796999
          ],
          [
            -84.329882205,
            40.259316795
          ],
          [
            -84.329882607,
            40.258882299
          ],
          [
            -84.329673804,
            40.258630693
          ],
          [
            -84.329047203,
            40.258150198
          ],
          [
            -84.327913307,
            40.257577993
          ],
          [
            -84.326869003,
            40.257005796
          ],
          [
            -84.326839201,
            40.256845698
          ],
          [
            -84.3262126,
            40.256662495
          ],
          [
            -84.323585905,
            40.256478399
          ],
          [
            -84.322959207,
            40.256272294
          ],
          [
            -84.3218254,
            40.255562797
          ],
          [
            -84.319170706,
            40.253320396
          ],
          [
            -84.318573907,
            40.253137194
          ],
          [
            -84.317798302,
            40.252496399
          ],
          [
            -84.317440607,
            40.252107494
          ],
          [
            -84.317052707,
            40.251924299
          ],
          [
            -84.315918207,
            40.252152495
          ],
          [
            -84.315291002,
            40.252678096
          ],
          [
            -84.314693905,
            40.252860799
          ],
          [
            -84.312873006,
            40.252996996
          ],
          [
            -84.312126502,
            40.253408298
          ],
          [
            -84.311976902,
            40.253774099
          ],
          [
            -84.312245101,
            40.2541859
          ],
          [
            -84.311946206,
            40.254643194
          ],
          [
            -84.311796807,
            40.254734494
          ],
          [
            -84.3105435,
            40.254436597
          ],
          [
            -84.310155503,
            40.254482098
          ],
          [
            -84.309796803,
            40.255030796
          ],
          [
            -84.309049904,
            40.255739197
          ],
          [
            -84.308123402,
            40.257042296
          ],
          [
            -84.307525903,
            40.257476397
          ],
          [
            -84.307166904,
            40.258299597
          ],
          [
            -84.307166502,
            40.258688293
          ],
          [
            -84.307285503,
            40.259077199
          ],
          [
            -84.307702906,
            40.259603493
          ],
          [
            -84.3091942,
            40.260862194
          ],
          [
            -84.309611507,
            40.261502698
          ],
          [
            -84.309581205,
            40.261914298
          ],
          [
            -84.309342302,
            40.262051396
          ],
          [
            -84.305549607,
            40.263512895
          ],
          [
            -84.303311206,
            40.2630312
          ],
          [
            -84.301639602,
            40.262961499
          ],
          [
            -84.300177202,
            40.2625947
          ],
          [
            -84.298237905,
            40.261632897
          ],
          [
            -84.295643404,
            40.259527199
          ],
          [
            -84.294243507,
            40.2569649
          ],
          [
            -84.293975003,
            40.256644495
          ],
          [
            -84.293497905,
            40.256323993
          ],
          [
            -84.291737705,
            40.255522296
          ],
          [
            -84.290275805,
            40.2550181
          ],
          [
            -84.289947405,
            40.255017899
          ],
          [
            -84.289082505,
            40.254514195
          ],
          [
            -84.288127802,
            40.254170395
          ],
          [
            -84.286397107,
            40.253803194
          ],
          [
            -84.2854122,
            40.253779493
          ],
          [
            -84.283979006,
            40.254121497
          ],
          [
            -84.283471607,
            40.254189596
          ],
          [
            -84.281800404,
            40.253890999
          ],
          [
            -84.280934803,
            40.253890298
          ],
          [
            -84.280038804,
            40.254278399
          ],
          [
            -84.279232904,
            40.254369095
          ],
          [
            -84.277233504,
            40.254047394
          ],
          [
            -84.276070006,
            40.253657699
          ],
          [
            -84.275593303,
            40.253085494
          ],
          [
            -84.275325805,
            40.252307698
          ],
          [
            -84.274968304,
            40.251918599
          ],
          [
            -84.274461105,
            40.251712397
          ],
          [
            -84.274192907,
            40.2514605
          ],
          [
            -84.273984402,
            40.251162998
          ],
          [
            -84.273507401,
            40.250819594
          ],
          [
            -84.272911005,
            40.250521697
          ],
          [
            -84.2696632,
            40.250044398
          ],
          [
            -84.269454502,
            40.249929793
          ],
          [
            -84.268977806,
            40.249449193
          ],
          [
            -84.268799603,
            40.248900197
          ],
          [
            -84.268504202,
            40.247184694
          ],
          [
            -84.268266201,
            40.246818595
          ],
          [
            -84.267342202,
            40.246108696
          ],
          [
            -84.266031504,
            40.244780898
          ],
          [
            -84.265495501,
            40.244117096
          ],
          [
            -84.2652281,
            40.243453696
          ],
          [
            -84.264546305,
            40.240960196
          ],
          [
            -84.264248505,
            40.240594
          ],
          [
            -84.263592407,
            40.240387499
          ],
          [
            -84.262369201,
            40.240180299
          ],
          [
            -84.261265703,
            40.239904694
          ],
          [
            -84.260580003,
            40.239583798
          ],
          [
            -84.259656206,
            40.238873795
          ],
          [
            -84.257121705,
            40.237841897
          ],
          [
            -84.2563769,
            40.237177894
          ],
          [
            -84.255573101,
            40.236239493
          ],
          [
            -84.255067401,
            40.235438496
          ],
          [
            -84.254859805,
            40.234797895
          ],
          [
            -84.254770301,
            40.234752096
          ],
          [
            -84.254800506,
            40.234591998
          ],
          [
            -84.254473604,
            40.233905599
          ],
          [
            -84.254207306,
            40.232761897
          ],
          [
            -84.254238605,
            40.232007198
          ],
          [
            -84.254478,
            40.2316873
          ],
          [
            -84.255224906,
            40.231139295
          ],
          [
            -84.255911805,
            40.230819896
          ],
          [
            -84.256330207,
            40.230500199
          ],
          [
            -84.2565099,
            40.230157398
          ],
          [
            -84.256451607,
            40.229402699
          ],
          [
            -84.2563034,
            40.2289223
          ],
          [
            -84.255827703,
            40.228052698
          ],
          [
            -84.255292304,
            40.227205999
          ],
          [
            -84.254875101,
            40.226931095
          ],
          [
            -84.252191402,
            40.226150393
          ],
          [
            -84.251387902,
            40.225166194
          ],
          [
            -84.2512099,
            40.224708594
          ],
          [
            -84.251122601,
            40.223564997
          ],
          [
            -84.251212701,
            40.223290697
          ],
          [
            -84.251870006,
            40.222765498
          ],
          [
            -84.252526902,
            40.222491793
          ],
          [
            -84.254169703,
            40.221510395
          ],
          [
            -84.254558407,
            40.221053399
          ],
          [
            -84.254738301,
            40.220573395
          ],
          [
            -84.2547694,
            40.219910294
          ],
          [
            -84.254651301,
            40.219338395
          ],
          [
            -84.254115805,
            40.218560293
          ],
          [
            -84.253222607,
            40.217644393
          ],
          [
            -84.253044404,
            40.217301197
          ],
          [
            -84.252955601,
            40.216912299
          ],
          [
            -84.252538905,
            40.216431595
          ],
          [
            -84.251972504,
            40.216225199
          ],
          [
            -84.249947302,
            40.216009393
          ],
          [
            -84.249529704,
            40.216032699
          ],
          [
            -84.247172706,
            40.215760596
          ],
          [
            -84.2453821,
            40.215304896
          ],
          [
            -84.244785003,
            40.214985296
          ],
          [
            -84.244545504,
            40.214413799
          ],
          [
            -84.2445141401827,
            40.214263616088935
          ]
        ]
      }
    },
    {
      "type": "Feature",
      "properties": {
        "node_id": "loramie-confluence",
        "name": "Loramie Creek to the Great Miami River",
        "receiving_water": "Loramie Creek",
        "downstream": "great-miami-outlet",
        "length_km": 3.26
      },
      "geometry": {
        "type": "LineString",
        "coordinates": [
          [
            -84.2445141401827,
            40.214263616088935
          ],
          [
            -84.244034603,
            40.211967394
          ],
          [
            -84.243645005,
            40.210824296
          ],
          [
            -84.243166305,
            40.209932797
          ],
          [
            -84.242538907,
            40.209247299
          ],
          [
            -84.240926005,
            40.207808197
          ],
          [
            -84.240239002,
            40.207122698
          ],
          [
            -84.239401802,
            40.205797099
          ],
          [
            -84.238504402,
            40.203991294
          ],
          [
            -84.238354802,
            40.203648396
          ],
          [
            -84.237487502,
            40.202116899
          ],
          [
            -84.237397604,
            40.201773994
          ],
          [
            -84.237308003,
            40.201705493
          ],
          [
            -84.237068005,
            40.200768098
          ],
          [
            -84.237424806,
            40.200104497
          ],
          [
            -84.239301607,
            40.198684998
          ],
          [
            -84.239718206,
            40.198021494
          ],
          [
            -84.239717506,
            40.197586998
          ],
          [
            -84.239507906,
            40.197061196
          ],
          [
            -84.238701001,
            40.195918493
          ],
          [
            -84.2387003,
            40.195438296
          ],
          [
            -84.239117302,
            40.195094794
          ],
          [
            -84.2414416,
            40.193926394
          ],
          [
            -84.241947703,
            40.193422899
          ],
          [
            -84.242036402,
            40.192896798
          ],
          [
            -84.241827205,
            40.1925769
          ],
          [
            -84.241706707,
            40.191822298
          ],
          [
            -84.241792604,
            40.189512499
          ],
          [
            -84.241612703,
            40.1888723
          ],
          [
            -84.2414634,
            40.188758098
          ],
          [
            -84.241463102,
            40.188575096
          ]
        ]
      }
    }
  ]
}
