{
  "type": "FeatureCollection",
  "feed": "campus",
  "meta": {
    "crs": "WGS84 (EPSG:4326)",
    "layers": [
      "campus"
    ]
  },
  "features": [
    {
      "type": "Feature",
      "geometry": {
        "type": "Polygon",
        "coordinates": [
          [
            [
              -84.1881062562881,
              40.2662974358119
            ],
            [
              -84.1887506474858,
              40.2661624572916
            ],
            [
              -84.1890047027263,
              40.266099210587
            ],
            [
              -84.1891735913895,
              40.2660595752058
            ],
            [
              -84.1893477154343,
              40.2660368412132
            ],
            [
              -84.1895973931844,
              40.2660279596956
            ],
            [
              -84.1898467295747,
              40.2660413371511
            ],
            [
              -84.1901852372316,
              40.2660962226656
            ],
            [
              -84.1903550718209,
              40.2661252800072
            ],
            [
              -84.1905285248242,
              40.2661360492686
            ],
            [
              -84.1907022509153,
              40.2661283213932
            ],
            [
              -84.1908729092597,
              40.2661022444341
            ],
            [
              -84.1912961217597,
              40.266033554428
            ],
            [
              -84.1918851048707,
              40.265980310543
            ],
            [
              -84.1924774360027,
              40.2659576484972
            ],
            [
              -84.1924783702506,
              40.2659576354734
            ],
            [
              -84.1924821171237,
              40.265957588862
            ],
            [
              -84.1924935769318,
              40.2659574421732
            ],
            [
              -84.1973295521609,
              40.2659041413349
            ],
            [
              -84.1973432317061,
              40.2659039905332
            ],
            [
              -84.1973439350869,
              40.2659039829931
            ],
            [
              -84.202152659922,
              40.265850777392
            ],
            [
              -84.2021651635724,
              40.2663499364112
            ],
            [
              -84.2021732555965,
              40.2666730528759
            ],
            [
              -84.2021813664852,
              40.2669968923189
            ],
            [
              -84.2021894773739,
              40.267320730897
            ],
            [
              -84.2021975882626,
              40.267644569981
            ],
            [
              -84.2022041118282,
              40.2679050555695
            ],
            [
              -84.2022106362921,
              40.2681655415257
            ],
            [
              -84.2022171598577,
              40.2684260278496
            ],
            [
              -84.2022188792331,
              40.2684946379718
            ],
            [
              -84.2022205977103,
              40.2685632480244
            ],
            [
              -84.2022271545135,
              40.2688250700957
            ],
            [
              -84.2022336798758,
              40.2690855559359
            ],
            [
              -84.2022403426802,
              40.2693515845092
            ],
            [
              -84.2022465302759,
              40.2695985805335
            ],
            [
              -84.2022527160749,
              40.2698455756557
            ],
            [
              -84.2022589036706,
              40.2700925719322
            ],
            [
              -84.2022650894697,
              40.270339567992
            ],
            [
              -84.2022712770654,
              40.2705865631498
            ],
            [
              -84.2022774628644,
              40.2708335587764
            ],
            [
              -84.2022836495618,
              40.2710805548718
            ],
            [
              -84.2022898371574,
              40.2713275507504
            ],
            [
              -84.2023081672808,
              40.2721522832923
            ],
            [
              -84.2023227846671,
              40.2728099683479
            ],
            [
              -84.1974744908405,
              40.2729153301921
            ],
            [
              -84.192619285376,
              40.2730206342993
            ],
            [
              -84.187904374301,
              40.2731226963522
            ],
            [
              -84.1877728232142,
              40.2667658695153
            ],
            [
              -84.1877884889344,
              40.2666558774413
            ],
            [
              -84.1877945579525,
              40.2666489118509
            ],
            [
              -84.1877986497786,
              40.266644216486
            ],
            [
              -84.1880968688934,
              40.2663019331035
            ],
            [
              -84.1880972830167,
              40.2663017350061
            ],
            [
              -84.1881062562881,
              40.2662974358119
            ]
          ]
        ]
      },
      "properties": {
        "layer": "campus",
        "label": "1151 S VANDEMARK RD SIDNEY OH 45365",
        "color": "#3f51b5",
        "role": "area",
        "grantee": "AMAZON DATA SERVICES INC",
        "parcel_id": "26-03-201-002",
        "parcel_id_dashless": "2603201002",
        "parcel_number": "01-2603201.002",
        "owner": "AMAZON DATA SERVICES INC",
        "owner_mailing_address": "PO BOX 80416 SEATTLE WA 98108-0416",
        "situs_address": "1151 S VANDEMARK RD SIDNEY OH 45365",
        "tax_district": "CLINTON TWP SIDNEY CORP SIDNEY SD SAD SFD",
        "tax_district_code": 1,
        "school_district": "SIDNEY CSD",
        "acres": 243.092,
        "planar_acres": 235.468,
        "land_use_code": 110,
        "land_use_name": "AGRICULTURAL VACANT LAND \"QUALIFIED FOR CURRENT AGRICULTURAL USE VALUE\"",
        "class": "Agriculture",
        "appraised_land_value": 0,
        "appraised_improvement_value": 0,
        "appraised_total_value": 0,
        "last_sale_date": "2025-11-24",
        "last_sale_amount": 5621490,
        "valid_sale": "False",
        "deed_reference": "OR2329/454",
        "legal_description": "R06 T07 S03 PT OF E1/2 NE QR \nLOT 7658 COSOLIDATION & ROADWAY DEDICATION PLAT\nPLAT V37 P50",
        "has_cauv": false,
        "has_exemption": false,
        "has_abatement": false,
        "tax_year": 2025
      }
    }
  ]
}
