{
  "type": "FeatureCollection",
  "feed": "campus",
  "meta": {
    "crs": "WGS84 (EPSG:4326)",
    "layers": [
      "campus"
    ]
  },
  "features": [
    {
      "type": "Feature",
      "geometry": {
        "type": "Polygon",
        "coordinates": [
          [
            [
              -83.6628300923768,
              38.6573297721462
            ],
            [
              -83.6629088598513,
              38.6573475188173
            ],
            [
              -83.6632476701376,
              38.6574238551685
            ],
            [
              -83.6634113050096,
              38.6574298262924
            ],
            [
              -83.6634736391023,
              38.6574321009756
            ],
            [
              -83.6629602459851,
              38.658814894796
            ],
            [
              -83.6623449420683,
              38.6586614380398
            ],
            [
              -83.6628300923768,
              38.6573297721462
            ]
          ]
        ]
      },
      "properties": {
        "layer": "campus",
        "label": "1830000070002",
        "color": "#3f51b5",
        "role": "area",
        "grantee": null,
        "parcel_id": "1830000070002",
        "owner": null,
        "situs_address": null,
        "owner_mailing_address": null,
        "transfer_date": null
      }
    },
    {
      "type": "Feature",
      "geometry": {
        "type": "Polygon",
        "coordinates": [
          [
            [
              -83.6636036095033,
              38.6570457216528
            ],
            [
              -83.663116528332,
              38.6569120272079
            ],
            [
              -83.6629088598513,
              38.6573475188173
            ],
            [
              -83.6628300923768,
              38.6573297721462
            ],
            [
              -83.6626351142946,
              38.6572765470208
            ],
            [
              -83.6617037607452,
              38.6570116385223
            ],
            [
              -83.6614910936141,
              38.6569451351566
            ],
            [
              -83.6613340258539,
              38.6569324177005
            ],
            [
              -83.6611597548948,
              38.6569828005749
            ],
            [
              -83.6610478154472,
              38.6570525778871
            ],
            [
              -83.6607351515326,
              38.6573379495033
            ],
            [
              -83.6580705497161,
              38.6561131787963
            ],
            [
              -83.6576147263494,
              38.6567754383551
            ],
            [
              -83.6567781392104,
              38.6563212330437
            ],
            [
              -83.6568232889085,
              38.6556333586442
            ],
            [
              -83.6571062773861,
              38.655091090612
            ],
            [
              -83.6566757582354,
              38.6544447027451
            ],
            [
              -83.6563705191766,
              38.6538741100632
            ],
            [
              -83.6559349046532,
              38.6532096061759
            ],
            [
              -83.6555219077759,
              38.6516814098251
            ],
            [
              -83.6553378120606,
              38.6514405462946
            ],
            [
              -83.6508100868053,
              38.6526079866088
            ],
            [
              -83.6496702203443,
              38.6530536988837
            ],
            [
              -83.649477671339,
              38.6535397200401
            ],
            [
              -83.6494480860784,
              38.6542424784329
            ],
            [
              -83.6491255827812,
              38.6543313581319
            ],
            [
              -83.6489281434978,
              38.6550242392561
            ],
            [
              -83.6484644722461,
              38.6550288646615
            ],
            [
              -83.6488820051854,
              38.6507519641334
            ],
            [
              -83.6463111908701,
              38.6481232796426
            ],
            [
              -83.6459068359739,
              38.6477786219929
            ],
            [
              -83.6459063933268,
              38.6477782444225
            ],
            [
              -83.6456131517391,
              38.6475282927407
            ],
            [
              -83.6441051002725,
              38.646242825474
            ],
            [
              -83.6437416666826,
              38.6459787227508
            ],
            [
              -83.6436314659185,
              38.6458986412868
            ],
            [
              -83.6451820231188,
              38.6438227668158
            ],
            [
              -83.6466337048724,
              38.6418887505681
            ],
            [
              -83.647033774642,
              38.6413699080192
            ],
            [
              -83.6473523775625,
              38.6410103895817
            ],
            [
              -83.6476306976199,
              38.6407298696148
            ],
            [
              -83.6480216811638,
              38.6403923264651
            ],
            [
              -83.6484271083864,
              38.6400895355075
            ],
            [
              -83.6489609303772,
              38.6397306473497
            ],
            [
              -83.6494469484389,
              38.6394677216181
            ],
            [
              -83.649913850567,
              38.6392436967318
            ],
            [
              -83.6503421937553,
              38.6390768308852
            ],
            [
              -83.6507445501362,
              38.6389308688008
            ],
            [
              -83.6511897269964,
              38.6387987444574
            ],
            [
              -83.6522371611959,
              38.6385356698047
            ],
            [
              -83.6547080497626,
              38.6379629304054
            ],
            [
              -83.6590737302322,
              38.6369237285713
            ],
            [
              -83.6596091233051,
              38.6368072609939
            ],
            [
              -83.6600911159845,
              38.6367332797789
            ],
            [
              -83.6606406587094,
              38.6367015211948
            ],
            [
              -83.6612302879283,
              38.6367051091655
            ],
            [
              -83.6618238931149,
              38.6367658612677
            ],
            [
              -83.6623146985878,
              38.6368586343192
            ],
            [
              -83.6627389321532,
              38.6369687639435
            ],
            [
              -83.663575287477,
              38.6371915229116
            ],
            [
              -83.6652756740073,
              38.6376558117563
            ],
            [
              -83.6660816198217,
              38.6378764776409
            ],
            [
              -83.6666857294061,
              38.6380205242989
            ],
            [
              -83.6672744523567,
              38.6381528050689
            ],
            [
              -83.668103775654,
              38.6383160134568
            ],
            [
              -83.6688444726253,
              38.6384491278932
            ],
            [
              -83.669478191104,
              38.6385451870508
            ],
            [
              -83.6705398740984,
              38.638723810804
            ],
            [
              -83.6705406788587,
              38.6391473411907
            ],
            [
              -83.6708432963434,
              38.6397540622196
            ],
            [
              -83.6706226776876,
              38.6397843639241
            ],
            [
              -83.6705631352377,
              38.6411138240423
            ],
            [
              -83.6706271613654,
              38.6432243645557
            ],
            [
              -83.67077666991,
              38.6438687269578
            ],
            [
              -83.6710693069561,
              38.6444815915239
            ],
            [
              -83.6716656068276,
              38.6452152856347
            ],
            [
              -83.6717893311101,
              38.6454581098861
            ],
            [
              -83.6723461907945,
              38.6461583223067
            ],
            [
              -83.6726631503138,
              38.6463102114805
            ],
            [
              -83.6726684189905,
              38.646312736165
            ],
            [
              -83.6727760763033,
              38.6464965373158
            ],
            [
              -83.6728622712678,
              38.6467092305235
            ],
            [
              -83.6728939399148,
              38.6468595519962
            ],
            [
              -83.6728655569239,
              38.6472011747324
            ],
            [
              -83.6728165711435,
              38.647591331957
            ],
            [
              -83.6727887569911,
              38.6477476782056
            ],
            [
              -83.6727998473213,
              38.6479166334183
            ],
            [
              -83.6728512355445,
              38.6480439399192
            ],
            [
              -83.6729662923755,
              38.6482372708525
            ],
            [
              -83.6730913265891,
              38.6484457547929
            ],
            [
              -83.6731570026672,
              38.6485938225489
            ],
            [
              -83.6732488859097,
              38.6488560371423
            ],
            [
              -83.673411372333,
              38.6492700825576
            ],
            [
              -83.6734765661984,
              38.649543131921
            ],
            [
              -83.6734960788312,
              38.6497747230233
            ],
            [
              -83.6735001524897,
              38.6500205190546
            ],
            [
              -83.67347323147,
              38.6502877027912
            ],
            [
              -83.6734426737738,
              38.6504706363206
            ],
            [
              -83.6733523081591,
              38.6508280213555
            ],
            [
              -83.6733110509704,
              38.6510409157701
            ],
            [
              -83.6732944787305,
              38.6512570703068
            ],
            [
              -83.6732806408413,
              38.6515030488708
            ],
            [
              -83.6732591972954,
              38.6516231109634
            ],
            [
              -83.6731750698589,
              38.6517594511858
            ],
            [
              -83.6730312265836,
              38.6519721123047
            ],
            [
              -83.6728727347964,
              38.6522207850758
            ],
            [
              -83.672749608989,
              38.6524571435184
            ],
            [
              -83.67265551526,
              38.6526055396613
            ],
            [
              -83.6725046747761,
              38.6527027115026
            ],
            [
              -83.6722738603869,
              38.6528803927856
            ],
            [
              -83.6721294196651,
              38.6530571952954
            ],
            [
              -83.6720107110401,
              38.6532536597914
            ],
            [
              -83.6718780127673,
              38.6535259773226
            ],
            [
              -83.6718245621032,
              38.6536739591237
            ],
            [
              -83.6717699255085,
              38.6537502268169
            ],
            [
              -83.6714097054554,
              38.6540926012813
            ],
            [
              -83.6709771928068,
              38.6544878631831
            ],
            [
              -83.6705139840304,
              38.6546092730752
            ],
            [
              -83.6698642742302,
              38.6547795637012
            ],
            [
              -83.6695972624098,
              38.6548495464289
            ],
            [
              -83.6688410776378,
              38.6548645308563
            ],
            [
              -83.6684897864891,
              38.6542904854282
            ],
            [
              -83.6679825544727,
              38.6546969137917
            ],
            [
              -83.668320850171,
              38.6552822870631
            ],
            [
              -83.6678204932265,
              38.655770350165
            ],
            [
              -83.6674813979209,
              38.656040541996
            ],
            [
              -83.6673204108553,
              38.6560993210896
            ],
            [
              -83.6670803767224,
              38.6561033919341
            ],
            [
              -83.6668567326777,
              38.656070283156
            ],
            [
              -83.6663248232453,
              38.655991536917
            ],
            [
              -83.6661358797781,
              38.6559962504556
            ],
            [
              -83.6659995283473,
              38.6560244948143
            ],
            [
              -83.6658958581858,
              38.6560752979156
            ],
            [
              -83.6656965588252,
              38.6562119408982
            ],
            [
              -83.6655422805743,
              38.6563627609892
            ],
            [
              -83.6650652385838,
              38.6568592631594
            ],
            [
              -83.6648737851004,
              38.6570192385116
            ],
            [
              -83.6646187926946,
              38.6571740021852
            ],
            [
              -83.6644225463028,
              38.6572696396015
            ],
            [
              -83.6641874956478,
              38.6573162606294
            ],
            [
              -83.6634736391023,
              38.6574321009756
            ],
            [
              -83.6634113050096,
              38.6574298262924
            ],
            [
              -83.6636036095033,
              38.6570457216528
            ]
          ]
        ]
      },
      "properties": {
        "layer": "campus",
        "label": "1830000079000",
        "color": "#3f51b5",
        "role": "area",
        "grantee": null,
        "parcel_id": "1830000079000",
        "owner": null,
        "situs_address": null,
        "owner_mailing_address": null,
        "transfer_date": null
      }
    }
  ]
}
