{
  "type": "FeatureCollection",
  "feed": "campus",
  "meta": {
    "crs": "WGS84 (EPSG:4326)",
    "layers": [
      "campus"
    ]
  },
  "features": [
    {
      "type": "Feature",
      "geometry": {
        "type": "Polygon",
        "coordinates": [
          [
            [
              -84.118759,
              40.805139
            ],
            [
              -84.118743,
              40.802408
            ],
            [
              -84.123553,
              40.802238
            ],
            [
              -84.123591,
              40.805856
            ],
            [
              -84.123592,
              40.805938
            ],
            [
              -84.120209,
              40.806013
            ],
            [
              -84.118764,
              40.806044
            ],
            [
              -84.118759,
              40.805139
            ]
          ]
        ]
      },
      "properties": {
        "layer": "campus",
        "label": "Campus parcel 36-0100-03-002.000",
        "color": "#3f51b5",
        "role": "area",
        "acreage": 40.07,
        "grantee": "Bistrozzi LLC"
      }
    },
    {
      "type": "Feature",
      "geometry": {
        "type": "Polygon",
        "coordinates": [
          [
            [
              -84.121237,
              40.795088
            ],
            [
              -84.123387,
              40.795004
            ],
            [
              -84.127964,
              40.794837
            ],
            [
              -84.128201,
              40.794829
            ],
            [
              -84.12822,
              40.795485
            ],
            [
              -84.128239,
              40.796143
            ],
            [
              -84.128251,
              40.796544
            ],
            [
              -84.128264,
              40.796983
            ],
            [
              -84.128288,
              40.797786
            ],
            [
              -84.128312,
              40.798617
            ],
            [
              -84.128317,
              40.798771
            ],
            [
              -84.128334,
              40.799471
            ],
            [
              -84.128344,
              40.799843
            ],
            [
              -84.128354,
              40.800249
            ],
            [
              -84.128403,
              40.802066
            ],
            [
              -84.128294,
              40.80207
            ],
            [
              -84.123553,
              40.802238
            ],
            [
              -84.118743,
              40.802408
            ],
            [
              -84.118743,
              40.802407
            ],
            [
              -84.118742,
              40.802355
            ],
            [
              -84.118602,
              40.795186
            ],
            [
              -84.118692,
              40.795183
            ],
            [
              -84.121237,
              40.795088
            ]
          ]
        ]
      },
      "properties": {
        "layer": "campus",
        "label": "Campus parcel 36-1200-02-001.001",
        "color": "#3f51b5",
        "role": "area",
        "acreage": 162.5,
        "grantee": "Bistrozzi LLC"
      }
    },
    {
      "type": "Feature",
      "geometry": {
        "type": "Polygon",
        "coordinates": [
          [
            [
              -84.123387,
              40.795004
            ],
            [
              -84.121237,
              40.795088
            ],
            [
              -84.121164,
              40.793069
            ],
            [
              -84.120997,
              40.789391
            ],
            [
              -84.12115,
              40.789385
            ],
            [
              -84.121687,
              40.789365
            ],
            [
              -84.122376,
              40.789338
            ],
            [
              -84.122374,
              40.787882
            ],
            [
              -84.122374,
              40.787881
            ],
            [
              -84.122374,
              40.787862
            ],
            [
              -84.122374,
              40.787779
            ],
            [
              -84.122686,
              40.787768
            ],
            [
              -84.122698,
              40.787768
            ],
            [
              -84.122716,
              40.787767
            ],
            [
              -84.123035,
              40.787756
            ],
            [
              -84.12326,
              40.787748
            ],
            [
              -84.123336,
              40.791955
            ],
            [
              -84.123387,
              40.795004
            ]
          ]
        ]
      },
      "properties": {
        "layer": "campus",
        "label": "Campus parcel 36-1200-03-001.000",
        "color": "#3f51b5",
        "role": "area",
        "acreage": 32.51,
        "grantee": "Bistrozzi LLC"
      }
    },
    {
      "type": "Feature",
      "geometry": {
        "type": "Polygon",
        "coordinates": [
          [
            [
              -84.118512,
              40.791618
            ],
            [
              -84.118421,
              40.787998
            ],
            [
              -84.118419,
              40.787916
            ],
            [
              -84.118451,
              40.787915
            ],
            [
              -84.118457,
              40.787914
            ],
            [
              -84.118782,
              40.787903
            ],
            [
              -84.119107,
              40.787892
            ],
            [
              -84.119288,
              40.787886
            ],
            [
              -84.119344,
              40.787884
            ],
            [
              -84.119344,
              40.787885
            ],
            [
              -84.119344,
              40.787965
            ],
            [
              -84.119347,
              40.789455
            ],
            [
              -84.119347,
              40.789466
            ],
            [
              -84.119516,
              40.793133
            ],
            [
              -84.121164,
              40.793069
            ],
            [
              -84.121237,
              40.795088
            ],
            [
              -84.118692,
              40.795183
            ],
            [
              -84.118602,
              40.795186
            ],
            [
              -84.118512,
              40.791618
            ]
          ]
        ]
      },
      "properties": {
        "layer": "campus",
        "label": "Campus parcel 36-1200-03-001.001",
        "color": "#3f51b5",
        "role": "area",
        "acreage": 23.47,
        "grantee": "Bistrozzi LLC"
      }
    },
    {
      "type": "Feature",
      "geometry": {
        "type": "Polygon",
        "coordinates": [
          [
            [
              -84.119347,
              40.789466
            ],
            [
              -84.119347,
              40.789455
            ],
            [
              -84.120036,
              40.789429
            ],
            [
              -84.120034,
              40.787942
            ],
            [
              -84.120034,
              40.787885
            ],
            [
              -84.120034,
              40.787883
            ],
            [
              -84.120034,
              40.78786
            ],
            [
              -84.120305,
              40.787851
            ],
            [
              -84.120305,
              40.787883
            ],
            [
              -84.120305,
              40.787884
            ],
            [
              -84.120305,
              40.787933
            ],
            [
              -84.120307,
              40.789418
            ],
            [
              -84.120997,
              40.789391
            ],
            [
              -84.121164,
              40.793069
            ],
            [
              -84.119516,
              40.793133
            ],
            [
              -84.119347,
              40.789466
            ]
          ]
        ]
      },
      "properties": {
        "layer": "campus",
        "label": "Campus parcel 36-1200-03-001.002",
        "color": "#3f51b5",
        "role": "area",
        "acreage": 15.01,
        "grantee": "Bistrozzi LLC"
      }
    },
    {
      "type": "Feature",
      "geometry": {
        "type": "Polygon",
        "coordinates": [
          [
            [
              -84.119344,
              40.787965
            ],
            [
              -84.119344,
              40.787885
            ],
            [
              -84.119344,
              40.787884
            ],
            [
              -84.119617,
              40.787874
            ],
            [
              -84.120034,
              40.78786
            ],
            [
              -84.120034,
              40.787883
            ],
            [
              -84.120034,
              40.787885
            ],
            [
              -84.120034,
              40.787942
            ],
            [
              -84.120036,
              40.789429
            ],
            [
              -84.119347,
              40.789455
            ],
            [
              -84.119344,
              40.787965
            ]
          ]
        ]
      },
      "properties": {
        "layer": "campus",
        "label": "Campus parcel 36-1200-03-001.003",
        "color": "#3f51b5",
        "role": "area",
        "acreage": 2.51,
        "grantee": "Bistrozzi LLC"
      }
    },
    {
      "type": "Feature",
      "geometry": {
        "type": "Polygon",
        "coordinates": [
          [
            [
              -84.120305,
              40.787933
            ],
            [
              -84.120305,
              40.787884
            ],
            [
              -84.120305,
              40.787883
            ],
            [
              -84.120305,
              40.787851
            ],
            [
              -84.120995,
              40.787827
            ],
            [
              -84.120995,
              40.787882
            ],
            [
              -84.120995,
              40.787884
            ],
            [
              -84.120995,
              40.78791
            ],
            [
              -84.120997,
              40.789391
            ],
            [
              -84.120307,
              40.789418
            ],
            [
              -84.120305,
              40.787933
            ]
          ]
        ]
      },
      "properties": {
        "layer": "campus",
        "label": "Campus parcel 36-1200-03-001.004",
        "color": "#3f51b5",
        "role": "area",
        "acreage": 2.51,
        "grantee": "Bistrozzi LLC"
      }
    },
    {
      "type": "Feature",
      "geometry": {
        "type": "Polygon",
        "coordinates": [
          [
            [
              -84.120995,
              40.78791
            ],
            [
              -84.120995,
              40.787884
            ],
            [
              -84.120995,
              40.787882
            ],
            [
              -84.120995,
              40.787827
            ],
            [
              -84.12142,
              40.787812
            ],
            [
              -84.121684,
              40.787803
            ],
            [
              -84.121685,
              40.787882
            ],
            [
              -84.121685,
              40.787883
            ],
            [
              -84.121685,
              40.787887
            ],
            [
              -84.121687,
              40.789365
            ],
            [
              -84.12115,
              40.789385
            ],
            [
              -84.120997,
              40.789391
            ],
            [
              -84.120995,
              40.78791
            ]
          ]
        ]
      },
      "properties": {
        "layer": "campus",
        "label": "Campus parcel 36-1200-03-001.005",
        "color": "#3f51b5",
        "role": "area",
        "acreage": 2.51,
        "grantee": "Bistrozzi LLC"
      }
    },
    {
      "type": "Feature",
      "geometry": {
        "type": "Polygon",
        "coordinates": [
          [
            [
              -84.121685,
              40.787887
            ],
            [
              -84.121685,
              40.787883
            ],
            [
              -84.121685,
              40.787882
            ],
            [
              -84.121684,
              40.787803
            ],
            [
              -84.121747,
              40.787801
            ],
            [
              -84.122374,
              40.787779
            ],
            [
              -84.122374,
              40.787862
            ],
            [
              -84.122374,
              40.787881
            ],
            [
              -84.122374,
              40.787882
            ],
            [
              -84.122376,
              40.789338
            ],
            [
              -84.121687,
              40.789365
            ],
            [
              -84.121685,
              40.787887
            ]
          ]
        ]
      },
      "properties": {
        "layer": "campus",
        "label": "Campus parcel 36-1200-03-001.006",
        "color": "#3f51b5",
        "role": "area",
        "acreage": 2.51,
        "grantee": "Bistrozzi LLC"
      }
    },
    {
      "type": "Feature",
      "geometry": {
        "type": "Polygon",
        "coordinates": [
          [
            [
              -84.124523,
              40.791915
            ],
            [
              -84.124496,
              40.790297
            ],
            [
              -84.124486,
              40.789671
            ],
            [
              -84.126283,
              40.789609
            ],
            [
              -84.126271,
              40.788898
            ],
            [
              -84.127883,
              40.788843
            ],
            [
              -84.128105,
              40.788836
            ],
            [
              -84.128105,
              40.78885
            ],
            [
              -84.128124,
              40.79006
            ],
            [
              -84.128155,
              40.791995
            ],
            [
              -84.12817,
              40.792907
            ],
            [
              -84.128201,
              40.794829
            ],
            [
              -84.128201,
              40.794829
            ],
            [
              -84.127964,
              40.794837
            ],
            [
              -84.123387,
              40.795004
            ],
            [
              -84.123336,
              40.791955
            ],
            [
              -84.123345,
              40.791955
            ],
            [
              -84.124523,
              40.791915
            ]
          ]
        ]
      },
      "properties": {
        "layer": "campus",
        "label": "Campus parcel 36-1200-03-002.000",
        "color": "#3f51b5",
        "role": "area",
        "acreage": 55.88,
        "grantee": "Bistrozzi LLC"
      }
    }
  ]
}
