{
  "type": "FeatureCollection",
  "bosc:provenance": {
    "subject": "The Meta 'Bowling Green Data Center' / 'Project Accordion' land assembly, Middleton Township, Wood County OH (FIPS 39173) \u2014 TWELVE contiguous auditor parcels deeded to LIAMES, LLC, 775.020 ac deeded / 774.878 ac planar, plus three parcels that are NOT part of that holding and are kept apart by the `parcel_role` property: the A. Schaller Limited Partnership tract with a rezoning pending, the parcel of record for the Apollo behind-the-meter power plant's air permit, and the Oppidan colo site 4.83 mi away in the City of Bowling Green. #1436, sub-issue of #1433.",
    "source": "Wood County, Ohio ArcGIS Server \u2014 Services_for_Web_Apps/Vision_Parcels MapServer layer 0 (Vision Government Solutions auditor CAMA joined to parcel geometry), read through the new wood_gis connector (WOOD_PARCEL_SCHEMA); township districts from Hosted/Middleton_Twp_Zoning_Viewer26 FeatureServer layer 1 (MIDDLETON_ZONING_SCHEMA)",
    "source_url": "https://wcohiogis.woodcountyohio.gov/server/rest/services/Services_for_Web_Apps/Vision_Parcels/MapServer/0",
    "read": "2026-08-01",
    "crs": "EPSG:4326 (WGS84)",
    "count": 15,
    "distinct_parcels": 15,
    "parcel_ids": [
      "611190000003500",
      "611190000029510",
      "611300000001000",
      "611300000002000",
      "611190000037000",
      "611190000033000",
      "611190000036001",
      "611190000034000",
      "611190000008000",
      "611190000035000",
      "611190000009000",
      "611190000025000",
      "611190000006000",
      "611200000011000",
      "511210000002003"
    ],
    "liames_cama_acres": 775.02,
    "liames_planar_acres": 774.883,
    "liames_union_planar_acres": 774.878,
    "liames_core_cama_acres": 753.65,
    "liames_small_parcel_cama_acres": 21.37,
    "liames_extent_m": [
      1821.3,
      2489.0
    ],
    "caveats": [
      "[verified] Owner of record, deeded acreage, land use, tax district, school district, conveyance date/instrument/price, deed and conveyance numbers, appraised land and improvement values, the CAUV land value and the legal description are verbatim from the Wood County Auditor's Vision CAMA on the county's own Vision_Parcels layer 0, read 2026-08-01; null means the service had no value. planar_acres is measured from the committed geometry in UTM 17N (EPSG:32617) and is NOT reconciled to the auditor's deeded acres \u2014 cite the deeded figures for the record and the planar ones for area/runoff modeling.",
      "THE PROPERTY IS `parcel_role`, NOT `role`, AND THAT IS NOT COSMETIC. The exporter's campus_from_parcels() reserves `role`, `label`, `grantee` and `color` for its own display fields and DROPS a source property of any of those names on the way into the geo/campus feed. A discriminator called `role` here would vanish silently from the published feed, leaving fifteen parcels that all read as one campus.",
      "THE ASSEMBLY IS ONE CONTIGUOUS BLOCK, AND THAT IS A MEASUREMENT. The union of the twelve Liames parcels is a SINGLE polygon of 774.878 ac against a sum of parts of 774.883 ac. The 0.004764-ac (about 19 m2) difference IS the total pairwise intersection, so they abut along shared boundaries that overlap by slivers at that scale: the claim is 'one contiguous block', never 'they do not overlap' \u2014 across a 1,821 m x 2,489 m extent. The register carried '~750-ac Liames assembly' as [reference] press; the land of record is 775.020 ac deeded and it is one block. The four tracts over 50 ac (753.65 ac) are themselves one contiguous polygon; the eight small parcels (21.37 ac) are the fringe along SR-25 (Dixie Hwy), Mercer Rd and Middleton Pike that closes it.",
      "THE COUNTY TAX ROLL MAILS LIAMES' BILLS TO META'S HEADQUARTERS. Eight of the twelve parcels carry the owner mailing address '1 META WAY, MENLO PARK, CA 94025' (spelled 'MENLOW PARK' on four of them, verbatim as served); the other four go to a Columbus address the county spells two ways \u2014 '52 E GAY ST, COLUMBUS, OH 43215' on three and '52 EAST GAY ST, COLUMBUS, OH 43215' on 611190000036001. All four spellings are carried verbatim rather than normalized. Meta's operator role was already [verified] from its own 2025-04-09 announcement \u2014 this is an independent documentary corroboration in the tax record, not the source of the attribution. A billing address is not a certificate of ownership of the LLC; the Ohio SOS registration for Liames, LLC remains [open] (#1437 probed it; the SOS business search is automation-blocked).",
      "THE SUM OF THE TRANSFER PRICES IS NOT WHAT THE LAND COST, AND MUST NEVER BE QUOTED AS IF IT WERE. The CAMA carries only the LAST conveyance per parcel. On 2025-04-09 eleven predecessor tracts were consolidated into the two large campus parcels by quitclaim to Liames itself at $0 (deed numbers 0519 and 0520, consecutive), which erased their purchase prices from this layer. What survives across the twelve rows sums to $6,921,460 \u2014 a FLOOR on a fraction of the assembly. The ~$9M reported for the 2023-09-05 warranty deeds (Toledo Legal News transfer listings, [reference]) is not visible here at all. Every conveyance number in this file is distinct, so the Clinton County 'consideration is per deed, repeated on every parcel' trap does NOT apply \u2014 but the deeds themselves, at the Recorder, are still the instrument. [open]",
      "THE PARCEL FABRIC MOVED UNDER THIS SITE \u2014 DO NOT TRUST AN ID JOIN ACROSS LAYERS. 611190000003500 (322.5 ac) and 611190000029510 (196.5 ac) are 2025-04-09 consolidations. Their eleven predecessors \u2014 611190000002500, 002501, 003000, 004000, 005000, 007000, 020000, 029500, 032000, 032002 \u2014 still populate the township zoning layer, which was built from an older CAMA extract, and sum to 319.99 ac and 195.86 ac respectively. township_zoning_2025_11_13 on each feature is therefore read by GEOMETRIC OVERLAP, never by parcel id, and names the old-fabric parcels it read through in zoning_fabric_parcels.",
      "CAUV READS ZERO ON THE TWO CONSOLIDATED TRACTS AND THAT HAS TWO READINGS. The 160-ac and 74.65-ac parcels acquired 2023-11-14 still carry CAUV land values ($585,960 and $255,360); the 322.5-ac and 196.5-ac tracts consolidated 2025-04-09 read 0. SEVEN of the eight fringe parcels also read 0, but 611190000009000 (1.01 ac, 21630 Dixie) reads $46,750 \u2014 'the fringe is off CAUV' is not a rule and the one exception belongs on the record. Either the campus core came off current agricultural use valuation, or the new parcel numbers have not been re-valued at this extract. The auditor's CAUV recoupment record settles it and is not in the corpus. [open] \u2014 do not report the zeros as a documented removal from CAUV. Note also that CAUV (R.C. 5713.30) is NOT the Agricultural District program (R.C. 929) whose 75.143 ac the Apollo OPSB staff report says will not be retained; different statutes, different registers.",
      "ZONING, AND THE ONE THING NO PUBLISHED LAYER CARRIES. In the township's own parcel-joined layer, content built 2025-11-13: the four campus tracts read 99.8-100% 'M-1: Light Industrial' (the 2023 agricultural-to-industrial rezonings ARE carried), seven of the eight small parcels read 'A-1: Agricultural' and the eighth (611190000025000, 21186 Dixie) reads 'R-4: Multiple Dwelling'. Those eight are part of the thirteen parcels / 31.82 ac that Middleton Township trustees rezoned to M-1 on 2026-07-07 \u2014 so the layer is showing their PRE-rezoning districts. As of 2026-08-01 NO published Wood County layer carries that rezoning: the countywide township layer is a 2013 snapshot, and the hosted Middleton layer's zoning content is a 2025-11-13 build. TWO SOURCES BACK THAT AND THEY ARE NOT THE SAME EVIDENCE. The committed fixture covers the campus envelope only \u2014 296 rows, all created 2025-11-13, newest edit stamp in it 2026-05-12 on parcel 611190000002501. The stronger claim, that the layer's only other 2026 edits countywide are three unrelated Hull Prairie parcels on 2026-07-14, comes from a full-layer paged probe of all 6,816 rows run 2026-08-01 that is NOT committed as a fixture; the service's own lastEditDate of 2026-07-14 is layer metadata, not a row. Re-run that probe before restating it. Either way this is a publication lag, not a finding about their zoning.",
      "THE 2026-07-07 REZONING IS NOT FINAL, AND THE GEOMETRY IS COMMITTED WITH THAT STATUS. Wood County Planning Commission recommended it 6-2 on 2026-06-02; the Middleton Township Zoning Commission REJECTED it on 2026-06-10; the trustees granted it anyway 2-1 on 2026-07-07 (Moulton and Vetter in favor, Petrea against). Under R.C. 519.12 that starts a 30-day referendum-petition window closing about 2026-08-06, and a petition drive requiring 971 valid signatures for the November 2026 ballot was circulating as of 2026-07-18 ([reference], The Blade via thecooldown.com). AT THE TIME OF THIS PULL THE WINDOW WAS STILL OPEN \u2014 the outcome is [open], not captured. The eight parcels in this file that fall inside that rezoning are flagged rezoning_contestable_2026_07_07.",
      "THE RECORD SHOWS EIGHT OF THE THIRTEEN REZONED PARCELS, AND THE GAP IS THE LAYER'S VINTAGE. The trustees rezoned 13 parcels / 31.82 ac; this snapshot shows 8 parcels / 21.37 ac in Liames' name (3 on Dixie Hwy, 3 on Mercer Rd, 2 on Middleton Pike). The press reports all thirteen as already owned by Meta with the houses and a strip of motel rooms already razed ([reference], BG Independent News 2026-06-03 / 2026-07-08). The missing 5 parcels / 10.45 ac are not identifiable here: max(Sale_Date) over the whole 73,839-row layer is 2025-07-25, so it cannot show a conveyance after that. [open] \u2014 the rezoning application's parcel schedule at the county planning commission is the instrument that would close it.",
      "THREE ROWS ARE NOT PART OF THE HOLDING \u2014 READ `parcel_role` BEFORE QUOTING AN ACREAGE. parcel_role='rezoning_pending' is 611190000006000, 64.55 ac still deeded to A. SCHALLER LIMITED PARTNERSHIP since 1999-12-23, abutting the campus (0.0 m). The Wood County Planning Commission recommended rezoning 39.265 ac of it from A-1 to M-1 by 6-2 on 2026-07-07, for construction parking, with Liames LLC in contract to purchase and township action still pending ([verified] Sentinel-Tribune 2026-07-07 / BG Independent News 2026-07-06). THE APPLICATION IS FOR PART OF THE PARCEL, NOT ALL OF IT. The county serves the parcel as TWO disjoint rows (0.000 ac of overlap) of 39.621 ac and 25.294 ac, unioned here to 64.915 ac planar against 64.55 ac deeded; the mapped A-1 polygon covers 61.03% of the parcel, which is exactly the 39.621-ac EASTERN part \u2014 and the press places the application 'north of Ohio 582 on the east side of Ohio 25'. That the 39.265-ac application is that eastern part is [inference], not identity: the rezoning's own legal description is the instrument and is not in the corpus.",
      "parcel_role='apollo_permit_situs' is 611200000011000, 79.07 ac at 11902 Middleton Pike, the address on the Apollo Power Generation Facility's Ohio EPA air permit \u2014 still deeded to JJJ FAMILY PROPERTIES LLC (20022 Mercer Rd, Bowling Green) since 2008-12-22. WILL-POWER OH, LLC OWNS NO LAND IN WOOD COUNTY at this snapshot: a countywide owner scan on '%WILL-POWER%' returns zero rows, so the 350 MW behind-the-meter plant sits on land it does not own. This parcel is NOT the project boundary \u2014 the OPSB staff report's ~146.84-acre project area reconciles to no parcel or contiguous parcel group in this layer (the report itself gives 146.84 / 163 / 165.11 ac for three different boundaries), so the plant's footprint stays [open]. The parcel does abut the campus (0.0 m) and reads 100% M-1.",
      "parcel_role='oppidan_colo' is 511210000002003, 11.80 ac deeded to CLOP BOWLING GREEN OH LLC on 2025-02-03 for $1,105,000 \u2014 the Oppidan Investment Company colo in the Woodbridge Business Park, IN THE CITY of Bowling Green and 7,771 m (4.83 mi) from the nearest campus boundary. The owner's mailing address, 400 Water St Suite 200, Excelsior MN 55331, is Oppidan's own headquarters, which is what identifies the SPE. This upgrades the register's '~12 ac' [reference] to 11.80 ac deeded [verified]. Its situs reads 2371 Woodstream in this snapshot; the building's address is 2501 Woodstream Dr. It is a SEPARATE facility with a separate developer and end user \u2014 never fold its acreage or load into the Meta campus.",
      "Right-county guard: WOOD County OHIO (FIPS 39173), tax districts J34 and J36 (Middleton Twp) and B07 (City of Bowling Green). Bowling Green KENTUCKY (Warren County) is this site's standing search trap. The neighbouring landowners include a LIMES family (Dale Limes LLC, Limes Real Estate Holdings LLC, Limes Galen E) whose name differs from LIAMES by one letter \u2014 check the spelling before reading a Devils Hole Rd parcel as part of the assembly."
    ]
  },
  "features": [
    {
      "type": "Feature",
      "geometry": {
        "type": "Polygon",
        "coordinates": [
          [
            [
              -83.6313650660585,
              41.46537004813276
            ],
            [
              -83.62894978731366,
              41.4653206154282
            ],
            [
              -83.62892195660783,
              41.468891778577266
            ],
            [
              -83.62892140414394,
              41.46896258485738
            ],
            [
              -83.628919227526,
              41.469241952239464
            ],
            [
              -83.62891315850794,
              41.470020594772855
            ],
            [
              -83.62890986258917,
              41.47044347054468
            ],
            [
              -83.62890515272213,
              41.47104765987337
            ],
            [
              -83.62890400198025,
              41.47119531677486
            ],
            [
              -83.62889659626904,
              41.472145433427784
            ],
            [
              -83.62889317728107,
              41.472584069043926
            ],
            [
              -83.63523784967373,
              41.47273335130326
            ],
            [
              -83.63857450435434,
              41.47281417286813
            ],
            [
              -83.64285102768919,
              41.47291317017893
            ],
            [
              -83.64336521796794,
              41.47292406935758
            ],
            [
              -83.64338723028567,
              41.46983916182917
            ],
            [
              -83.64341735349207,
              41.469270765041244
            ],
            [
              -83.6434230919301,
              41.46697262100239
            ],
            [
              -83.6434264713922,
              41.46561916526079
            ],
            [
              -83.64104892458425,
              41.465571839051
            ],
            [
              -83.6386005968201,
              41.46552305407673
            ],
            [
              -83.6361953423755,
              41.46547443196969
            ],
            [
              -83.63622814256148,
              41.4582026274947
            ],
            [
              -83.63381712362771,
              41.45816192384967
            ],
            [
              -83.63141174521562,
              41.458121264612544
            ],
            [
              -83.63140186464581,
              41.459572193312944
            ],
            [
              -83.63139877623784,
              41.460169420609716
            ],
            [
              -83.63140005364218,
              41.461026226006545
            ],
            [
              -83.63137344374684,
              41.46400671446942
            ],
            [
              -83.6313650660585,
              41.46537004813276
            ]
          ]
        ]
      },
      "properties": {
        "parcel_id": "611190000003500",
        "parcel_id_auditor": "J36-611-190000003500",
        "legacy_cama_id": null,
        "parcel_role": "liames_assembly",
        "owner": "LIAMES LLC",
        "owner_mailing_address": "1 META WAY MENLOW PARK CA 94025",
        "situs_address": "0 MERCER",
        "legal_description": "322.50A PT COM NECOR NE",
        "acres": 322.5,
        "planar_acres": 322.216,
        "land_use_code": 101,
        "tax_district": "J36",
        "school_code": "8702",
        "market_land_value": 2836700,
        "market_improvement_value": 181600,
        "cauv_value": 0,
        "last_sale_date": "2025-04-09",
        "last_sale_amount": 0,
        "valid_sale": "Q",
        "instrument_code": "QC",
        "conveyance_number": "0",
        "deed_number": "0519",
        "rezoning_contestable_2026_07_07": false,
        "township_zoning_2025_11_13": [
          {
            "district": "M-1: Light Industrial",
            "pct_of_parcel": 99.82,
            "zoning_fabric_parcels": [
              "611190000002500",
              "611190000002501",
              "611190000003000",
              "611190000004000",
              "611190000005000",
              "611190000032000",
              "611190000032002"
            ]
          }
        ]
      }
    },
    {
      "type": "Feature",
      "geometry": {
        "type": "Polygon",
        "coordinates": [
          [
            [
              -83.64139502480197,
              41.45827988490847
            ],
            [
              -83.64138194712805,
              41.46143774501107
            ],
            [
              -83.64021367103307,
              41.461420251936886
            ],
            [
              -83.63861782740557,
              41.46139575893227
            ],
            [
              -83.63861650239052,
              41.46171334664459
            ],
            [
              -83.63860705121542,
              41.463702002370724
            ],
            [
              -83.6386005968201,
              41.46552305407673
            ],
            [
              -83.64104892458425,
              41.465571839051
            ],
            [
              -83.6434264713922,
              41.46561916526079
            ],
            [
              -83.6434230919301,
              41.46697262100239
            ],
            [
              -83.64341735349207,
              41.469270765041244
            ],
            [
              -83.645408684915,
              41.46931646162717
            ],
            [
              -83.64823813731147,
              41.46938133123048
            ],
            [
              -83.64847403849835,
              41.469386736354686
            ],
            [
              -83.64869333702212,
              41.46832636351492
            ],
            [
              -83.64846783652962,
              41.46832188654493
            ],
            [
              -83.64759906863183,
              41.46830463832693
            ],
            [
              -83.64772292924151,
              41.46770576407758
            ],
            [
              -83.64780329342516,
              41.46731719442696
            ],
            [
              -83.647884609823,
              41.46692401411838
            ],
            [
              -83.64793548501079,
              41.46667802270147
            ],
            [
              -83.64800407228105,
              41.46634638512986
            ],
            [
              -83.64806164710423,
              41.46606798941713
            ],
            [
              -83.6481081474966,
              41.465843147245884
            ],
            [
              -83.6481351122265,
              41.46571276005105
            ],
            [
              -83.6490927369806,
              41.465731691844255
            ],
            [
              -83.64922933749766,
              41.46573448004915
            ],
            [
              -83.64923850121187,
              41.465734572944456
            ],
            [
              -83.64924081437373,
              41.465723329921516
            ],
            [
              -83.64933608160793,
              41.46521828178774
            ],
            [
              -83.64943700643178,
              41.46473022174466
            ],
            [
              -83.64960804296693,
              41.46390308693594
            ],
            [
              -83.64903407339929,
              41.46389262111063
            ],
            [
              -83.64891501608143,
              41.46389044945335
            ],
            [
              -83.64892285927218,
              41.462764059049
            ],
            [
              -83.64892553086183,
              41.4623803094373
            ],
            [
              -83.64895665119822,
              41.46230787762052
            ],
            [
              -83.64943286519832,
              41.46119946651737
            ],
            [
              -83.64943927377955,
              41.46091702698436
            ],
            [
              -83.64945119801665,
              41.4603914899809
            ],
            [
              -83.64947309984159,
              41.459426118935475
            ],
            [
              -83.64878002354874,
              41.45941695978051
            ],
            [
              -83.64880428884119,
              41.45837805142961
            ],
            [
              -83.64772694381253,
              41.45836380721498
            ],
            [
              -83.6474345682387,
              41.45835993950426
            ],
            [
              -83.644945156025,
              41.45832698080934
            ],
            [
              -83.64344736979898,
              41.45830712385413
            ],
            [
              -83.64183001511368,
              41.458285661235536
            ],
            [
              -83.64139502480197,
              41.45827988490847
            ]
          ]
        ]
      },
      "properties": {
        "parcel_id": "611190000029510",
        "parcel_id_auditor": "J34-611-190000029510",
        "legacy_cama_id": "J34-02506-00",
        "parcel_role": "liames_assembly",
        "owner": "LIAMES LLC",
        "owner_mailing_address": "1 META WAY MENLOW PARK CA 94025",
        "situs_address": "0 DIXIE",
        "legal_description": "196.50A PT COM 757.74' W SECOR SW",
        "acres": 196.5,
        "planar_acres": 196.608,
        "land_use_code": 101,
        "tax_district": "J34",
        "school_code": "8707",
        "market_land_value": 1566300,
        "market_improvement_value": 0,
        "cauv_value": 0,
        "last_sale_date": "2025-04-09",
        "last_sale_amount": 0,
        "valid_sale": "Q",
        "instrument_code": "QC",
        "conveyance_number": "0",
        "deed_number": "0520",
        "rezoning_contestable_2026_07_07": false,
        "township_zoning_2025_11_13": [
          {
            "district": "M-1: Light Industrial",
            "pct_of_parcel": 99.88,
            "zoning_fabric_parcels": [
              "611190000007000",
              "611190000020000",
              "611190000029500"
            ]
          }
        ]
      }
    },
    {
      "type": "Feature",
      "geometry": {
        "type": "Polygon",
        "coordinates": [
          [
            [
              -83.63017300796467,
              41.458100308204024
            ],
            [
              -83.63141174521562,
              41.458121264612544
            ],
            [
              -83.63381712362771,
              41.45816192384967
            ],
            [
              -83.63622814256148,
              41.4582026274947
            ],
            [
              -83.63863101557226,
              41.45824314260919
            ],
            [
              -83.63859924036403,
              41.45164992260235
            ],
            [
              -83.63862385240616,
              41.45104093229135
            ],
            [
              -83.63619821428946,
              41.45098982896161
            ],
            [
              -83.63375039766672,
              41.45093820647133
            ],
            [
              -83.62898356666328,
              41.45083753004085
            ],
            [
              -83.62898913531973,
              41.45261958917847
            ],
            [
              -83.6290011350153,
              41.456459167720176
            ],
            [
              -83.62900559694731,
              41.457886983052035
            ],
            [
              -83.62900602634201,
              41.45802390087123
            ],
            [
              -83.62900620241182,
              41.45808055418415
            ],
            [
              -83.63017300796467,
              41.458100308204024
            ]
          ]
        ]
      },
      "properties": {
        "parcel_id": "611300000001000",
        "parcel_id_auditor": "J36-611-300000001000",
        "legacy_cama_id": "J36-01501-00",
        "parcel_role": "liames_assembly",
        "owner": "LIAMES LLC",
        "owner_mailing_address": "1 META WAY MENLO PARK CA 94025",
        "situs_address": "12279 MIDDLETON",
        "legal_description": "NE",
        "acres": 160.0,
        "planar_acres": 159.383,
        "land_use_code": 101,
        "tax_district": "J36",
        "school_code": "8702",
        "market_land_value": 1354900,
        "market_improvement_value": 0,
        "cauv_value": 585960,
        "last_sale_date": "2023-11-14",
        "last_sale_amount": 0,
        "valid_sale": "U",
        "instrument_code": "QC",
        "conveyance_number": "0",
        "deed_number": "1588",
        "rezoning_contestable_2026_07_07": false,
        "township_zoning_2025_11_13": [
          {
            "district": "M-1: Light Industrial",
            "pct_of_parcel": 100.0,
            "zoning_fabric_parcels": [
              "611300000001000"
            ]
          }
        ]
      }
    },
    {
      "type": "Feature",
      "geometry": {
        "type": "Polygon",
        "coordinates": [
          [
            [
              -83.64343899839884,
              41.45602401348026
            ],
            [
              -83.64343488411485,
              41.45524749263138
            ],
            [
              -83.64343164748489,
              41.45463656476126
            ],
            [
              -83.64342974125984,
              41.45316496151385
            ],
            [
              -83.64343621451978,
              41.45172764027865
            ],
            [
              -83.643438990314,
              41.45116270509063
            ],
            [
              -83.63862385240616,
              41.45104093229135
            ],
            [
              -83.6385979171456,
              41.451375473317555
            ],
            [
              -83.63896270321955,
              41.45137447750199
            ],
            [
              -83.63896402823458,
              41.451648926790995
            ],
            [
              -83.6387086821151,
              41.45164962365696
            ],
            [
              -83.63874048247614,
              41.45824461227464
            ],
            [
              -83.6393099990949,
              41.458252254803696
            ],
            [
              -83.64022746825752,
              41.458264372303624
            ],
            [
              -83.64139502480197,
              41.45827988490847
            ],
            [
              -83.64183001511368,
              41.458285661235536
            ],
            [
              -83.64184295085377,
              41.45755056024188
            ],
            [
              -83.64250711127593,
              41.45755774033746
            ],
            [
              -83.64345134035254,
              41.457569510575865
            ],
            [
              -83.64344956078996,
              41.45738785360992
            ],
            [
              -83.64344249104867,
              41.45645885533197
            ],
            [
              -83.64343899839884,
              41.45602401348026
            ]
          ]
        ]
      },
      "properties": {
        "parcel_id": "611300000002000",
        "parcel_id_auditor": "J36-611-300000002000",
        "legacy_cama_id": "J36-01502-10",
        "parcel_role": "liames_assembly",
        "owner": "LIAMES LLC",
        "owner_mailing_address": "1 META WAY MENLO PARK CA 94025",
        "situs_address": "12499 MIDDLETON",
        "legal_description": "ENW LESS N280' W442' LESS 1.66A PT\n& LESS S100' N2502.35' E100'",
        "acres": 74.65,
        "planar_acres": 74.759,
        "land_use_code": 101,
        "tax_district": "J36",
        "school_code": "8702",
        "market_land_value": 622000,
        "market_improvement_value": 0,
        "cauv_value": 255360,
        "last_sale_date": "2023-11-14",
        "last_sale_amount": 2923960,
        "valid_sale": "Q",
        "instrument_code": "LW",
        "conveyance_number": "1750",
        "deed_number": null,
        "rezoning_contestable_2026_07_07": false,
        "township_zoning_2025_11_13": [
          {
            "district": "M-1: Light Industrial",
            "pct_of_parcel": 100.0,
            "zoning_fabric_parcels": [
              "611300000002000"
            ]
          }
        ]
      }
    },
    {
      "type": "Feature",
      "geometry": {
        "type": "Polygon",
        "coordinates": [
          [
            [
              -83.6289604395363,
              41.46395375733956
            ],
            [
              -83.62894978731366,
              41.4653206154282
            ],
            [
              -83.6313650660585,
              41.46537004813276
            ],
            [
              -83.63137344374684,
              41.46400671446942
            ],
            [
              -83.630137786819,
              41.46397737492691
            ],
            [
              -83.6289604395363,
              41.46395375733956
            ]
          ]
        ]
      },
      "properties": {
        "parcel_id": "611190000037000",
        "parcel_id_auditor": "J36-611-190000037000",
        "legacy_cama_id": "J36-01003-31",
        "parcel_role": "liames_assembly",
        "owner": "LIAMES LLC",
        "owner_mailing_address": "1 META WAY MENLO PARK CA 94025",
        "situs_address": "21443 MERCER",
        "legal_description": "N495.41' E661.28' NE SE",
        "acres": 7.52,
        "planar_acres": 7.566,
        "land_use_code": 511,
        "tax_district": "J36",
        "school_code": "8702",
        "market_land_value": 102800,
        "market_improvement_value": 324600,
        "cauv_value": 0,
        "last_sale_date": "2024-11-22",
        "last_sale_amount": 650000,
        "valid_sale": "U",
        "instrument_code": "WD",
        "conveyance_number": "1937",
        "deed_number": null,
        "rezoning_contestable_2026_07_07": true,
        "township_zoning_2025_11_13": [
          {
            "district": "A-1: Agricultural",
            "pct_of_parcel": 100.0,
            "zoning_fabric_parcels": [
              "611190000037000"
            ]
          }
        ]
      }
    },
    {
      "type": "Feature",
      "geometry": {
        "type": "Polygon",
        "coordinates": [
          [
            [
              -83.63016771688766,
              41.4588251369449
            ],
            [
              -83.63016652572159,
              41.45897847676727
            ],
            [
              -83.63014985388823,
              41.4595510778205
            ],
            [
              -83.63140186464581,
              41.459572193312944
            ],
            [
              -83.63141174521562,
              41.458121264612544
            ],
            [
              -83.63017300796467,
              41.458100308204024
            ],
            [
              -83.63016771688766,
              41.4588251369449
            ]
          ]
        ]
      },
      "properties": {
        "parcel_id": "611190000033000",
        "parcel_id_auditor": "J36-611-190000033000",
        "legacy_cama_id": "J36-01003-20",
        "parcel_role": "liames_assembly",
        "owner": "LIAMES LLC",
        "owner_mailing_address": "52 E GAY ST COLUMBUS OH 43215",
        "situs_address": "12090 MIDDLETON",
        "legal_description": "W339.88' E659.89' S498.72\nE1/4 SE",
        "acres": 3.89,
        "planar_acres": 4.133,
        "land_use_code": 511,
        "tax_district": "J36",
        "school_code": "8702",
        "market_land_value": 72600,
        "market_improvement_value": 114300,
        "cauv_value": 0,
        "last_sale_date": "2025-07-15",
        "last_sale_amount": 450000,
        "valid_sale": "U",
        "instrument_code": "WD",
        "conveyance_number": "1131",
        "deed_number": null,
        "rezoning_contestable_2026_07_07": true,
        "township_zoning_2025_11_13": [
          {
            "district": "A-1: Agricultural",
            "pct_of_parcel": 100.0,
            "zoning_fabric_parcels": [
              "611190000033000"
            ]
          }
        ]
      }
    },
    {
      "type": "Feature",
      "geometry": {
        "type": "Polygon",
        "coordinates": [
          [
            [
              -83.62975621841893,
              41.45954443652039
            ],
            [
              -83.62899487824933,
              41.45953392825211
            ],
            [
              -83.62899016568736,
              41.460138823116836
            ],
            [
              -83.63139877623784,
              41.460169420609716
            ],
            [
              -83.63140186464581,
              41.459572193312944
            ],
            [
              -83.63014985388823,
              41.4595510778205
            ],
            [
              -83.62975621841893,
              41.45954443652039
            ]
          ]
        ]
      },
      "properties": {
        "parcel_id": "611190000036001",
        "parcel_id_auditor": "J36-611-190000036001",
        "legacy_cama_id": null,
        "parcel_role": "liames_assembly",
        "owner": "LIAMES LLC",
        "owner_mailing_address": "52 EAST GAY ST COLUMBUS OH 43215",
        "situs_address": "21123 MERCER",
        "legal_description": "N220' S748.71' W660.09'  \nSE SE",
        "acres": 3.33,
        "planar_acres": 3.324,
        "land_use_code": 511,
        "tax_district": "J36",
        "school_code": "8702",
        "market_land_value": 68700,
        "market_improvement_value": 227200,
        "cauv_value": 0,
        "last_sale_date": "2025-07-21",
        "last_sale_amount": 570000,
        "valid_sale": "U",
        "instrument_code": "LW",
        "conveyance_number": "1170",
        "deed_number": null,
        "rezoning_contestable_2026_07_07": true,
        "township_zoning_2025_11_13": [
          {
            "district": "A-1: Agricultural",
            "pct_of_parcel": 100.0,
            "zoning_fabric_parcels": [
              "611190000036001"
            ]
          }
        ]
      }
    },
    {
      "type": "Feature",
      "geometry": {
        "type": "Polygon",
        "coordinates": [
          [
            [
              -83.62900620241182,
              41.45808055418415
            ],
            [
              -83.62900538674153,
              41.45818515307159
            ],
            [
              -83.6289993608426,
              41.45895877956575
            ],
            [
              -83.63016652572159,
              41.45897847676727
            ],
            [
              -83.63016771688766,
              41.4588251369449
            ],
            [
              -83.63017300796467,
              41.458100308204024
            ],
            [
              -83.62900620241182,
              41.45808055418415
            ]
          ]
        ]
      },
      "properties": {
        "parcel_id": "611190000034000",
        "parcel_id_auditor": "J36-611-190000034000",
        "legacy_cama_id": "J36-01004-00",
        "parcel_role": "liames_assembly",
        "owner": "LIAMES LLC",
        "owner_mailing_address": "1 META WAY MENLOW PARK CA 94025",
        "situs_address": "12018 MIDDLETON",
        "legal_description": "SECOR E1/4 SE (290'X300')",
        "acres": 2.0,
        "planar_acres": 2.351,
        "land_use_code": 511,
        "tax_district": "J36",
        "school_code": "8702",
        "market_land_value": 55900,
        "market_improvement_value": 190200,
        "cauv_value": 0,
        "last_sale_date": "2025-05-01",
        "last_sale_amount": 615000,
        "valid_sale": "U",
        "instrument_code": "WD",
        "conveyance_number": "0617",
        "deed_number": null,
        "rezoning_contestable_2026_07_07": true,
        "township_zoning_2025_11_13": [
          {
            "district": "A-1: Agricultural",
            "pct_of_parcel": 100.0,
            "zoning_fabric_parcels": [
              "611190000034000"
            ]
          }
        ]
      }
    },
    {
      "type": "Feature",
      "geometry": {
        "type": "Polygon",
        "coordinates": [
          [
            [
              -83.64759906863183,
              41.46830463832693
            ],
            [
              -83.64846783652962,
              41.46832188654493
            ],
            [
              -83.64869333702212,
              41.46832636351492
            ],
            [
              -83.6488283627925,
              41.46772808317006
            ],
            [
              -83.64772292924151,
              41.46770576407758
            ],
            [
              -83.64759906863183,
              41.46830463832693
            ]
          ]
        ]
      },
      "properties": {
        "parcel_id": "611190000008000",
        "parcel_id_auditor": "J34-611-190000008000",
        "legacy_cama_id": "J34-02500-00",
        "parcel_role": "liames_assembly",
        "owner": "LIAMES LLC",
        "owner_mailing_address": "1 META WAY MENLO PARK CA 94025",
        "situs_address": "21698 DIXIE",
        "legal_description": "N1.59A PT COM 723.55' NE \nLINE NW & DIXIE HWY SW NW\nE OF HWY (300'X232.20')",
        "acres": 1.59,
        "planar_acres": 1.516,
        "land_use_code": 511,
        "tax_district": "J34",
        "school_code": "8707",
        "market_land_value": 52900,
        "market_improvement_value": 139700,
        "cauv_value": 0,
        "last_sale_date": "2024-09-04",
        "last_sale_amount": 450000,
        "valid_sale": "U",
        "instrument_code": "WD",
        "conveyance_number": "1424",
        "deed_number": null,
        "rezoning_contestable_2026_07_07": true,
        "township_zoning_2025_11_13": [
          {
            "district": "A-1: Agricultural",
            "pct_of_parcel": 100.0,
            "zoning_fabric_parcels": [
              "611190000008000"
            ]
          }
        ]
      }
    },
    {
      "type": "Feature",
      "geometry": {
        "type": "Polygon",
        "coordinates": [
          [
            [
              -83.63016652572159,
              41.45897847676727
            ],
            [
              -83.6289993608426,
              41.45895877956575
            ],
            [
              -83.62899487824933,
              41.45953392825211
            ],
            [
              -83.62975621841893,
              41.45954443652039
            ],
            [
              -83.63014985388823,
              41.4595510778205
            ],
            [
              -83.63016652572159,
              41.45897847676727
            ]
          ]
        ]
      },
      "properties": {
        "parcel_id": "611190000035000",
        "parcel_id_auditor": "J36-611-190000035000",
        "legacy_cama_id": "J36-01003-10",
        "parcel_role": "liames_assembly",
        "owner": "LIAMES LLC",
        "owner_mailing_address": "52 E GAY ST COLUMBUS OH 43215",
        "situs_address": "21067 MERCER",
        "legal_description": "E320' N208.71' S498.71'  \nSE SE",
        "acres": 1.53,
        "planar_acres": 1.528,
        "land_use_code": 511,
        "tax_district": "J36",
        "school_code": "8702",
        "market_land_value": 53600,
        "market_improvement_value": 163200,
        "cauv_value": 0,
        "last_sale_date": "2025-05-23",
        "last_sale_amount": 472500,
        "valid_sale": "U",
        "instrument_code": "WD",
        "conveyance_number": "0778",
        "deed_number": null,
        "rezoning_contestable_2026_07_07": true,
        "township_zoning_2025_11_13": [
          {
            "district": "A-1: Agricultural",
            "pct_of_parcel": 100.0,
            "zoning_fabric_parcels": [
              "611190000035000"
            ]
          }
        ]
      }
    },
    {
      "type": "Feature",
      "geometry": {
        "type": "Polygon",
        "coordinates": [
          [
            [
              -83.64890885453688,
              41.46733685610602
            ],
            [
              -83.64780329342516,
              41.46731719442696
            ],
            [
              -83.64772292924151,
              41.46770576407758
            ],
            [
              -83.6488283627925,
              41.46772808317006
            ],
            [
              -83.64890885453688,
              41.46733685610602
            ]
          ]
        ]
      },
      "properties": {
        "parcel_id": "611190000009000",
        "parcel_id_auditor": "J34-611-190000009000",
        "legacy_cama_id": "J34-02501-01",
        "parcel_role": "liames_assembly",
        "owner": "LIAMES LLC",
        "owner_mailing_address": "52 E GAY ST COLUMBUS OH 43215",
        "situs_address": "21630 DIXIE",
        "legal_description": "PT COM 577.15' NE'LY SUR \nLINE RT 25 S LINE NW1/4  \n(146.40'X300')",
        "acres": 1.01,
        "planar_acres": 0.992,
        "land_use_code": 511,
        "tax_district": "J34",
        "school_code": "8707",
        "market_land_value": 46800,
        "market_improvement_value": 130700,
        "cauv_value": 46750,
        "last_sale_date": "2025-05-27",
        "last_sale_amount": 475000,
        "valid_sale": "U",
        "instrument_code": "WD",
        "conveyance_number": "0782",
        "deed_number": null,
        "rezoning_contestable_2026_07_07": true,
        "township_zoning_2025_11_13": [
          {
            "district": "A-1: Agricultural",
            "pct_of_parcel": 99.7,
            "zoning_fabric_parcels": [
              "611190000009000"
            ]
          }
        ]
      }
    },
    {
      "type": "Feature",
      "geometry": {
        "type": "Polygon",
        "coordinates": [
          [
            [
              -83.65022788949612,
              41.46092506504254
            ],
            [
              -83.64943927377955,
              41.46091702698436
            ],
            [
              -83.64943286519832,
              41.46119946651737
            ],
            [
              -83.65016721368856,
              41.46122003483385
            ],
            [
              -83.65022788949612,
              41.46092506504254
            ]
          ]
        ]
      },
      "properties": {
        "parcel_id": "611190000025000",
        "parcel_id_auditor": "J34-611-190000025000",
        "legacy_cama_id": "J34-02509-00",
        "parcel_role": "liames_assembly",
        "owner": "LIAMES LLC",
        "owner_mailing_address": "1 META WAY MENLOW PARK CA 94025",
        "situs_address": "21186 DIXIE",
        "legal_description": "IRREG PT COM 929.34' NE O\nSWCOR",
        "acres": 0.5,
        "planar_acres": 0.505,
        "land_use_code": 511,
        "tax_district": "J34",
        "school_code": "8707",
        "market_land_value": 32200,
        "market_improvement_value": 99400,
        "cauv_value": 0,
        "last_sale_date": "2025-05-02",
        "last_sale_amount": 315000,
        "valid_sale": "U",
        "instrument_code": "LW",
        "conveyance_number": "0627",
        "deed_number": null,
        "rezoning_contestable_2026_07_07": true,
        "township_zoning_2025_11_13": [
          {
            "district": "R-4: Multiple Dwelling",
            "pct_of_parcel": 100.0,
            "zoning_fabric_parcels": [
              "611190000025000"
            ]
          }
        ]
      }
    },
    {
      "type": "Feature",
      "geometry": {
        "type": "Polygon",
        "coordinates": [
          [
            [
              -83.64336521796794,
              41.47292406935758
            ],
            [
              -83.64338723028567,
              41.46983916182917
            ],
            [
              -83.64341735349207,
              41.469270765041244
            ],
            [
              -83.645408684915,
              41.46931646162717
            ],
            [
              -83.64823813731147,
              41.46938133123048
            ],
            [
              -83.64847403849835,
              41.469386736354686
            ],
            [
              -83.6487292992779,
              41.46939935257255
            ],
            [
              -83.65113401922491,
              41.46944931729443
            ],
            [
              -83.65111510070501,
              41.47310539674438
            ],
            [
              -83.6490878052297,
              41.473058012729865
            ],
            [
              -83.64773817095696,
              41.4730264480471
            ],
            [
              -83.64336521796794,
              41.47292406935758
            ]
          ]
        ]
      },
      "properties": {
        "parcel_id": "611190000006000",
        "parcel_id_auditor": "J34-611-190000006000",
        "legacy_cama_id": "J34-02504-00",
        "parcel_role": "rezoning_pending",
        "owner": "A SCHALLER LIMITED PARTNERSHIP",
        "owner_mailing_address": "850 STRAWBERRY HILL RD COLUMBUS OH 43213",
        "situs_address": "0 DIXIE",
        "legal_description": "N64.550A WNWFR",
        "acres": 64.55,
        "planar_acres": 64.915,
        "land_use_code": 101,
        "tax_district": "J34",
        "school_code": "8707",
        "market_land_value": 504200,
        "market_improvement_value": 0,
        "cauv_value": 207860,
        "last_sale_date": "1999-12-23",
        "last_sale_amount": 0,
        "valid_sale": "Q",
        "instrument_code": "NA",
        "conveyance_number": "1842",
        "deed_number": "1842",
        "rezoning_contestable_2026_07_07": false,
        "township_zoning_2025_11_13": [
          {
            "district": "A-1: Agricultural",
            "pct_of_parcel": 61.03,
            "zoning_fabric_parcels": [
              "611190000006000"
            ]
          }
        ]
      }
    },
    {
      "type": "Feature",
      "geometry": {
        "type": "Polygon",
        "coordinates": [
          [
            [
              -83.62422894915444,
              41.46196096178972
            ],
            [
              -83.62420011503046,
              41.46450697572558
            ],
            [
              -83.62420043213577,
              41.46452547165881
            ],
            [
              -83.62419525963635,
              41.46494326993119
            ],
            [
              -83.62419500271818,
              41.4649538668536
            ],
            [
              -83.62419509973624,
              41.46495952007066
            ],
            [
              -83.62417771284389,
              41.46525233086412
            ],
            [
              -83.62601267542362,
              41.465276189642644
            ],
            [
              -83.62894978731366,
              41.4653206154282
            ],
            [
              -83.6289604395363,
              41.46395375733956
            ],
            [
              -83.62899016568736,
              41.460138823116836
            ],
            [
              -83.62899487824933,
              41.45953392825211
            ],
            [
              -83.6289993608426,
              41.45895877956575
            ],
            [
              -83.62900538674153,
              41.45818515307159
            ],
            [
              -83.62889087310238,
              41.45818370360177
            ],
            [
              -83.62711399828386,
              41.45816130447545
            ],
            [
              -83.62446679070234,
              41.458313104841025
            ],
            [
              -83.62446417750316,
              41.458531007222106
            ],
            [
              -83.6242543193747,
              41.45883391917695
            ],
            [
              -83.62422894915444,
              41.46196096178972
            ]
          ]
        ]
      },
      "properties": {
        "parcel_id": "611200000011000",
        "parcel_id_auditor": "J36-611-200000011000",
        "legacy_cama_id": "J36-01110-00",
        "parcel_role": "apollo_permit_situs",
        "owner": "JJJ FAMILY PROPERTIES LLC",
        "owner_mailing_address": "20022 MERCER RD BOWLING GREEN OH 43402",
        "situs_address": "11902 MIDDLETON",
        "legal_description": "WSW LESS SE'LY PT FOR HWY",
        "acres": 79.07,
        "planar_acres": 76.852,
        "land_use_code": 101,
        "tax_district": "J36",
        "school_code": "8702",
        "market_land_value": 643200,
        "market_improvement_value": 7300,
        "cauv_value": 266990,
        "last_sale_date": "2008-12-22",
        "last_sale_amount": 0,
        "valid_sale": "U",
        "instrument_code": "WD",
        "conveyance_number": "0",
        "deed_number": "1783",
        "rezoning_contestable_2026_07_07": false,
        "township_zoning_2025_11_13": [
          {
            "district": "M-1: Light Industrial",
            "pct_of_parcel": 100.0,
            "zoning_fabric_parcels": [
              "611200000011000"
            ]
          }
        ]
      }
    },
    {
      "type": "Feature",
      "geometry": {
        "type": "Polygon",
        "coordinates": [
          [
            [
              -83.59584549556978,
              41.38508014832738
            ],
            [
              -83.59739876534103,
              41.38504360655189
            ],
            [
              -83.59739522148725,
              41.38191758609732
            ],
            [
              -83.59759419922096,
              41.381713177981396
            ],
            [
              -83.5969168380557,
              41.381719821853444
            ],
            [
              -83.59609054609781,
              41.38182859334041
            ],
            [
              -83.59601543346534,
              41.381836163310446
            ],
            [
              -83.59593975579256,
              41.3818391890065
            ],
            [
              -83.59583693193018,
              41.381840189258874
            ],
            [
              -83.59584549556978,
              41.38508014832738
            ]
          ]
        ]
      },
      "properties": {
        "parcel_id": "511210000002003",
        "parcel_id_auditor": "B07-511-210000002003",
        "legacy_cama_id": null,
        "parcel_role": "oppidan_colo",
        "owner": "CLOP BOWLING GREEN OH LLC",
        "owner_mailing_address": "400 WATER ST SUITE 200 EXCELSIOR MN 55331",
        "situs_address": "2371 WOODSTREAM",
        "legal_description": "11.80A PT COM NECOR NW NR",
        "acres": 11.8,
        "planar_acres": 11.818,
        "land_use_code": 350,
        "tax_district": "B07",
        "school_code": "8701",
        "market_land_value": 172500,
        "market_improvement_value": 0,
        "cauv_value": 0,
        "last_sale_date": "2025-02-03",
        "last_sale_amount": 1105000,
        "valid_sale": "Q",
        "instrument_code": "WD",
        "conveyance_number": "0144",
        "deed_number": null,
        "rezoning_contestable_2026_07_07": false,
        "township_zoning_2025_11_13": null
      }
    }
  ]
}
