{
  "type": "FeatureCollection",
  "feed": "campus",
  "meta": {
    "crs": "WGS84 (EPSG:4326)",
    "layers": [
      "campus"
    ]
  },
  "features": [
    {
      "type": "Feature",
      "geometry": {
        "type": "Polygon",
        "coordinates": [
          [
            [
              -83.8546421190108,
              39.4283808407884
            ],
            [
              -83.8545327388704,
              39.4276143892722
            ],
            [
              -83.8542508719772,
              39.4255327982657
            ],
            [
              -83.8496104941145,
              39.4258451234039
            ],
            [
              -83.849666318931,
              39.4267043118961
            ],
            [
              -83.8486151121809,
              39.4266641522744
            ],
            [
              -83.8470952499267,
              39.42656411826
            ],
            [
              -83.8464656183156,
              39.4265226685503
            ],
            [
              -83.8445770572344,
              39.4263983276183
            ],
            [
              -83.8443654036098,
              39.4263843805692
            ],
            [
              -83.8441537644204,
              39.4263704545904
            ],
            [
              -83.8439421181398,
              39.4263565174994
            ],
            [
              -83.8437304719435,
              39.4263425800236
            ],
            [
              -83.8435188258314,
              39.426328642163
            ],
            [
              -83.8433071798035,
              39.4263147039177
            ],
            [
              -83.8430955338599,
              39.4263007652875
            ],
            [
              -83.8428838880005,
              39.4262868262727
            ],
            [
              -83.8426722528501,
              39.4262728957592
            ],
            [
              -83.8422468680704,
              39.4262448786866
            ],
            [
              -83.8419534528372,
              39.4262255475945
            ],
            [
              -83.8419173398915,
              39.4265561799909
            ],
            [
              -83.8418909517567,
              39.4267975388329
            ],
            [
              -83.8417112179274,
              39.4284422593748
            ],
            [
              -83.8386002614228,
              39.428297004893
            ],
            [
              -83.8348426114805,
              39.4280821993811
            ],
            [
              -83.8338591966832,
              39.4280326141632
            ],
            [
              -83.8338002781129,
              39.428030216315
            ],
            [
              -83.8391603762473,
              39.4210987760958
            ],
            [
              -83.8396193974854,
              39.4211242828807
            ],
            [
              -83.8410862103438,
              39.4212057781179
            ],
            [
              -83.8413983630564,
              39.4188411347081
            ],
            [
              -83.8447973975002,
              39.4183824492924
            ],
            [
              -83.8446715363349,
              39.4178816431435
            ],
            [
              -83.8448034291559,
              39.4178587815661
            ],
            [
              -83.8450106985474,
              39.4178228538888
            ],
            [
              -83.8452179677264,
              39.4177869258423
            ],
            [
              -83.8454252366927,
              39.4177509974265
            ],
            [
              -83.8456325054463,
              39.4177150686415
            ],
            [
              -83.8458397739873,
              39.4176791394872
            ],
            [
              -83.8460470423157,
              39.4176432099637
            ],
            [
              -83.8462543104313,
              39.4176072800709
            ],
            [
              -83.8464615783344,
              39.4175713498088
            ],
            [
              -83.8466688460248,
              39.4175354191775
            ],
            [
              -83.8469143542135,
              39.4174928585472
            ],
            [
              -83.8470870365378,
              39.4174629298383
            ],
            [
              -83.8478831261791,
              39.4173249651806
            ],
            [
              -83.8485910810198,
              39.4172879260798
            ],
            [
              -83.8515990511444,
              39.4171305050583
            ],
            [
              -83.8513245905837,
              39.4148664374192
            ],
            [
              -83.8536703979251,
              39.4149561024626
            ],
            [
              -83.8570058807896,
              39.4149935785344
            ],
            [
              -83.857777910041,
              39.4150058093214
            ],
            [
              -83.8578233568192,
              39.4157811584073
            ],
            [
              -83.8580215265443,
              39.419161816831
            ],
            [
              -83.8581723472749,
              39.4217345077646
            ],
            [
              -83.8573955240093,
              39.4217463410079
            ],
            [
              -83.8574050399749,
              39.4218100233137
            ],
            [
              -83.8580711839053,
              39.4272900913517
            ],
            [
              -83.8581537285678,
              39.4279630087202
            ],
            [
              -83.857148190274,
              39.4284715705173
            ],
            [
              -83.8564777466469,
              39.4276458600061
            ],
            [
              -83.8556243382006,
              39.4280754514395
            ],
            [
              -83.8551374529907,
              39.4283205360545
            ],
            [
              -83.8550430321966,
              39.4282013475382
            ],
            [
              -83.8546421190108,
              39.4283808407884
            ]
          ]
        ]
      },
      "properties": {
        "layer": "campus",
        "label": "1488 S US 68",
        "color": "#3f51b5",
        "role": "area",
        "grantee": "AMAZON DATA SERVICES INC",
        "parcel_id": "285-13-02-01-0000-00",
        "parcel_id_dashless": "285130201000000",
        "auditor_url": "https://clintoncountyauditor.org/RealEstate/Default/Lookup?number=285130201000000",
        "corridor_role": "campus_holding",
        "rezoning_ordinance": null,
        "owner": "AMAZON DATA SERVICES INC",
        "owner_mailing_address": "ATTN: GENERAL COUNSEL (REAL ESTATE) [CMH165]\nPO BOX 80416 SEATTLE WA 98108-0416",
        "situs_address": "1488 S US 68",
        "legal_description": "MS 2471-1338\nTY26 TIF 100% 30YRS -FINAL \nRES TO BE 472.09AC 2026DUP\nSPLIT/FR 270130201000000(480.202AC) 25DUP DUE TO TYPE II ANNEX \n(MOVE BUILDINGS HERE)",
        "acres": 471.609,
        "planar_acres": 472.221,
        "land_use_code": 111,
        "land_use_name": "CASH-GRAIN OR GENERAL FARM \"QUALIFIED FOR CURRENT AGRICULTURAL USE VALUE\"",
        "class": "Agriculture",
        "tax_district_code": 285,
        "tax_district": "UNION TWP-WILMINGTON",
        "school_district": "WILMINGTON CSD",
        "neighborhood": "CITY OF WILMINGTON",
        "county_zoning_district": null,
        "county_zoning_name": null,
        "appraised_land_value": 5808100,
        "appraised_improvement_value": 284600,
        "appraised_total_value": 6092700,
        "current_tax": 17339.93,
        "last_sale_date": "2025-12-10",
        "last_sale_amount": 86436000,
        "valid_sale": "True",
        "deed_reference": "2025-00005287",
        "deed_page": null,
        "has_cauv": true,
        "has_exemption": false,
        "has_abatement": false,
        "tax_year": 2025
      }
    },
    {
      "type": "Feature",
      "geometry": {
        "type": "Polygon",
        "coordinates": [
          [
            [
              -83.8334000581047,
              39.4280139267162
            ],
            [
              -83.8387633174659,
              39.4210767115484
            ],
            [
              -83.8389611846531,
              39.421087707465
            ],
            [
              -83.8391603762473,
              39.4210987760958
            ],
            [
              -83.8338002781129,
              39.428030216315
            ],
            [
              -83.8334000581047,
              39.4280139267162
            ]
          ]
        ]
      },
      "properties": {
        "layer": "campus",
        "label": "US 68",
        "color": "#3f51b5",
        "role": "area",
        "grantee": "AMAZON DATA SERVICES INC",
        "parcel_id": "290-26-01-12-0000-00",
        "parcel_id_dashless": "290260112000000",
        "auditor_url": "https://clintoncountyauditor.org/RealEstate/Default/Lookup?number=290260112000000",
        "corridor_role": "campus_holding",
        "rezoning_ordinance": null,
        "owner": "AMAZON DATA SERVICES INC",
        "owner_mailing_address": "ATTN: GENERAL COUNSEL (REAL ESTATE) [CMH165]\nPO BOX 80416 SEATTLE WA 98108-0416",
        "situs_address": "US 68",
        "legal_description": "MS 1338 & 2471\nRES TO BE 7.040AC ROW 2026 DUP\nANNEXED FROM 270130201000000 TO 290 IN 1988\nRIGHT OF WAY",
        "acres": 7.04,
        "planar_acres": 6.777,
        "land_use_code": 100,
        "land_use_name": "AGRICULTURAL VACANT LAND",
        "class": "Agriculture",
        "tax_district_code": 290,
        "tax_district": "CITY OF WILMINGTON",
        "school_district": "WILMINGTON CSD",
        "neighborhood": "CITY OF WILMINGTON",
        "county_zoning_district": null,
        "county_zoning_name": null,
        "appraised_land_value": 0,
        "appraised_improvement_value": 0,
        "appraised_total_value": 0,
        "current_tax": 0,
        "last_sale_date": "2025-12-10",
        "last_sale_amount": 86436000,
        "valid_sale": "True",
        "deed_reference": "2025-00005287",
        "deed_page": null,
        "has_cauv": false,
        "has_exemption": false,
        "has_abatement": false,
        "tax_year": 2025
      }
    },
    {
      "type": "Feature",
      "geometry": {
        "type": "Polygon",
        "coordinates": [
          [
            [
              -83.8572047834532,
              39.428541269519
            ],
            [
              -83.857148190274,
              39.4284715705173
            ],
            [
              -83.8581537285678,
              39.4279630087202
            ],
            [
              -83.8581652277585,
              39.4280567540766
            ],
            [
              -83.8580465180645,
              39.4281145917511
            ],
            [
              -83.8572047834532,
              39.428541269519
            ]
          ]
        ]
      },
      "properties": {
        "layer": "campus",
        "label": "SR 730",
        "color": "#3f51b5",
        "role": "area",
        "grantee": "AMAZON DATA SERVICES INC",
        "parcel_id": "270-13-02-01-0000-00",
        "parcel_id_dashless": "270130201000000",
        "auditor_url": "https://clintoncountyauditor.org/RealEstate/Default/Lookup?number=270130201000000",
        "corridor_role": "campus_holding",
        "rezoning_ordinance": null,
        "owner": "AMAZON DATA SERVICES INC",
        "owner_mailing_address": "ATTN: GENERAL COUNSEL (REAL ESTATE) [CMH165]\nPO BOX 80416 SEATTLE WA 98108-0416",
        "situs_address": "SR 730",
        "legal_description": "MS 2471-1338\nRES .236AC ROW 2026DUP\nSPLT 270130201000100(471.609AC) REM 8.593AC RW SR 730 25DUP TYPE II ANNEX\n0001-00 RE# TO 285130201000000 2025DUP (NEW DISTRICT 2025DUP)",
        "acres": 0.236,
        "planar_acres": 0.228,
        "land_use_code": 110,
        "land_use_name": "AGRICULTURAL VACANT LAND \"QUALIFIED FOR CURRENT AGRICULTURAL USE VALUE\"",
        "class": "Agriculture",
        "tax_district_code": 270,
        "tax_district": "UNION TWP-WILMINGTON CSD",
        "school_district": "WILMINGTON CSD",
        "neighborhood": "UNION TWP",
        "county_zoning_district": "S-R",
        "county_zoning_name": "Suburban Residential District",
        "appraised_land_value": 17700,
        "appraised_improvement_value": 0,
        "appraised_total_value": 17700,
        "current_tax": 41.66,
        "last_sale_date": "2025-12-10",
        "last_sale_amount": 86436000,
        "valid_sale": "True",
        "deed_reference": "2025-00005287",
        "deed_page": null,
        "has_cauv": true,
        "has_exemption": false,
        "has_abatement": false,
        "tax_year": 2025
      }
    },
    {
      "type": "Feature",
      "geometry": {
        "type": "Polygon",
        "coordinates": [
          [
            [
              -83.8611357535551,
              39.4037947326216
            ],
            [
              -83.8615424762795,
              39.4041544728887
            ],
            [
              -83.8625992590326,
              39.4035987778293
            ],
            [
              -83.8646323198704,
              39.4069650574713
            ],
            [
              -83.8645682317735,
              39.4069883685255
            ],
            [
              -83.8636495206735,
              39.407322527676
            ],
            [
              -83.864050182552,
              39.4079854352623
            ],
            [
              -83.8644508508529,
              39.4086483414042
            ],
            [
              -83.8648515278984,
              39.4093112460743
            ],
            [
              -83.8651520318549,
              39.4098084187683
            ],
            [
              -83.8654525400772,
              39.410305590642
            ],
            [
              -83.8664353823232,
              39.4099481025807
            ],
            [
              -83.8665405692928,
              39.4101221099267
            ],
            [
              -83.8655577182107,
              39.410479600748
            ],
            [
              -83.8659258492854,
              39.4110886357368
            ],
            [
              -83.8668452289561,
              39.4106261266491
            ],
            [
              -83.8671483074336,
              39.4111275071813
            ],
            [
              -83.8647259875241,
              39.4125780719055
            ],
            [
              -83.8648010195171,
              39.4151395012336
            ],
            [
              -83.8631503649483,
              39.4151088870404
            ],
            [
              -83.8597692928032,
              39.4112909390145
            ],
            [
              -83.85747330082,
              39.4086615303051
            ],
            [
              -83.8576806448771,
              39.4085460371923
            ],
            [
              -83.8545520144251,
              39.4048642357324
            ],
            [
              -83.8542315690186,
              39.404487114062
            ],
            [
              -83.8564317425784,
              39.4016627968684
            ],
            [
              -83.856310138278,
              39.4016057808261
            ],
            [
              -83.8548689255473,
              39.4008016155729
            ],
            [
              -83.8551529023968,
              39.4004289785268
            ],
            [
              -83.8611357535551,
              39.4037947326216
            ]
          ]
        ]
      },
      "properties": {
        "layer": "campus",
        "label": "MCGUINN RD",
        "color": "#3f51b5",
        "role": "area",
        "grantee": "JUNE 11 2001 RALPH LARRY ROBERTS II FT",
        "parcel_id": "285-13-02-02-0000-00",
        "parcel_id_dashless": "285130202000000",
        "auditor_url": "https://clintoncountyauditor.org/RealEstate/Default/Lookup?number=285130202000000",
        "corridor_role": "petitioned_rezoning",
        "rezoning_ordinance": "O-26-06",
        "owner": "JUNE 11 2001 RALPH LARRY ROBERTS II FT",
        "owner_mailing_address": "48 NORTH SOUTH ST. WILMINGTON OH 45177",
        "situs_address": "MCGUINN RD",
        "legal_description": "MS 1096\n2026 ANNEX TO 285-UNION-WILMINGTON CITY\nSPLIT FROM 270130501000000(191.117AC) 26DUP PER ANNEX",
        "acres": 190.065,
        "planar_acres": 188.606,
        "land_use_code": 111,
        "land_use_name": "CASH-GRAIN OR GENERAL FARM \"QUALIFIED FOR CURRENT AGRICULTURAL USE VALUE\"",
        "class": "Agriculture",
        "tax_district_code": 285,
        "tax_district": "UNION TWP-WILMINGTON",
        "school_district": "WILMINGTON CSD",
        "neighborhood": "UNION TWP",
        "county_zoning_district": null,
        "county_zoning_name": null,
        "appraised_land_value": 0,
        "appraised_improvement_value": 0,
        "appraised_total_value": 0,
        "current_tax": 0,
        "last_sale_date": "2019-01-17",
        "last_sale_amount": 1337900,
        "valid_sale": "False",
        "deed_reference": "42",
        "deed_page": "186",
        "has_cauv": false,
        "has_exemption": false,
        "has_abatement": false,
        "tax_year": 2025
      }
    },
    {
      "type": "Feature",
      "geometry": {
        "type": "Polygon",
        "coordinates": [
          [
            [
              -83.8570058807896,
              39.4149935785344
            ],
            [
              -83.8536703979251,
              39.4149561024626
            ],
            [
              -83.8484180156438,
              39.4088637367955
            ],
            [
              -83.8483094864545,
              39.4087473620425
            ],
            [
              -83.8501004832454,
              39.4064296792731
            ],
            [
              -83.8504943119987,
              39.4059734126674
            ],
            [
              -83.8507362933906,
              39.4056068527319
            ],
            [
              -83.8522682917142,
              39.4036239805182
            ],
            [
              -83.8523679872789,
              39.4037416713942
            ],
            [
              -83.8537302550909,
              39.4052980055165
            ],
            [
              -83.8545520144251,
              39.4048642357324
            ],
            [
              -83.8576806448771,
              39.4085460371923
            ],
            [
              -83.85747330082,
              39.4086615303051
            ],
            [
              -83.8597692928032,
              39.4112909390145
            ],
            [
              -83.8589166075669,
              39.4128937977189
            ],
            [
              -83.8575720009016,
              39.4137958265005
            ],
            [
              -83.8570058807896,
              39.4149935785344
            ]
          ]
        ]
      },
      "properties": {
        "layer": "campus",
        "label": "US 68 RD",
        "color": "#3f51b5",
        "role": "area",
        "grantee": "JACK L WEBB RLT",
        "parcel_id": "285-13-04-01-0000-00",
        "parcel_id_dashless": "285130401000000",
        "auditor_url": "https://clintoncountyauditor.org/RealEstate/Default/Lookup?number=285130401000000",
        "corridor_role": "petitioned_rezoning",
        "rezoning_ordinance": "O-26-07",
        "owner": "JACK L WEBB RLT",
        "owner_mailing_address": "787 E PRIMA VISTA BLVD PORT ST LUCIE FL 34952",
        "situs_address": "US 68 RD",
        "legal_description": "MS 1096\n2026 ANNEX TO 285-UNION-WILMINGTON CITY\nRES TO BE 170.116AC 26DUP PER ANNEXATION",
        "acres": 170.116,
        "planar_acres": 171.559,
        "land_use_code": 111,
        "land_use_name": "CASH-GRAIN OR GENERAL FARM \"QUALIFIED FOR CURRENT AGRICULTURAL USE VALUE\"",
        "class": "Agriculture",
        "tax_district_code": 285,
        "tax_district": "UNION TWP-WILMINGTON",
        "school_district": "WILMINGTON CSD",
        "neighborhood": "UNION TWP",
        "county_zoning_district": null,
        "county_zoning_name": null,
        "appraised_land_value": 1667800,
        "appraised_improvement_value": 2800,
        "appraised_total_value": 1670600,
        "current_tax": 2930.4,
        "last_sale_date": "2008-10-01",
        "last_sale_amount": 0,
        "valid_sale": "False",
        "deed_reference": "37",
        "deed_page": "182",
        "has_cauv": true,
        "has_exemption": false,
        "has_abatement": false,
        "tax_year": 2025
      }
    },
    {
      "type": "Feature",
      "geometry": {
        "type": "Polygon",
        "coordinates": [
          [
            [
              -83.8671483074336,
              39.4111275071813
            ],
            [
              -83.8695134096443,
              39.4150525470522
            ],
            [
              -83.869889576213,
              39.4156772683406
            ],
            [
              -83.8656609828444,
              39.4173178600426
            ],
            [
              -83.8658897363584,
              39.4196000728508
            ],
            [
              -83.8633481144829,
              39.4216076360463
            ],
            [
              -83.8606771048418,
              39.4215605662499
            ],
            [
              -83.8602314147506,
              39.4150546927417
            ],
            [
              -83.8631503649483,
              39.4151088870404
            ],
            [
              -83.8648010195171,
              39.4151395012336
            ],
            [
              -83.8647259875241,
              39.4125780719055
            ],
            [
              -83.8671483074336,
              39.4111275071813
            ]
          ]
        ]
      },
      "properties": {
        "layer": "campus",
        "label": "NOT ON FILE",
        "color": "#3f51b5",
        "role": "area",
        "grantee": "L T LAND DEVELOPMENT LLC",
        "parcel_id": "285-13-11-02-0000-00",
        "parcel_id_dashless": "285131102000000",
        "auditor_url": "https://clintoncountyauditor.org/RealEstate/Default/Lookup?number=285131102000000",
        "corridor_role": "petitioned_rezoning",
        "rezoning_ordinance": "O-26-04",
        "owner": "L T LAND DEVELOPMENT LLC",
        "owner_mailing_address": "2176 SR 730 WILMINGTON OH 45177",
        "situs_address": "NOT ON FILE",
        "legal_description": "MS 2312 4558 1096\n2026 ANNEX TO 285-UNION-WILMINGTON CITY\nSPLIT/FR 270131102000100(149.639AC) 26DUP",
        "acres": 119.375,
        "planar_acres": 118.964,
        "land_use_code": 110,
        "land_use_name": "AGRICULTURAL VACANT LAND \"QUALIFIED FOR CURRENT AGRICULTURAL USE VALUE\"",
        "class": "Agriculture",
        "tax_district_code": 285,
        "tax_district": "UNION TWP-WILMINGTON",
        "school_district": "WILMINGTON CSD",
        "neighborhood": "UNION TWP",
        "county_zoning_district": null,
        "county_zoning_name": null,
        "appraised_land_value": 0,
        "appraised_improvement_value": 0,
        "appraised_total_value": 0,
        "current_tax": 0,
        "last_sale_date": "2011-04-22",
        "last_sale_amount": 538800,
        "valid_sale": "False",
        "deed_reference": "38",
        "deed_page": "289",
        "has_cauv": false,
        "has_exemption": false,
        "has_abatement": false,
        "tax_year": 2025
      }
    },
    {
      "type": "Feature",
      "geometry": {
        "type": "Polygon",
        "coordinates": [
          [
            [
              -83.8582453697716,
              39.4217950761917
            ],
            [
              -83.8574050399749,
              39.4218100233137
            ],
            [
              -83.8573955240093,
              39.4217463410079
            ],
            [
              -83.8581723472749,
              39.4217345077646
            ],
            [
              -83.8580215265443,
              39.419161816831
            ],
            [
              -83.8578233568192,
              39.4157811584073
            ],
            [
              -83.857777910041,
              39.4150058093214
            ],
            [
              -83.8570058807896,
              39.4149935785344
            ],
            [
              -83.8575720009016,
              39.4137958265005
            ],
            [
              -83.8589166075669,
              39.4128937977189
            ],
            [
              -83.8597692928032,
              39.4112909390145
            ],
            [
              -83.8631503649483,
              39.4151088870404
            ],
            [
              -83.8602314147506,
              39.4150546927417
            ],
            [
              -83.8606771048418,
              39.4215605662499
            ],
            [
              -83.8582330206938,
              39.4215211009943
            ],
            [
              -83.8582453697716,
              39.4217950761917
            ]
          ]
        ]
      },
      "properties": {
        "layer": "campus",
        "label": "1957 SR 730",
        "color": "#3f51b5",
        "role": "area",
        "grantee": "THOMPSON MATTHEW E",
        "parcel_id": "285-13-03-01-0000-00",
        "parcel_id_dashless": "285130301000000",
        "auditor_url": "https://clintoncountyauditor.org/RealEstate/Default/Lookup?number=285130301000000",
        "corridor_role": "petitioned_rezoning",
        "rezoning_ordinance": "O-26-05",
        "owner": "THOMPSON MATTHEW E",
        "owner_mailing_address": "1508 MCGUINN RD WILMINGTON OH 45177-9761",
        "situs_address": "1957 SR 730",
        "legal_description": "MS 1096\n2026 ANNEX TO 285-UNION-WILMINGTON CITY",
        "acres": 65.323,
        "planar_acres": 65.432,
        "land_use_code": 111,
        "land_use_name": "CASH-GRAIN OR GENERAL FARM \"QUALIFIED FOR CURRENT AGRICULTURAL USE VALUE\"",
        "class": "Agriculture",
        "tax_district_code": 285,
        "tax_district": "UNION TWP-WILMINGTON",
        "school_district": "WILMINGTON CSD",
        "neighborhood": "UNION TWP",
        "county_zoning_district": null,
        "county_zoning_name": null,
        "appraised_land_value": 655700,
        "appraised_improvement_value": 116400,
        "appraised_total_value": 772100,
        "current_tax": 2575.08,
        "last_sale_date": "2001-01-04",
        "last_sale_amount": 0,
        "valid_sale": "False",
        "deed_reference": null,
        "deed_page": null,
        "has_cauv": true,
        "has_exemption": false,
        "has_abatement": false,
        "tax_year": 2025
      }
    }
  ]
}
